{"type": "FeatureCollection", "features": [{"type": "Feature", "properties": {"kind": "community_centre", "name": "University YWCA"}, "geometry": {"type": "Point", "coordinates": [-122.25663, 37.86893]}}, {"type": "Feature", "properties": {"kind": "library", "name": "Mission Bay Branch Library"}, "geometry": {"type": "Point", "coordinates": [-122.3932, 37.77539]}}, {"type": "Feature", "properties": {"kind": "community_centre", "name": "Lee Recreation Center"}, "geometry": {"type": "Point", "coordinates": [-122.38975, 37.73489]}}, {"type": "Feature", "properties": {"kind": "shelter/senior", "name": "Berkeley Memory Care Community"}, "geometry": {"type": "Point", "coordinates": [-122.28124, 37.86622]}}, {"type": "Feature", "properties": {"kind": "library", "name": "Far West Library for Educational Research and Development"}, "geometry": {"type": "Point", "coordinates": [-122.41497, 37.76715]}}, {"type": "Feature", "properties": {"kind": "library", "name": "Anne Bremer Memorial Library"}, "geometry": {"type": "Point", "coordinates": [-122.41692, 37.80354]}}, {"type": "Feature", "properties": {"kind": "library", "name": "Rodeo Library - Contra Costa County Library"}, "geometry": {"type": "Point", "coordinates": [-122.26858, 38.03548]}}, {"type": "Feature", "properties": {"kind": "library", "name": "San Pablo Branch Contra Costa County Library"}, "geometry": {"type": "Point", "coordinates": [-122.3399, 37.95791]}}, {"type": "Feature", "properties": {"kind": "library", "name": "Brentwood Branch Contra Costa County Library"}, "geometry": {"type": "Point", "coordinates": [-121.69264, 37.93361]}}, {"type": "Feature", "properties": {"kind": "library", "name": "Antioch Branch Contra Costa County Library"}, "geometry": {"type": "Point", "coordinates": [-121.81257, 38.00472]}}, {"type": "Feature", "properties": {"kind": "library", "name": "Elmhurst Branch Oakland Public Library"}, "geometry": {"type": "Point", "coordinates": [-122.17491, 37.75154]}}, {"type": "Feature", "properties": {"kind": "library", "name": "Albany Branch Alameda County Library"}, "geometry": {"type": "Point", "coordinates": [-122.29341, 37.88792]}}, {"type": "Feature", "properties": {"kind": "library", "name": "Eastmont Branch Oakland Public Library"}, "geometry": {"type": "Point", "coordinates": [-122.1762, 37.76856]}}, {"type": "Feature", "properties": {"kind": "library", "name": "Martin Luther King Junior Branch Oakland Public Library"}, "geometry": {"type": "Point", "coordinates": [-122.19077, 37.76061]}}, {"type": "Feature", "properties": {"kind": "library", "name": "Latin American Branch Oakland Public Library"}, "geometry": {"type": "Point", "coordinates": [-122.22247, 37.78354]}}, {"type": "Feature", "properties": {"kind": "library", "name": "Asian Branch Oakland Public Library"}, "geometry": {"type": "Point", "coordinates": [-122.27109, 37.8009]}}, {"type": "Feature", "properties": {"kind": "library", "name": "Moraga Branch Contra Costa County Library"}, "geometry": {"type": "Point", "coordinates": [-122.12279, 37.84081]}}, {"type": "Feature", "properties": {"kind": "library", "name": "West End Branch - Alameda Free Library"}, "geometry": {"type": "Point", "coordinates": [-122.27304, 37.77305]}}, {"type": "Feature", "properties": {"kind": "community_centre", "name": "Booker T Anderson Community Center"}, "geometry": {"type": "Point", "coordinates": [-122.32664, 37.91845]}}, {"type": "Feature", "properties": {"kind": "library", "name": "Mechanics' Institute Library and Chess Room"}, "geometry": {"type": "Point", "coordinates": [-122.40304, 37.78885]}}, {"type": "Feature", "properties": {"kind": "library", "name": "African American Museum and Library at Oakland"}, "geometry": {"type": "Point", "coordinates": [-122.27642, 37.80611]}}, {"type": "Feature", "properties": {"kind": "library", "name": "Main Stacks"}, "geometry": {"type": "Point", "coordinates": [-122.25948, 37.87284]}}, {"type": "Feature", "properties": {"kind": "library", "name": "Harmer E. Davis Transportation Library"}, "geometry": {"type": "Point", "coordinates": [-122.25893, 37.87382]}}, {"type": "Feature", "properties": {"kind": "library", "name": "Earth Sciences and Map Library"}, "geometry": {"type": "Point", "coordinates": [-122.25966, 37.87403]}}, {"type": "Feature", "properties": {"kind": "library", "name": "Alameda County Law Library"}, "geometry": {"type": "Point", "coordinates": [-122.26443, 37.79978]}}, {"type": "Feature", "properties": {"kind": "pool", "name": "Archimedes Banya"}, "geometry": {"type": "Point", "coordinates": [-122.37273, 37.73055]}}, {"type": "Feature", "properties": {"kind": "community_centre", "name": "826 Valencia / The Writing Center"}, "geometry": {"type": "Point", "coordinates": [-122.42156, 37.75956]}}, {"type": "Feature", "properties": {"kind": "library", "name": "Berkeley Law Library"}, "geometry": {"type": "Point", "coordinates": [-122.25337, 37.86977]}}, {"type": "Feature", "properties": {"kind": "library", "name": "Freedom High School Library"}, "geometry": {"type": "Point", "coordinates": [-121.71972, 37.96931]}}, {"type": "Feature", "properties": {"kind": "community_centre", "name": "Kimochi"}, "geometry": {"type": "Point", "coordinates": [-122.43002, 37.78596]}}, {"type": "Feature", "properties": {"kind": "library", "name": "College of Alameda Library"}, "geometry": {"type": "Point", "coordinates": [-122.27819, 37.78053]}}, {"type": "Feature", "properties": {"kind": "library", "name": "Simpson Library"}, "geometry": {"type": "Point", "coordinates": [-122.39958, 37.76702]}}, {"type": "Feature", "properties": {"kind": "library", "name": "Environmental Design Library"}, "geometry": {"type": "Point", "coordinates": [-122.25458, 37.8708]}}, {"type": "Feature", "properties": {"kind": "library", "name": "Anthropology Reading Room"}, "geometry": {"type": "Point", "coordinates": [-122.25503, 37.86914]}}, {"type": "Feature", "properties": {"kind": "pool", "name": "Antioch WaterPark"}, "geometry": {"type": "Point", "coordinates": [-121.77207, 37.96554]}}, {"type": "Feature", "properties": {"kind": "library", "name": "Unnamed cooling site"}, "geometry": {"type": "Point", "coordinates": [-121.77382, 37.96609]}}, {"type": "Feature", "properties": {"kind": "library", "name": "Temescal Tool Lending Library"}, "geometry": {"type": "Point", "coordinates": [-122.26261, 37.83819]}}, {"type": "Feature", "properties": {"kind": "shelter/senior", "name": "Women's Drop-In Center"}, "geometry": {"type": "Point", "coordinates": [-122.41933, 37.76984]}}, {"type": "Feature", "properties": {"kind": "community_centre", "name": "Boys & Girls Club of Alameda"}, "geometry": {"type": "Point", "coordinates": [-122.28612, 37.77909]}}, {"type": "Feature", "properties": {"kind": "library", "name": "Mission Temporary Branch, San Francisco Public Library"}, "geometry": {"type": "Point", "coordinates": [-122.42095, 37.75314]}}, {"type": "Feature", "properties": {"kind": "community_centre", "name": "East Bay Community Law Center"}, "geometry": {"type": "Point", "coordinates": [-122.26839, 37.85582]}}, {"type": "Feature", "properties": {"kind": "community_centre", "name": "Fireside Room"}, "geometry": {"type": "Point", "coordinates": [-122.07362, 37.87031]}}, {"type": "Feature", "properties": {"kind": "community_centre", "name": "30th Street Senior Center"}, "geometry": {"type": "Point", "coordinates": [-122.42521, 37.74208]}}, {"type": "Feature", "properties": {"kind": "community_centre", "name": "Lions Center for the Blind"}, "geometry": {"type": "Point", "coordinates": [-122.26932, 37.80693]}}, {"type": "Feature", "properties": {"kind": "community_centre", "name": "Oakland Asian Cultural Center"}, "geometry": {"type": "Point", "coordinates": [-122.27087, 37.80065]}}, {"type": "Feature", "properties": {"kind": "shelter/senior", "name": "Normandie Hotel"}, "geometry": {"type": "Point", "coordinates": [-122.41225, 37.77443]}}, {"type": "Feature", "properties": {"kind": "library", "name": "C\u00e9sar E. Ch\u00e1vez Branch Oakland Public Library"}, "geometry": {"type": "Point", "coordinates": [-122.22505, 37.77602]}}, {"type": "Feature", "properties": {"kind": "library", "name": "Marian Koshland Bioscience & Natural Resources Library"}, "geometry": {"type": "Point", "coordinates": [-122.26268, 37.87137]}}, {"type": "Feature", "properties": {"kind": "library", "name": "Environmental Design Archives"}, "geometry": {"type": "Point", "coordinates": [-122.25442, 37.87023]}}, {"type": "Feature", "properties": {"kind": "library", "name": "Kresge Engineering & Mathematical Sciences Library"}, "geometry": {"type": "Point", "coordinates": [-122.25819, 37.874]}}, {"type": "Feature", "properties": {"kind": "library", "name": "Chemistry, Astronomy & Physics Library"}, "geometry": {"type": "Point", "coordinates": [-122.25577, 37.8725]}}, {"type": "Feature", "properties": {"kind": "library", "name": "Institute for Research on Labor and Employment Library"}, "geometry": {"type": "Point", "coordinates": [-122.25784, 37.86718]}}, {"type": "Feature", "properties": {"kind": "library", "name": "Ethnic Studies Library"}, "geometry": {"type": "Point", "coordinates": [-122.25743, 37.87157]}}, {"type": "Feature", "properties": {"kind": "library", "name": "Social Research Library"}, "geometry": {"type": "Point", "coordinates": [-122.26112, 37.87361]}}, {"type": "Feature", "properties": {"kind": "library", "name": "Institute of Governmental Studies Library"}, "geometry": {"type": "Point", "coordinates": [-122.25792, 37.87104]}}, {"type": "Feature", "properties": {"kind": "library", "name": "Thomas J. Long Business Library"}, "geometry": {"type": "Point", "coordinates": [-122.25374, 37.87148]}}, {"type": "Feature", "properties": {"kind": "library", "name": "Patten University Library"}, "geometry": {"type": "Point", "coordinates": [-122.21961, 37.78586]}}, {"type": "Feature", "properties": {"kind": "community_centre", "name": "Sentro Filipino"}, "geometry": {"type": "Point", "coordinates": [-122.40474, 37.78436]}}, {"type": "Feature", "properties": {"kind": "library", "name": "Howison Philosophy Library"}, "geometry": {"type": "Point", "coordinates": [-122.25797, 37.87086]}}, {"type": "Feature", "properties": {"kind": "library", "name": "Laney College Library"}, "geometry": {"type": "Point", "coordinates": [-122.26261, 37.79668]}}, {"type": "Feature", "properties": {"kind": "library", "name": "St Francis Memorial Hospital Library"}, "geometry": {"type": "Point", "coordinates": [-122.41695, 37.78981]}}, {"type": "Feature", "properties": {"kind": "library", "name": "Contra Costa County Public Law Library"}, "geometry": {"type": "Point", "coordinates": [-122.13324, 38.01801]}}, {"type": "Feature", "properties": {"kind": "shelter/senior", "name": "West Bay Pilipino Multi-Service Center"}, "geometry": {"type": "Point", "coordinates": [-122.40968, 37.77841]}}, {"type": "Feature", "properties": {"kind": "library", "name": "Contra Costa County Law Library"}, "geometry": {"type": "Point", "coordinates": [-122.33395, 37.9326]}}, {"type": "Feature", "properties": {"kind": "library", "name": "Erik Erikson Library"}, "geometry": {"type": "Point", "coordinates": [-122.40674, 37.78109]}}, {"type": "Feature", "properties": {"kind": "shelter/senior", "name": "Unnamed cooling site"}, "geometry": {"type": "Point", "coordinates": [-122.27179, 37.87024]}}, {"type": "Feature", "properties": {"kind": "community_centre", "name": "Vineyard Community Center"}, "geometry": {"type": "Point", "coordinates": [-122.03327, 37.9778]}}, {"type": "Feature", "properties": {"kind": "community_centre", "name": "Willow Pass Community Center"}, "geometry": {"type": "Point", "coordinates": [-122.01986, 37.98647]}}, {"type": "Feature", "properties": {"kind": "community_centre", "name": "Casa de Cultura"}, "geometry": {"type": "Point", "coordinates": [-122.29235, 37.87027]}}, {"type": "Feature", "properties": {"kind": "shelter/senior", "name": "Sunrise of Oakland Hills"}, "geometry": {"type": "Point", "coordinates": [-122.1712, 37.79879]}}, {"type": "Feature", "properties": {"kind": "community_centre", "name": "McKinley Hall"}, "geometry": {"type": "Point", "coordinates": [-122.26003, 37.86628]}}, {"type": "Feature", "properties": {"kind": "community_centre", "name": "Emeryville Center of Community Life"}, "geometry": {"type": "Point", "coordinates": [-122.28192, 37.83581]}}, {"type": "Feature", "properties": {"kind": "shelter/senior", "name": "Ashby Village"}, "geometry": {"type": "Point", "coordinates": [-122.27361, 37.88729]}}, {"type": "Feature", "properties": {"kind": "pool", "name": "Unnamed cooling site"}, "geometry": {"type": "Point", "coordinates": [-121.91932, 37.74776]}}, {"type": "Feature", "properties": {"kind": "community_centre", "name": "Brentwood Veterans Memorial Building"}, "geometry": {"type": "Point", "coordinates": [-121.69597, 37.93333]}}, {"type": "Feature", "properties": {"kind": "library", "name": "Salesforce Park Children\u2019s Reading Room"}, "geometry": {"type": "Point", "coordinates": [-122.39644, 37.78958]}}, {"type": "Feature", "properties": {"kind": "community_centre", "name": "The Mix"}, "geometry": {"type": "Point", "coordinates": [-122.41596, 37.779]}}, {"type": "Feature", "properties": {"kind": "shelter/senior", "name": "Kokoro"}, "geometry": {"type": "Point", "coordinates": [-122.42832, 37.78756]}}, {"type": "Feature", "properties": {"kind": "shelter/senior", "name": "Sacramento Senior Homes"}, "geometry": {"type": "Point", "coordinates": [-122.28048, 37.86152]}}, {"type": "Feature", "properties": {"kind": "community_centre", "name": "Kiwanis Youth Center"}, "geometry": {"type": "Point", "coordinates": [-122.12927, 38.01026]}}, {"type": "Feature", "properties": {"kind": "community_centre", "name": "Brentwood Community Center"}, "geometry": {"type": "Point", "coordinates": [-121.69276, 37.93434]}}, {"type": "Feature", "properties": {"kind": "library", "name": "Hiller Library"}, "geometry": {"type": "Point", "coordinates": [-122.23368, 37.85315]}}, {"type": "Feature", "properties": {"kind": "pool", "name": "Berkeley City Club Pool"}, "geometry": {"type": "Point", "coordinates": [-122.26255, 37.86767]}}, {"type": "Feature", "properties": {"kind": "pool", "name": "Berkeley YMCA Pool"}, "geometry": {"type": "Point", "coordinates": [-122.26973, 37.86945]}}, {"type": "Feature", "properties": {"kind": "pool", "name": "Downtown Oakland YMCA Pool"}, "geometry": {"type": "Point", "coordinates": [-122.26575, 37.81257]}}, {"type": "Feature", "properties": {"kind": "community_centre", "name": "Albany Community Center"}, "geometry": {"type": "Point", "coordinates": [-122.29297, 37.88802]}}, {"type": "Feature", "properties": {"kind": "community_centre", "name": "Center for Creative Growth"}, "geometry": {"type": "Point", "coordinates": [-122.29427, 37.8878]}}, {"type": "Feature", "properties": {"kind": "library", "name": "Oakley Branch Contra Costa County Library"}, "geometry": {"type": "Point", "coordinates": [-121.71967, 37.96941]}}, {"type": "Feature", "properties": {"kind": "shelter/senior", "name": "The Dr. William L. Gee House"}, "geometry": {"type": "Point", "coordinates": [-122.41893, 37.78876]}}, {"type": "Feature", "properties": {"kind": "library", "name": "Berkeley Art Museum and Pacific Film Archive Film Library"}, "geometry": {"type": "Point", "coordinates": [-122.26613, 37.87111]}}, {"type": "Feature", "properties": {"kind": "community_centre", "name": "Shipshape Community Center"}, "geometry": {"type": "Point", "coordinates": [-122.36872, 37.82724]}}, {"type": "Feature", "properties": {"kind": "community_centre", "name": "Kanbar Performing Arts Center"}, "geometry": {"type": "Point", "coordinates": [-122.42161, 37.77447]}}, {"type": "Feature", "properties": {"kind": "community_centre", "name": "The Commonwealth Club of California"}, "geometry": {"type": "Point", "coordinates": [-122.39265, 37.79324]}}, {"type": "Feature", "properties": {"kind": "community_centre", "name": "Benicia Vetrans"}, "geometry": {"type": "Point", "coordinates": [-122.15567, 38.05327]}}, {"type": "Feature", "properties": {"kind": "shelter/senior", "name": "Project Open Hand"}, "geometry": {"type": "Point", "coordinates": [-122.41921, 37.78394]}}, {"type": "Feature", "properties": {"kind": "community_centre", "name": "Stem & Art"}, "geometry": {"type": "Point", "coordinates": [-122.42473, 37.77779]}}, {"type": "Feature", "properties": {"kind": "community_centre", "name": "Chinese Culture Center"}, "geometry": {"type": "Point", "coordinates": [-122.40453, 37.79512]}}, {"type": "Feature", "properties": {"kind": "community_centre", "name": "San Francisco Aquatic Park Senior Center"}, "geometry": {"type": "Point", "coordinates": [-122.4235, 37.80642]}}, {"type": "Feature", "properties": {"kind": "community_centre", "name": "Tranquil Resonance Studio"}, "geometry": {"type": "Point", "coordinates": [-122.41155, 37.79616]}}, {"type": "Feature", "properties": {"kind": "library", "name": "Lincoln University Library"}, "geometry": {"type": "Point", "coordinates": [-122.26988, 37.80514]}}, {"type": "Feature", "properties": {"kind": "community_centre", "name": "East Bay Community Space"}, "geometry": {"type": "Point", "coordinates": [-122.2623, 37.84015]}}, {"type": "Feature", "properties": {"kind": "shelter/senior", "name": "East Bay Korean-American Senior Services Center"}, "geometry": {"type": "Point", "coordinates": [-122.27033, 37.80725]}}, {"type": "Feature", "properties": {"kind": "community_centre", "name": "SF Dharma Collective"}, "geometry": {"type": "Point", "coordinates": [-122.41066, 37.75263]}}, {"type": "Feature", "properties": {"kind": "community_centre", "name": "Don Tatzin Community Hall"}, "geometry": {"type": "Point", "coordinates": [-122.11616, 37.89217]}}, {"type": "Feature", "properties": {"kind": "shelter/senior", "name": "The Hope Center"}, "geometry": {"type": "Point", "coordinates": [-122.2698, 37.87271]}}, {"type": "Feature", "properties": {"kind": "community_centre", "name": "Museum of Children's Arts MOCHA"}, "geometry": {"type": "Point", "coordinates": [-122.27244, 37.8037]}}, {"type": "Feature", "properties": {"kind": "community_centre", "name": "826 Valencia Mission Bay"}, "geometry": {"type": "Point", "coordinates": [-122.39145, 37.77161]}}, {"type": "Feature", "properties": {"kind": "community_centre", "name": "Bluxome Center"}, "geometry": {"type": "Point", "coordinates": [-122.39694, 37.77658]}}, {"type": "Feature", "properties": {"kind": "shelter/senior", "name": "Delta Landing"}, "geometry": {"type": "Point", "coordinates": [-121.86734, 38.01093]}}, {"type": "Feature", "properties": {"kind": "shelter/senior", "name": "The Avenue"}, "geometry": {"type": "Point", "coordinates": [-122.42161, 37.78537]}}, {"type": "Feature", "properties": {"kind": "community_centre", "name": "Monte Vista Villas"}, "geometry": {"type": "Point", "coordinates": [-122.1637, 37.77873]}}, {"type": "Feature", "properties": {"kind": "library", "name": "Treasure Island Bookmobile"}, "geometry": {"type": "Point", "coordinates": [-122.37262, 37.82442]}}, {"type": "Feature", "properties": {"kind": "shelter/senior", "name": "SteppingStone"}, "geometry": {"type": "Point", "coordinates": [-122.40015, 37.78263]}}, {"type": "Feature", "properties": {"kind": "library", "name": "Mountain House Library"}, "geometry": {"type": "Point", "coordinates": [-121.53986, 37.77925]}}, {"type": "Feature", "properties": {"kind": "community_centre", "name": "Spirited Play Labs"}, "geometry": {"type": "Point", "coordinates": [-121.96763, 37.77635]}}, {"type": "Feature", "properties": {"kind": "community_centre", "name": "Oakland LGBTQ Community Center"}, "geometry": {"type": "Point", "coordinates": [-122.24607, 37.8104]}}, {"type": "Feature", "properties": {"kind": "library", "name": "Merritt College Library"}, "geometry": {"type": "Point", "coordinates": [-122.16632, 37.78883]}}, {"type": "Feature", "properties": {"kind": "community_centre", "name": "YWCA San Francisco & Marin"}, "geometry": {"type": "Point", "coordinates": [-122.40906, 37.79355]}}, {"type": "Feature", "properties": {"kind": "shelter/senior", "name": "Youth Spirit Artworks: Tiny House Empowerment Village"}, "geometry": {"type": "Point", "coordinates": [-122.19755, 37.74788]}}, {"type": "Feature", "properties": {"kind": "community_centre", "name": "Girls Inc."}, "geometry": {"type": "Point", "coordinates": [-122.25529, 37.77096]}}, {"type": "Feature", "properties": {"kind": "community_centre", "name": "The Commons"}, "geometry": {"type": "Point", "coordinates": [-122.42607, 37.77614]}}, {"type": "Feature", "properties": {"kind": "library", "name": "Unnamed cooling site"}, "geometry": {"type": "Point", "coordinates": [-121.97997, 37.83337]}}, {"type": "Feature", "properties": {"kind": "shelter/senior", "name": "Valley Oak Respite Center"}, "geometry": {"type": "Point", "coordinates": [-121.99291, 37.8069]}}, {"type": "Feature", "properties": {"kind": "community_centre", "name": "Point Richmond Community Center"}, "geometry": {"type": "Point", "coordinates": [-122.38538, 37.92647]}}, {"type": "Feature", "properties": {"kind": "shelter/senior", "name": "Alameda Healthcare & Wellness Center"}, "geometry": {"type": "Point", "coordinates": [-122.25519, 37.75858]}}, {"type": "Feature", "properties": {"kind": "community_centre", "name": "Berkeley Herbal Center"}, "geometry": {"type": "Point", "coordinates": [-122.28678, 37.86814]}}, {"type": "Feature", "properties": {"kind": "community_centre", "name": "Youth Spirit Artworks"}, "geometry": {"type": "Point", "coordinates": [-122.27237, 37.8485]}}, {"type": "Feature", "properties": {"kind": "community_centre", "name": "Berkeley Youth Alternatives"}, "geometry": {"type": "Point", "coordinates": [-122.28659, 37.8672]}}, {"type": "Feature", "properties": {"kind": "community_centre", "name": "Eritrean Community Cultural Civic Center"}, "geometry": {"type": "Point", "coordinates": [-122.28066, 37.81457]}}, {"type": "Feature", "properties": {"kind": "community_centre", "name": "La Raza Community Resource Center"}, "geometry": {"type": "Point", "coordinates": [-122.42244, 37.76539]}}, {"type": "Feature", "properties": {"kind": "community_centre", "name": "CYC"}, "geometry": {"type": "Point", "coordinates": [-122.04728, 37.97653]}}, {"type": "Feature", "properties": {"kind": "library", "name": "Unnamed cooling site"}, "geometry": {"type": "Point", "coordinates": [-121.969, 37.94855]}}, {"type": "Feature", "properties": {"kind": "library", "name": "Richmond Public Library - Auditorium Branch"}, "geometry": {"type": "Point", "coordinates": [-122.34412, 37.93668]}}, {"type": "Feature", "properties": {"kind": "community_centre", "name": "Decentered Arts Studio"}, "geometry": {"type": "Point", "coordinates": [-122.4092, 37.77534]}}, {"type": "Feature", "properties": {"kind": "shelter/senior", "name": "Solara House"}, "geometry": {"type": "Point", "coordinates": [-122.26166, 37.81191]}}, {"type": "Feature", "properties": {"kind": "community_centre", "name": "Dogpatch YMCA at Crane Cove"}, "geometry": {"type": "Point", "coordinates": [-122.38732, 37.76301]}}, {"type": "Feature", "properties": {"kind": "community_centre", "name": "Tree Frog Treks"}, "geometry": {"type": "Point", "coordinates": [-122.42446, 37.73561]}}, {"type": "Feature", "properties": {"kind": "shelter/senior", "name": "Southeast Mission Integrated Community Services"}, "geometry": {"type": "Point", "coordinates": [-122.42477, 37.73511]}}, {"type": "Feature", "properties": {"kind": "community_centre", "name": "Ethiopian Community Cultural Center"}, "geometry": {"type": "Point", "coordinates": [-122.26068, 37.8476]}}, {"type": "Feature", "properties": {"kind": "library", "name": "Morrison Library"}, "geometry": {"type": "Point", "coordinates": [-122.25978, 37.87246]}}, {"type": "Feature", "properties": {"kind": "library", "name": "North Reading Room"}, "geometry": {"type": "Point", "coordinates": [-122.2595, 37.87244]}}, {"type": "Feature", "properties": {"kind": "community_centre", "name": "Community Room"}, "geometry": {"type": "Point", "coordinates": [-122.26916, 37.85951]}}, {"type": "Feature", "properties": {"kind": "library", "name": "Reading Room"}, "geometry": {"type": "Point", "coordinates": [-122.33472, 37.91766]}}, {"type": "Feature", "properties": {"kind": "library", "name": "Prelinger Library"}, "geometry": {"type": "Point", "coordinates": [-122.40949, 37.77518]}}, {"type": "Feature", "properties": {"kind": "pool", "name": "Unnamed cooling site"}, "geometry": {"type": "Point", "coordinates": [-122.27061, 37.86746]}}, {"type": "Feature", "properties": {"kind": "community_centre", "name": "Folsom Street Community Center"}, "geometry": {"type": "Point", "coordinates": [-122.4115, 37.77407]}}, {"type": "Feature", "properties": {"kind": "community_centre", "name": "San Francisco Disability Cultural Center"}, "geometry": {"type": "Point", "coordinates": [-122.41917, 37.77817]}}, {"type": "Feature", "properties": {"kind": "library", "name": "Berkeley High School Library"}, "geometry": {"type": "Point", "coordinates": [-122.2707, 37.8688]}}, {"type": "Feature", "properties": {"kind": "community_centre", "name": "Native American Community Center"}, "geometry": {"type": "Point", "coordinates": [-122.25828, 37.87063]}}, {"type": "Feature", "properties": {"kind": "shelter/senior", "name": "St. Paul's Retirement Community"}, "geometry": {"type": "Point", "coordinates": [-122.26029, 37.8119]}}, {"type": "Feature", "properties": {"kind": "pool", "name": "Trefethen Aquatic Center"}, "geometry": {"type": "Point", "coordinates": [-122.18528, 37.78324]}}, {"type": "Feature", "properties": {"kind": "library", "name": "F. W. Olin Library"}, "geometry": {"type": "Point", "coordinates": [-122.18232, 37.78132]}}, {"type": "Feature", "properties": {"kind": "pool", "name": "Roberts Pool"}, "geometry": {"type": "Point", "coordinates": [-122.17448, 37.81302]}}, {"type": "Feature", "properties": {"kind": "library", "name": "C V Starr East Asian Library"}, "geometry": {"type": "Point", "coordinates": [-122.26034, 37.87354]}}, {"type": "Feature", "properties": {"kind": "library", "name": "Bancroft Library"}, "geometry": {"type": "Point", "coordinates": [-122.25888, 37.87224]}}, {"type": "Feature", "properties": {"kind": "library", "name": "Hargrove Music Library"}, "geometry": {"type": "Point", "coordinates": [-122.25614, 37.87045]}}, {"type": "Feature", "properties": {"kind": "library", "name": "San Francisco Public Library - Main Library"}, "geometry": {"type": "Point", "coordinates": [-122.41577, 37.77913]}}, {"type": "Feature", "properties": {"kind": "community_centre", "name": "de Fremery Recreation Center"}, "geometry": {"type": "Point", "coordinates": [-122.2861, 37.81218]}}, {"type": "Feature", "properties": {"kind": "community_centre", "name": "FM Smith Recreation Center"}, "geometry": {"type": "Point", "coordinates": [-122.24866, 37.80056]}}, {"type": "Feature", "properties": {"kind": "community_centre", "name": "Lakeside Garden Center"}, "geometry": {"type": "Point", "coordinates": [-122.25866, 37.80711]}}, {"type": "Feature", "properties": {"kind": "library", "name": "Central Branch Berkeley Public Library"}, "geometry": {"type": "Point", "coordinates": [-122.26866, 37.86796]}}, {"type": "Feature", "properties": {"kind": "community_centre", "name": "Veterans Memorial Building Senior Center"}, "geometry": {"type": "Point", "coordinates": [-122.2613, 37.81143]}}, {"type": "Feature", "properties": {"kind": "library", "name": "Main Branch Oakland Public Library"}, "geometry": {"type": "Point", "coordinates": [-122.2637, 37.80097]}}, {"type": "Feature", "properties": {"kind": "library", "name": "Berkeley Public Library North Branch"}, "geometry": {"type": "Point", "coordinates": [-122.27544, 37.88545]}}, {"type": "Feature", "properties": {"kind": "pool", "name": "Hurricane Harbor"}, "geometry": {"type": "Point", "coordinates": [-122.05051, 37.97414]}}, {"type": "Feature", "properties": {"kind": "library", "name": "El Sobrante Library - Contra Costa County Library"}, "geometry": {"type": "Point", "coordinates": [-122.30969, 37.96742]}}, {"type": "Feature", "properties": {"kind": "community_centre", "name": "Orinda Civic Center"}, "geometry": {"type": "Point", "coordinates": [-122.18788, 37.88306]}}, {"type": "Feature", "properties": {"kind": "library", "name": "Clayton Library"}, "geometry": {"type": "Point", "coordinates": [-121.93532, 37.94264]}}, {"type": "Feature", "properties": {"kind": "shelter/senior", "name": "Diamond Terrace"}, "geometry": {"type": "Point", "coordinates": [-121.93234, 37.94172]}}, {"type": "Feature", "properties": {"kind": "library", "name": "Concord Branch, Contra Costa County Library"}, "geometry": {"type": "Point", "coordinates": [-122.02526, 37.9816]}}, {"type": "Feature", "properties": {"kind": "library", "name": "West Branch Berkeley Public Library"}, "geometry": {"type": "Point", "coordinates": [-122.29095, 37.86955]}}, {"type": "Feature", "properties": {"kind": "community_centre", "name": "North Oakland Senior Center"}, "geometry": {"type": "Point", "coordinates": [-122.26899, 37.84247]}}, {"type": "Feature", "properties": {"kind": "library", "name": "North Beach Branch Library"}, "geometry": {"type": "Point", "coordinates": [-122.41323, 37.80257]}}, {"type": "Feature", "properties": {"kind": "library", "name": "Lakeview Branch Oakland Public Library"}, "geometry": {"type": "Point", "coordinates": [-122.24896, 37.80918]}}, {"type": "Feature", "properties": {"kind": "community_centre", "name": "Department of Make Believe"}, "geometry": {"type": "Point", "coordinates": [-122.26916, 37.81255]}}, {"type": "Feature", "properties": {"kind": "pool", "name": "Unnamed cooling site"}, "geometry": {"type": "Point", "coordinates": [-122.2784, 37.79463]}}, {"type": "Feature", "properties": {"kind": "shelter/senior", "name": "Unnamed cooling site"}, "geometry": {"type": "Point", "coordinates": [-122.42139, 37.77232]}}, {"type": "Feature", "properties": {"kind": "library", "name": "Rockridge Branch Oakland Public Library"}, "geometry": {"type": "Point", "coordinates": [-122.2511, 37.83995]}}, {"type": "Feature", "properties": {"kind": "library", "name": "West Oakland Branch Oakland Public Library"}, "geometry": {"type": "Point", "coordinates": [-122.28534, 37.813]}}, {"type": "Feature", "properties": {"kind": "community_centre", "name": "West Oakland Senior Center"}, "geometry": {"type": "Point", "coordinates": [-122.28481, 37.81202]}}, {"type": "Feature", "properties": {"kind": "library", "name": "Cusing Library"}, "geometry": {"type": "Point", "coordinates": [-122.18818, 37.80245]}}, {"type": "Feature", "properties": {"kind": "library", "name": "Head-Royce Read Library"}, "geometry": {"type": "Point", "coordinates": [-122.20479, 37.80871]}}, {"type": "Feature", "properties": {"kind": "pool", "name": "Unnamed cooling site"}, "geometry": {"type": "Point", "coordinates": [-122.21548, 37.80558]}}, {"type": "Feature", "properties": {"kind": "library", "name": "Graduate Theological Union Hewlett Library"}, "geometry": {"type": "Point", "coordinates": [-122.26187, 37.87554]}}, {"type": "Feature", "properties": {"kind": "shelter/senior", "name": "North Berkeley Senior Center"}, "geometry": {"type": "Point", "coordinates": [-122.27283, 37.87369]}}, {"type": "Feature", "properties": {"kind": "community_centre", "name": "Judge Henry Ramsey Jr. South Berkeley Senior Center"}, "geometry": {"type": "Point", "coordinates": [-122.27294, 37.85436]}}, {"type": "Feature", "properties": {"kind": "community_centre", "name": "Unnamed cooling site"}, "geometry": {"type": "Point", "coordinates": [-122.40689, 37.7936]}}, {"type": "Feature", "properties": {"kind": "community_centre", "name": "Unnamed cooling site"}, "geometry": {"type": "Point", "coordinates": [-122.42064, 37.79568]}}, {"type": "Feature", "properties": {"kind": "community_centre", "name": "Tenderloin Recreation Center"}, "geometry": {"type": "Point", "coordinates": [-122.41563, 37.78481]}}, {"type": "Feature", "properties": {"kind": "community_centre", "name": "Martin Luther King Jr. Youth Services Center"}, "geometry": {"type": "Point", "coordinates": [-122.27354, 37.85653]}}, {"type": "Feature", "properties": {"kind": "community_centre", "name": "Youth UpRising"}, "geometry": {"type": "Point", "coordinates": [-122.16304, 37.75777]}}, {"type": "Feature", "properties": {"kind": "pool", "name": "Unnamed cooling site"}, "geometry": {"type": "Point", "coordinates": [-122.27896, 37.88245]}}, {"type": "Feature", "properties": {"kind": "shelter/senior", "name": "Lake Park Senior Living"}, "geometry": {"type": "Point", "coordinates": [-122.26398, 37.80529]}}, {"type": "Feature", "properties": {"kind": "community_centre", "name": "Finnish Brotherhood Hall"}, "geometry": {"type": "Point", "coordinates": [-122.28839, 37.87009]}}, {"type": "Feature", "properties": {"kind": "community_centre", "name": "Bushrod Recreation Center"}, "geometry": {"type": "Point", "coordinates": [-122.26355, 37.84546]}}, {"type": "Feature", "properties": {"kind": "community_centre", "name": "Franklin Recreation Center"}, "geometry": {"type": "Point", "coordinates": [-122.24834, 37.79266]}}, {"type": "Feature", "properties": {"kind": "community_centre", "name": "Manzanita Recreation Center"}, "geometry": {"type": "Point", "coordinates": [-122.228, 37.79407]}}, {"type": "Feature", "properties": {"kind": "community_centre", "name": "Brookdale Recreation Center"}, "geometry": {"type": "Point", "coordinates": [-122.20525, 37.78197]}}, {"type": "Feature", "properties": {"kind": "pool", "name": "Spieker Pool"}, "geometry": {"type": "Point", "coordinates": [-122.26212, 37.86873]}}, {"type": "Feature", "properties": {"kind": "community_centre", "name": "The Gardens at Heather Farm"}, "geometry": {"type": "Point", "coordinates": [-122.04459, 37.91853]}}, {"type": "Feature", "properties": {"kind": "community_centre", "name": "The Salvation Army Oakland Chinatown Corps and Community Center"}, "geometry": {"type": "Point", "coordinates": [-122.2706, 37.80216]}}, {"type": "Feature", "properties": {"kind": "library", "name": "Dimond Branch Oakland Public Library"}, "geometry": {"type": "Point", "coordinates": [-122.21607, 37.80148]}}, {"type": "Feature", "properties": {"kind": "library", "name": "Systemwide Library Facility - North (SLF-North)"}, "geometry": {"type": "Point", "coordinates": [-122.33532, 37.9175]}}, {"type": "Feature", "properties": {"kind": "library", "name": "Temescal Branch Oakland Public Library"}, "geometry": {"type": "Point", "coordinates": [-122.26253, 37.83823]}}, {"type": "Feature", "properties": {"kind": "community_centre", "name": "Civic Park Community Center"}, "geometry": {"type": "Point", "coordinates": [-122.0597, 37.90175]}}, {"type": "Feature", "properties": {"kind": "library", "name": "Golden Gate Branch Oakland Public Library"}, "geometry": {"type": "Point", "coordinates": [-122.28222, 37.83923]}}, {"type": "Feature", "properties": {"kind": "shelter/senior", "name": "The Watermark by the Bay"}, "geometry": {"type": "Point", "coordinates": [-122.28729, 37.8299]}}, {"type": "Feature", "properties": {"kind": "community_centre", "name": "Fratellanza Club"}, "geometry": {"type": "Point", "coordinates": [-122.28687, 37.84916]}}, {"type": "Feature", "properties": {"kind": "pool", "name": "Unnamed cooling site"}, "geometry": {"type": "Point", "coordinates": [-122.27925, 37.88239]}}, {"type": "Feature", "properties": {"kind": "library", "name": "Chinatown / Him Mark Lai Branch Library"}, "geometry": {"type": "Point", "coordinates": [-122.41022, 37.79523]}}, {"type": "Feature", "properties": {"kind": "community_centre", "name": "Third Space"}, "geometry": {"type": "Point", "coordinates": [-122.42764, 37.76815]}}, {"type": "Feature", "properties": {"kind": "community_centre", "name": "SF LGBT Center"}, "geometry": {"type": "Point", "coordinates": [-122.42412, 37.77172]}}, {"type": "Feature", "properties": {"kind": "pool", "name": "Unnamed cooling site"}, "geometry": {"type": "Point", "coordinates": [-122.28917, 37.86862]}}, {"type": "Feature", "properties": {"kind": "pool", "name": "Unnamed cooling site"}, "geometry": {"type": "Point", "coordinates": [-122.28893, 37.86869]}}, {"type": "Feature", "properties": {"kind": "shelter/senior", "name": "Coterie"}, "geometry": {"type": "Point", "coordinates": [-122.42192, 37.78494]}}, {"type": "Feature", "properties": {"kind": "library", "name": "Portola Branch Library"}, "geometry": {"type": "Point", "coordinates": [-122.40637, 37.72711]}}, {"type": "Feature", "properties": {"kind": "shelter/senior", "name": "San Francisco Campus for Jewish Living"}, "geometry": {"type": "Point", "coordinates": [-122.43058, 37.72765]}}, {"type": "Feature", "properties": {"kind": "shelter/senior", "name": "Raksha Care Home"}, "geometry": {"type": "Point", "coordinates": [-122.29641, 37.8901]}}, {"type": "Feature", "properties": {"kind": "shelter/senior", "name": "Multi-Service Center South"}, "geometry": {"type": "Point", "coordinates": [-122.39984, 37.77773]}}, {"type": "Feature", "properties": {"kind": "library", "name": "Bernal Heights Branch Library"}, "geometry": {"type": "Point", "coordinates": [-122.41615, 37.73886]}}, {"type": "Feature", "properties": {"kind": "pool", "name": "Lincoln Pool \"Big Pool\""}, "geometry": {"type": "Point", "coordinates": [-122.23004, 37.75831]}}, {"type": "Feature", "properties": {"kind": "pool", "name": "Lincoln Park \"Small Pool\""}, "geometry": {"type": "Point", "coordinates": [-122.23011, 37.75847]}}, {"type": "Feature", "properties": {"kind": "shelter/senior", "name": "Canon Kip Community House"}, "geometry": {"type": "Point", "coordinates": [-122.41233, 37.77636]}}, {"type": "Feature", "properties": {"kind": "community_centre", "name": "San Ramon Community Center"}, "geometry": {"type": "Point", "coordinates": [-121.9538, 37.76645]}}, {"type": "Feature", "properties": {"kind": "shelter/senior", "name": "Brookdale San Ramon"}, "geometry": {"type": "Point", "coordinates": [-121.9969, 37.7764]}}, {"type": "Feature", "properties": {"kind": "library", "name": "Alameda Free Library Main Branch"}, "geometry": {"type": "Point", "coordinates": [-122.24229, 37.76676]}}, {"type": "Feature", "properties": {"kind": "pool", "name": "Unnamed cooling site"}, "geometry": {"type": "Point", "coordinates": [-121.92791, 37.73384]}}, {"type": "Feature", "properties": {"kind": "pool", "name": "Little Hills Swimming Pool"}, "geometry": {"type": "Point", "coordinates": [-122.04283, 37.80985]}}, {"type": "Feature", "properties": {"kind": "community_centre", "name": "Danville Station HOA"}, "geometry": {"type": "Point", "coordinates": [-121.97696, 37.79867]}}, {"type": "Feature", "properties": {"kind": "community_centre", "name": "Greenbrook Homes Association"}, "geometry": {"type": "Point", "coordinates": [-121.97515, 37.79645]}}, {"type": "Feature", "properties": {"kind": "community_centre", "name": "Oak Hill Park Community Center"}, "geometry": {"type": "Point", "coordinates": [-121.98592, 37.84423]}}, {"type": "Feature", "properties": {"kind": "pool", "name": "Monte Vista High School Pool"}, "geometry": {"type": "Point", "coordinates": [-121.98317, 37.84344]}}, {"type": "Feature", "properties": {"kind": "pool", "name": "50 Meter Olympic Pool"}, "geometry": {"type": "Point", "coordinates": [-121.94689, 37.74768]}}, {"type": "Feature", "properties": {"kind": "library", "name": "Dougherty Station Library"}, "geometry": {"type": "Point", "coordinates": [-121.90976, 37.75393]}}, {"type": "Feature", "properties": {"kind": "community_centre", "name": "Dougherty Station Community Center"}, "geometry": {"type": "Point", "coordinates": [-121.91019, 37.75339]}}, {"type": "Feature", "properties": {"kind": "community_centre", "name": "Danville Ranch House"}, "geometry": {"type": "Point", "coordinates": [-121.9843, 37.7902]}}, {"type": "Feature", "properties": {"kind": "shelter/senior", "name": "The Sanctuary"}, "geometry": {"type": "Point", "coordinates": [-122.41117, 37.77628]}}, {"type": "Feature", "properties": {"kind": "community_centre", "name": "Community Youth Center"}, "geometry": {"type": "Point", "coordinates": [-122.41912, 37.7872]}}, {"type": "Feature", "properties": {"kind": "community_centre", "name": "Ella Hill Hutch Community Center"}, "geometry": {"type": "Point", "coordinates": [-122.4293, 37.77929]}}, {"type": "Feature", "properties": {"kind": "pool", "name": "Play Pool"}, "geometry": {"type": "Point", "coordinates": [-121.94651, 37.74792]}}, {"type": "Feature", "properties": {"kind": "community_centre", "name": "Lady Shaw Senior Center / \u90b5\u9038\u592b\u7235\u58eb\u592b\u4eba\u5eb7\u6a02\u4e2d\u5fc3"}, "geometry": {"type": "Point", "coordinates": [-122.41245, 37.79706]}}, {"type": "Feature", "properties": {"kind": "community_centre", "name": "Korean Center"}, "geometry": {"type": "Point", "coordinates": [-122.42466, 37.7865]}}, {"type": "Feature", "properties": {"kind": "library", "name": "Golden Gate Valley Branch Library"}, "geometry": {"type": "Point", "coordinates": [-122.42903, 37.79679]}}, {"type": "Feature", "properties": {"kind": "shelter/senior", "name": "Next Door Shelter"}, "geometry": {"type": "Point", "coordinates": [-122.42008, 37.78613]}}, {"type": "Feature", "properties": {"kind": "community_centre", "name": "The Women's Building"}, "geometry": {"type": "Point", "coordinates": [-122.42261, 37.76142]}}, {"type": "Feature", "properties": {"kind": "community_centre", "name": "Bayanihan Community Center"}, "geometry": {"type": "Point", "coordinates": [-122.40918, 37.78094]}}, {"type": "Feature", "properties": {"kind": "community_centre", "name": "Centro Social Obrero"}, "geometry": {"type": "Point", "coordinates": [-122.41135, 37.76027]}}, {"type": "Feature", "properties": {"kind": "community_centre", "name": "Polish Club of San Francisco"}, "geometry": {"type": "Point", "coordinates": [-122.41528, 37.75583]}}, {"type": "Feature", "properties": {"kind": "library", "name": "Orinda Library"}, "geometry": {"type": "Point", "coordinates": [-122.18739, 37.88247]}}, {"type": "Feature", "properties": {"kind": "library", "name": "Potrero Branch Library"}, "geometry": {"type": "Point", "coordinates": [-122.39766, 37.76012]}}, {"type": "Feature", "properties": {"kind": "community_centre", "name": "Unnamed cooling site"}, "geometry": {"type": "Point", "coordinates": [-122.41202, 37.74907]}}, {"type": "Feature", "properties": {"kind": "shelter/senior", "name": "Lakeside Park Elder Care"}, "geometry": {"type": "Point", "coordinates": [-122.25596, 37.8082]}}, {"type": "Feature", "properties": {"kind": "library", "name": "Ygnacio Valley Branch Contra Costa County Library"}, "geometry": {"type": "Point", "coordinates": [-122.01252, 37.92412]}}, {"type": "Feature", "properties": {"kind": "community_centre", "name": "Unnamed cooling site"}, "geometry": {"type": "Point", "coordinates": [-121.77384, 37.96623]}}, {"type": "Feature", "properties": {"kind": "community_centre", "name": "Unnamed cooling site"}, "geometry": {"type": "Point", "coordinates": [-121.77448, 37.96631]}}, {"type": "Feature", "properties": {"kind": "community_centre", "name": "Bernal Heights Neighborhood Center"}, "geometry": {"type": "Point", "coordinates": [-122.41614, 37.73922]}}, {"type": "Feature", "properties": {"kind": "library", "name": "Bayview Branch Library"}, "geometry": {"type": "Point", "coordinates": [-122.39115, 37.73255]}}, {"type": "Feature", "properties": {"kind": "pool", "name": "Unnamed cooling site"}, "geometry": {"type": "Point", "coordinates": [-122.24325, 37.86051]}}, {"type": "Feature", "properties": {"kind": "pool", "name": "Unnamed cooling site"}, "geometry": {"type": "Point", "coordinates": [-122.24335, 37.86072]}}, {"type": "Feature", "properties": {"kind": "pool", "name": "Unnamed cooling site"}, "geometry": {"type": "Point", "coordinates": [-122.24306, 37.86068]}}, {"type": "Feature", "properties": {"kind": "community_centre", "name": "El Cerrito Community Center"}, "geometry": {"type": "Point", "coordinates": [-122.30277, 37.91466]}}, {"type": "Feature", "properties": {"kind": "library", "name": "Richmond Public Library - Westside Branch"}, "geometry": {"type": "Point", "coordinates": [-122.38533, 37.92651]}}, {"type": "Feature", "properties": {"kind": "shelter/senior", "name": "Grand Lake Gardens"}, "geometry": {"type": "Point", "coordinates": [-122.24905, 37.81298]}}, {"type": "Feature", "properties": {"kind": "library", "name": "Richmond Public Liibrary - Main Library"}, "geometry": {"type": "Point", "coordinates": [-122.34408, 37.93588]}}, {"type": "Feature", "properties": {"kind": "library", "name": "Melrose Branch Oakland Public Library"}, "geometry": {"type": "Point", "coordinates": [-122.20763, 37.77244]}}, {"type": "Feature", "properties": {"kind": "library", "name": "LMC Library"}, "geometry": {"type": "Point", "coordinates": [-121.86101, 38.00656]}}, {"type": "Feature", "properties": {"kind": "community_centre", "name": "Berkeley Hillel Reutlinger Center"}, "geometry": {"type": "Point", "coordinates": [-122.25296, 37.86923]}}, {"type": "Feature", "properties": {"kind": "pool", "name": "Unnamed cooling site"}, "geometry": {"type": "Point", "coordinates": [-122.19311, 37.74201]}}, {"type": "Feature", "properties": {"kind": "pool", "name": "Unnamed cooling site"}, "geometry": {"type": "Point", "coordinates": [-122.19304, 37.74211]}}, {"type": "Feature", "properties": {"kind": "library", "name": "Claremont Branch Berkeley Public Library"}, "geometry": {"type": "Point", "coordinates": [-122.25447, 37.85653]}}, {"type": "Feature", "properties": {"kind": "library", "name": "Pittsburg Library"}, "geometry": {"type": "Point", "coordinates": [-121.891, 38.01875]}}, {"type": "Feature", "properties": {"kind": "library", "name": "Lafayette Library and Learning Center"}, "geometry": {"type": "Point", "coordinates": [-122.11573, 37.89195]}}, {"type": "Feature", "properties": {"kind": "shelter/senior", "name": "Merrill Gardens at Rockridge"}, "geometry": {"type": "Point", "coordinates": [-122.25229, 37.83528]}}, {"type": "Feature", "properties": {"kind": "pool", "name": "Unnamed cooling site"}, "geometry": {"type": "Point", "coordinates": [-121.61429, 38.02579]}}, {"type": "Feature", "properties": {"kind": "pool", "name": "Unnamed cooling site"}, "geometry": {"type": "Point", "coordinates": [-122.26414, 37.78317]}}, {"type": "Feature", "properties": {"kind": "community_centre", "name": "Spanish Speaking Citizens' Foundation"}, "geometry": {"type": "Point", "coordinates": [-122.22508, 37.77848]}}, {"type": "Feature", "properties": {"kind": "community_centre", "name": "Shoong Family Chinese Cultural Center"}, "geometry": {"type": "Point", "coordinates": [-122.27003, 37.79983]}}, {"type": "Feature", "properties": {"kind": "library", "name": "Brookfield Village Branch Oakland Public Library"}, "geometry": {"type": "Point", "coordinates": [-122.18861, 37.73736]}}, {"type": "Feature", "properties": {"kind": "library", "name": "California Maritime Academy Library"}, "geometry": {"type": "Point", "coordinates": [-122.23081, 38.06837]}}, {"type": "Feature", "properties": {"kind": "community_centre", "name": "Rainbow Recreation Center"}, "geometry": {"type": "Point", "coordinates": [-122.20005, 37.76579]}}, {"type": "Feature", "properties": {"kind": "library", "name": "San Leandro Community Library"}, "geometry": {"type": "Point", "coordinates": [-122.15404, 37.72603]}}, {"type": "Feature", "properties": {"kind": "community_centre", "name": "St. Vincent De Paul Community Center"}, "geometry": {"type": "Point", "coordinates": [-122.27347, 37.81325]}}, {"type": "Feature", "properties": {"kind": "library", "name": "Piedmont Avenue Branch Oakland Public Library"}, "geometry": {"type": "Point", "coordinates": [-122.24816, 37.82783]}}, {"type": "Feature", "properties": {"kind": "shelter/senior", "name": "St. Mary's Gardens"}, "geometry": {"type": "Point", "coordinates": [-122.2812, 37.80496]}}, {"type": "Feature", "properties": {"kind": "shelter/senior", "name": "Jack London Gateway Senior Housing"}, "geometry": {"type": "Point", "coordinates": [-122.28103, 37.80439]}}, {"type": "Feature", "properties": {"kind": "shelter/senior", "name": "Community Cabins"}, "geometry": {"type": "Point", "coordinates": [-122.27046, 37.81622]}}, {"type": "Feature", "properties": {"kind": "community_centre", "name": "A Place for Sustainable Living"}, "geometry": {"type": "Point", "coordinates": [-122.28546, 37.84611]}}, {"type": "Feature", "properties": {"kind": "pool", "name": "Unnamed cooling site"}, "geometry": {"type": "Point", "coordinates": [-122.23912, 37.74781]}}, {"type": "Feature", "properties": {"kind": "library", "name": "81st Avenue Branch Oakland Public Library"}, "geometry": {"type": "Point", "coordinates": [-122.18561, 37.75337]}}, {"type": "Feature", "properties": {"kind": "library", "name": "Walnut Creek Branch Contra Costa County Library"}, "geometry": {"type": "Point", "coordinates": [-122.06025, 37.9013]}}, {"type": "Feature", "properties": {"kind": "community_centre", "name": "Louis Sutter Roundhouse"}, "geometry": {"type": "Point", "coordinates": [-122.4144, 37.72238]}}, {"type": "Feature", "properties": {"kind": "community_centre", "name": "Charles Porter Golden Gate Recreation Center"}, "geometry": {"type": "Point", "coordinates": [-122.28239, 37.8449]}}, {"type": "Feature", "properties": {"kind": "library", "name": "John A Graziano Memorial Library"}, "geometry": {"type": "Point", "coordinates": [-122.26427, 37.82126]}}, {"type": "Feature", "properties": {"kind": "pool", "name": "Unnamed cooling site"}, "geometry": {"type": "Point", "coordinates": [-122.39687, 37.79738]}}, {"type": "Feature", "properties": {"kind": "pool", "name": "Unnamed cooling site"}, "geometry": {"type": "Point", "coordinates": [-122.39694, 37.79749]}}, {"type": "Feature", "properties": {"kind": "library", "name": "Unnamed cooling site"}, "geometry": {"type": "Point", "coordinates": [-122.13038, 37.8256]}}, {"type": "Feature", "properties": {"kind": "pool", "name": "Unnamed cooling site"}, "geometry": {"type": "Point", "coordinates": [-122.14195, 38.01634]}}, {"type": "Feature", "properties": {"kind": "pool", "name": "Unnamed cooling site"}, "geometry": {"type": "Point", "coordinates": [-122.14213, 38.01609]}}, {"type": "Feature", "properties": {"kind": "library", "name": "Martinez Library"}, "geometry": {"type": "Point", "coordinates": [-122.13417, 38.01795]}}, {"type": "Feature", "properties": {"kind": "community_centre", "name": "Lincoln Neighborhood Center"}, "geometry": {"type": "Point", "coordinates": [-122.26873, 37.80028]}}, {"type": "Feature", "properties": {"kind": "community_centre", "name": "Nevin Community Center"}, "geometry": {"type": "Point", "coordinates": [-122.3641, 37.93655]}}, {"type": "Feature", "properties": {"kind": "library", "name": "Richmond Public Library - Bayview Branch"}, "geometry": {"type": "Point", "coordinates": [-122.32386, 37.91516]}}, {"type": "Feature", "properties": {"kind": "library", "name": "Alice's Reading Room"}, "geometry": {"type": "Point", "coordinates": [-122.26029, 37.80917]}}, {"type": "Feature", "properties": {"kind": "community_centre", "name": "Brookdale Discovery Center"}, "geometry": {"type": "Point", "coordinates": [-122.20532, 37.78173]}}, {"type": "Feature", "properties": {"kind": "community_centre", "name": "YMCA PG&E Teen Center"}, "geometry": {"type": "Point", "coordinates": [-122.27254, 37.87]}}, {"type": "Feature", "properties": {"kind": "community_centre", "name": "Emeryville Senior Center"}, "geometry": {"type": "Point", "coordinates": [-122.27977, 37.83397]}}, {"type": "Feature", "properties": {"kind": "shelter/senior", "name": "Evergreen Eldercare"}, "geometry": {"type": "Point", "coordinates": [-122.20425, 37.78055]}}, {"type": "Feature", "properties": {"kind": "library", "name": "Montclair Branch Oakland Public Library"}, "geometry": {"type": "Point", "coordinates": [-122.21417, 37.83198]}}, {"type": "Feature", "properties": {"kind": "shelter/senior", "name": "Park Boulevard Manor"}, "geometry": {"type": "Point", "coordinates": [-122.22409, 37.80693]}}, {"type": "Feature", "properties": {"kind": "community_centre", "name": "Unnamed cooling site"}, "geometry": {"type": "Point", "coordinates": [-122.16833, 37.78527]}}, {"type": "Feature", "properties": {"kind": "community_centre", "name": "Deaf Community Center"}, "geometry": {"type": "Point", "coordinates": [-122.15881, 37.72092]}}, {"type": "Feature", "properties": {"kind": "community_centre", "name": "Unnamed cooling site"}, "geometry": {"type": "Point", "coordinates": [-122.29929, 37.88376]}}, {"type": "Feature", "properties": {"kind": "pool", "name": "Unnamed cooling site"}, "geometry": {"type": "Point", "coordinates": [-121.99386, 37.98529]}}, {"type": "Feature", "properties": {"kind": "pool", "name": "Unnamed cooling site"}, "geometry": {"type": "Point", "coordinates": [-121.99399, 37.9852]}}, {"type": "Feature", "properties": {"kind": "shelter/senior", "name": "Albany Senior Center"}, "geometry": {"type": "Point", "coordinates": [-122.29408, 37.8912]}}, {"type": "Feature", "properties": {"kind": "community_centre", "name": "Unnamed cooling site"}, "geometry": {"type": "Point", "coordinates": [-122.31327, 37.91905]}}, {"type": "Feature", "properties": {"kind": "library", "name": "Bay Farm Island Branch - Alameda Free Library"}, "geometry": {"type": "Point", "coordinates": [-122.24162, 37.73677]}}, {"type": "Feature", "properties": {"kind": "shelter/senior", "name": "The Lodge"}, "geometry": {"type": "Point", "coordinates": [-122.23928, 37.73855]}}, {"type": "Feature", "properties": {"kind": "pool", "name": "Kid Swimming Pool"}, "geometry": {"type": "Point", "coordinates": [-122.21968, 38.0526]}}, {"type": "Feature", "properties": {"kind": "community_centre", "name": "Crockett Community Center"}, "geometry": {"type": "Point", "coordinates": [-122.21863, 38.0527]}}, {"type": "Feature", "properties": {"kind": "community_centre", "name": "Lafayette Community Center"}, "geometry": {"type": "Point", "coordinates": [-122.09927, 37.86522]}}, {"type": "Feature", "properties": {"kind": "pool", "name": "Unnamed cooling site"}, "geometry": {"type": "Point", "coordinates": [-122.12965, 37.86832]}}, {"type": "Feature", "properties": {"kind": "pool", "name": "Unnamed cooling site"}, "geometry": {"type": "Point", "coordinates": [-122.13005, 37.8684]}}, {"type": "Feature", "properties": {"kind": "community_centre", "name": "Unnamed cooling site"}, "geometry": {"type": "Point", "coordinates": [-122.12363, 37.99668]}}, {"type": "Feature", "properties": {"kind": "shelter/senior", "name": "Unnamed cooling site"}, "geometry": {"type": "Point", "coordinates": [-122.13335, 38.00836]}}, {"type": "Feature", "properties": {"kind": "shelter/senior", "name": "Unnamed cooling site"}, "geometry": {"type": "Point", "coordinates": [-122.13384, 38.00799]}}, {"type": "Feature", "properties": {"kind": "community_centre", "name": "Deputy Sheriff's Association"}, "geometry": {"type": "Point", "coordinates": [-122.09108, 37.98997]}}, {"type": "Feature", "properties": {"kind": "community_centre", "name": "Unnamed cooling site"}, "geometry": {"type": "Point", "coordinates": [-122.11553, 38.00155]}}, {"type": "Feature", "properties": {"kind": "community_centre", "name": "Shadow Hills"}, "geometry": {"type": "Point", "coordinates": [-121.96694, 37.79848]}}, {"type": "Feature", "properties": {"kind": "community_centre", "name": "Pleasant Hill Community Center"}, "geometry": {"type": "Point", "coordinates": [-122.06774, 37.96203]}}, {"type": "Feature", "properties": {"kind": "shelter/senior", "name": "Unnamed cooling site"}, "geometry": {"type": "Point", "coordinates": [-122.0913, 37.95763]}}, {"type": "Feature", "properties": {"kind": "shelter/senior", "name": "Unnamed cooling site"}, "geometry": {"type": "Point", "coordinates": [-122.09114, 37.95751]}}, {"type": "Feature", "properties": {"kind": "community_centre", "name": "Pacheco Community Center"}, "geometry": {"type": "Point", "coordinates": [-122.06848, 37.98496]}}, {"type": "Feature", "properties": {"kind": "community_centre", "name": "Shell Clubhouse"}, "geometry": {"type": "Point", "coordinates": [-122.12595, 38.01453]}}, {"type": "Feature", "properties": {"kind": "pool", "name": "Oakwood Athletic Club"}, "geometry": {"type": "Point", "coordinates": [-122.14876, 37.89011]}}, {"type": "Feature", "properties": {"kind": "shelter/senior", "name": "Pleasant Hill Senior Center"}, "geometry": {"type": "Point", "coordinates": [-122.06733, 37.94963]}}, {"type": "Feature", "properties": {"kind": "shelter/senior", "name": "Unnamed cooling site"}, "geometry": {"type": "Point", "coordinates": [-122.01694, 37.98228]}}, {"type": "Feature", "properties": {"kind": "community_centre", "name": "Tice Valley Community Gym"}, "geometry": {"type": "Point", "coordinates": [-122.06997, 37.87545]}}, {"type": "Feature", "properties": {"kind": "community_centre", "name": "Hacienda De Las Flores"}, "geometry": {"type": "Point", "coordinates": [-122.12678, 37.85239]}}, {"type": "Feature", "properties": {"kind": "pool", "name": "Unnamed cooling site"}, "geometry": {"type": "Point", "coordinates": [-121.95381, 37.76294]}}, {"type": "Feature", "properties": {"kind": "shelter/senior", "name": "Concord Post Acute"}, "geometry": {"type": "Point", "coordinates": [-122.02582, 37.95744]}}, {"type": "Feature", "properties": {"kind": "shelter/senior", "name": "Helios Corner"}, "geometry": {"type": "Point", "coordinates": [-122.28139, 37.87085]}}, {"type": "Feature", "properties": {"kind": "shelter/senior", "name": "Belmont Village Senior Living"}, "geometry": {"type": "Point", "coordinates": [-122.29759, 37.88386]}}, {"type": "Feature", "properties": {"kind": "shelter/senior", "name": "Division Circle Navigation Center"}, "geometry": {"type": "Point", "coordinates": [-122.41847, 37.76932]}}, {"type": "Feature", "properties": {"kind": "library", "name": "Crockett Branch Contra Costa County Library"}, "geometry": {"type": "Point", "coordinates": [-122.22076, 38.05541]}}, {"type": "Feature", "properties": {"kind": "library", "name": "Benicia Public Library"}, "geometry": {"type": "Point", "coordinates": [-122.15454, 38.05343]}}, {"type": "Feature", "properties": {"kind": "community_centre", "name": "Benicia Senior Center"}, "geometry": {"type": "Point", "coordinates": [-122.15387, 38.05323]}}, {"type": "Feature", "properties": {"kind": "pool", "name": "PEAC Pool"}, "geometry": {"type": "Point", "coordinates": [-122.2326, 38.07538]}}, {"type": "Feature", "properties": {"kind": "pool", "name": "Unnamed cooling site"}, "geometry": {"type": "Point", "coordinates": [-122.41294, 37.80689]}}, {"type": "Feature", "properties": {"kind": "community_centre", "name": "Amador Rancho"}, "geometry": {"type": "Point", "coordinates": [-121.92021, 37.74812]}}, {"type": "Feature", "properties": {"kind": "pool", "name": "Unnamed cooling site"}, "geometry": {"type": "Point", "coordinates": [-122.38863, 37.78728]}}, {"type": "Feature", "properties": {"kind": "shelter/senior", "name": "Unnamed cooling site"}, "geometry": {"type": "Point", "coordinates": [-122.26072, 37.79725]}}, {"type": "Feature", "properties": {"kind": "shelter/senior", "name": "Cortona Park Senior Living"}, "geometry": {"type": "Point", "coordinates": [-121.73557, 37.92782]}}, {"type": "Feature", "properties": {"kind": "library", "name": "CSUEB Library"}, "geometry": {"type": "Point", "coordinates": [-121.9773, 37.94446]}}, {"type": "Feature", "properties": {"kind": "pool", "name": "Unnamed cooling site"}, "geometry": {"type": "Point", "coordinates": [-122.4101, 37.78573]}}, {"type": "Feature", "properties": {"kind": "shelter/senior", "name": "Embarcadero SAFE Navigation Center"}, "geometry": {"type": "Point", "coordinates": [-122.38869, 37.78586]}}, {"type": "Feature", "properties": {"kind": "library", "name": "Pinole Library - Contra Costa County Library"}, "geometry": {"type": "Point", "coordinates": [-122.28494, 37.99243]}}, {"type": "Feature", "properties": {"kind": "community_centre", "name": "Hurcules Swim Center"}, "geometry": {"type": "Point", "coordinates": [-122.24839, 37.99958]}}, {"type": "Feature", "properties": {"kind": "shelter/senior", "name": "Granada Home 2"}, "geometry": {"type": "Point", "coordinates": [-122.28316, 37.98868]}}, {"type": "Feature", "properties": {"kind": "shelter/senior", "name": "Granada Care Homes"}, "geometry": {"type": "Point", "coordinates": [-122.28323, 37.9889]}}, {"type": "Feature", "properties": {"kind": "community_centre", "name": "Unnamed cooling site"}, "geometry": {"type": "Point", "coordinates": [-121.96238, 37.81665]}}, {"type": "Feature", "properties": {"kind": "community_centre", "name": "Unnamed cooling site"}, "geometry": {"type": "Point", "coordinates": [-121.96227, 37.81657]}}, {"type": "Feature", "properties": {"kind": "community_centre", "name": "James Kenney Recreation Center"}, "geometry": {"type": "Point", "coordinates": [-122.29744, 37.87206]}}, {"type": "Feature", "properties": {"kind": "library", "name": "Unnamed cooling site"}, "geometry": {"type": "Point", "coordinates": [-121.8978, 37.79869]}}, {"type": "Feature", "properties": {"kind": "shelter/senior", "name": "The Reutlinger Community"}, "geometry": {"type": "Point", "coordinates": [-121.9064, 37.79854]}}, {"type": "Feature", "properties": {"kind": "community_centre", "name": "Mosaic Recreation Center"}, "geometry": {"type": "Point", "coordinates": [-121.91596, 37.76681]}}, {"type": "Feature", "properties": {"kind": "community_centre", "name": "Portofino Clubhouse"}, "geometry": {"type": "Point", "coordinates": [-121.91202, 37.75878]}}, {"type": "Feature", "properties": {"kind": "shelter/senior", "name": "Deer Creek"}, "geometry": {"type": "Point", "coordinates": [-121.9116, 37.75345]}}, {"type": "Feature", "properties": {"kind": "community_centre", "name": "Unnamed cooling site"}, "geometry": {"type": "Point", "coordinates": [-121.9309, 37.77377]}}, {"type": "Feature", "properties": {"kind": "pool", "name": "Unnamed cooling site"}, "geometry": {"type": "Point", "coordinates": [-122.29317, 37.83969]}}, {"type": "Feature", "properties": {"kind": "shelter/senior", "name": "Trevista Senior Living"}, "geometry": {"type": "Point", "coordinates": [-122.04846, 37.94576]}}, {"type": "Feature", "properties": {"kind": "pool", "name": "Unnamed cooling site"}, "geometry": {"type": "Point", "coordinates": [-122.2776, 37.8624]}}, {"type": "Feature", "properties": {"kind": "community_centre", "name": "Wilder Art & Garden Center"}, "geometry": {"type": "Point", "coordinates": [-122.18967, 37.86384]}}, {"type": "Feature", "properties": {"kind": "library", "name": "Wagner Ranch Elementary School Library"}, "geometry": {"type": "Point", "coordinates": [-122.20679, 37.89777]}}, {"type": "Feature", "properties": {"kind": "library", "name": "Miramonte High School Library"}, "geometry": {"type": "Point", "coordinates": [-122.14447, 37.84161]}}, {"type": "Feature", "properties": {"kind": "pool", "name": "Unnamed cooling site"}, "geometry": {"type": "Point", "coordinates": [-122.27583, 37.79515]}}, {"type": "Feature", "properties": {"kind": "pool", "name": "Unnamed cooling site"}, "geometry": {"type": "Point", "coordinates": [-122.24582, 37.78531]}}, {"type": "Feature", "properties": {"kind": "shelter/senior", "name": "The Altenheim"}, "geometry": {"type": "Point", "coordinates": [-122.22063, 37.80075]}}, {"type": "Feature", "properties": {"kind": "pool", "name": "Unnamed cooling site"}, "geometry": {"type": "Point", "coordinates": [-122.29198, 37.89546]}}, {"type": "Feature", "properties": {"kind": "community_centre", "name": "Noisebridge"}, "geometry": {"type": "Point", "coordinates": [-122.41866, 37.76243]}}, {"type": "Feature", "properties": {"kind": "community_centre", "name": "Oakley Senior Center/Senior Referral Services"}, "geometry": {"type": "Point", "coordinates": [-121.71312, 37.99664]}}, {"type": "Feature", "properties": {"kind": "pool", "name": "Castle Rock Pool"}, "geometry": {"type": "Point", "coordinates": [-121.99308, 37.89091]}}, {"type": "Feature", "properties": {"kind": "shelter/senior", "name": "Sunrise Assisted Living"}, "geometry": {"type": "Point", "coordinates": [-121.97888, 37.83408]}}, {"type": "Feature", "properties": {"kind": "shelter/senior", "name": "Alcosta Senior & Community Center"}, "geometry": {"type": "Point", "coordinates": [-121.92318, 37.73304]}}, {"type": "Feature", "properties": {"kind": "pool", "name": "Kirker Creek Main Swimming Pool"}, "geometry": {"type": "Point", "coordinates": [-121.89462, 37.99364]}}, {"type": "Feature", "properties": {"kind": "community_centre", "name": "Danville Community Center"}, "geometry": {"type": "Point", "coordinates": [-121.99595, 37.82059]}}, {"type": "Feature", "properties": {"kind": "library", "name": "Danville Library"}, "geometry": {"type": "Point", "coordinates": [-121.99557, 37.82089]}}, {"type": "Feature", "properties": {"kind": "library", "name": "Media Center"}, "geometry": {"type": "Point", "coordinates": [-121.97708, 37.80268]}}, {"type": "Feature", "properties": {"kind": "community_centre", "name": "Diablo West Clubhouse"}, "geometry": {"type": "Point", "coordinates": [-121.98411, 37.81851]}}, {"type": "Feature", "properties": {"kind": "pool", "name": "Unnamed cooling site"}, "geometry": {"type": "Point", "coordinates": [-121.98404, 37.81832]}}, {"type": "Feature", "properties": {"kind": "pool", "name": "Unnamed cooling site"}, "geometry": {"type": "Point", "coordinates": [-121.98386, 37.81827]}}, {"type": "Feature", "properties": {"kind": "shelter/senior", "name": "Brookdale Diablo Lodge"}, "geometry": {"type": "Point", "coordinates": [-121.9807, 37.83412]}}, {"type": "Feature", "properties": {"kind": "community_centre", "name": "Hidden Valley Community Center"}, "geometry": {"type": "Point", "coordinates": [-121.96832, 37.82791]}}, {"type": "Feature", "properties": {"kind": "community_centre", "name": "Unnamed cooling site"}, "geometry": {"type": "Point", "coordinates": [-121.93213, 37.8023]}}, {"type": "Feature", "properties": {"kind": "community_centre", "name": "Sycamore Clubhouse"}, "geometry": {"type": "Point", "coordinates": [-121.97631, 37.81177]}}, {"type": "Feature", "properties": {"kind": "shelter/senior", "name": "Magnolia Garden At Danville"}, "geometry": {"type": "Point", "coordinates": [-122.00934, 37.83633]}}, {"type": "Feature", "properties": {"kind": "pool", "name": "Unnamed cooling site"}, "geometry": {"type": "Point", "coordinates": [-121.89475, 37.99152]}}, {"type": "Feature", "properties": {"kind": "shelter/senior", "name": "Valley Vista Senior Housing"}, "geometry": {"type": "Point", "coordinates": [-121.95003, 37.73303]}}, {"type": "Feature", "properties": {"kind": "shelter/senior", "name": "Moraga Royale"}, "geometry": {"type": "Point", "coordinates": [-122.12987, 37.83292]}}, {"type": "Feature", "properties": {"kind": "community_centre", "name": "Unnamed cooling site"}, "geometry": {"type": "Point", "coordinates": [-121.93469, 37.72827]}}, {"type": "Feature", "properties": {"kind": "community_centre", "name": "Unnamed cooling site"}, "geometry": {"type": "Point", "coordinates": [-121.94716, 37.78675]}}, {"type": "Feature", "properties": {"kind": "community_centre", "name": "George Miller Center"}, "geometry": {"type": "Point", "coordinates": [-122.04107, 37.99428]}}, {"type": "Feature", "properties": {"kind": "shelter/senior", "name": "Brookdale Danville"}, "geometry": {"type": "Point", "coordinates": [-121.99957, 37.82814]}}, {"type": "Feature", "properties": {"kind": "shelter/senior", "name": "Danville Village Assisted Living"}, "geometry": {"type": "Point", "coordinates": [-121.99637, 37.8236]}}, {"type": "Feature", "properties": {"kind": "shelter/senior", "name": "Danville Post-Acute Rehab"}, "geometry": {"type": "Point", "coordinates": [-121.99694, 37.82342]}}, {"type": "Feature", "properties": {"kind": "shelter/senior", "name": "The Heritage Downtown"}, "geometry": {"type": "Point", "coordinates": [-122.06591, 37.89901]}}, {"type": "Feature", "properties": {"kind": "community_centre", "name": "Town Meeting Hall"}, "geometry": {"type": "Point", "coordinates": [-121.99792, 37.82139]}}, {"type": "Feature", "properties": {"kind": "shelter/senior", "name": "Jordan Court"}, "geometry": {"type": "Point", "coordinates": [-122.26653, 37.87853]}}, {"type": "Feature", "properties": {"kind": "community_centre", "name": "Fillipino Community Center of Solano County Inc."}, "geometry": {"type": "Point", "coordinates": [-122.24493, 38.08979]}}, {"type": "Feature", "properties": {"kind": "library", "name": "Unnamed cooling site"}, "geometry": {"type": "Point", "coordinates": [-121.91029, 37.75467]}}, {"type": "Feature", "properties": {"kind": "library", "name": "San Ramon Library"}, "geometry": {"type": "Point", "coordinates": [-121.95329, 37.76438]}}, {"type": "Feature", "properties": {"kind": "pool", "name": "Farrelly Pool"}, "geometry": {"type": "Point", "coordinates": [-122.14647, 37.73488]}}, {"type": "Feature", "properties": {"kind": "pool", "name": "Unnamed cooling site"}, "geometry": {"type": "Point", "coordinates": [-122.40429, 37.79516]}}, {"type": "Feature", "properties": {"kind": "community_centre", "name": "Koho Creative Hub"}, "geometry": {"type": "Point", "coordinates": [-122.42932, 37.78547]}}, {"type": "Feature", "properties": {"kind": "community_centre", "name": "The Preserve Residents Clubhouse"}, "geometry": {"type": "Point", "coordinates": [-121.98809, 37.78027]}}, {"type": "Feature", "properties": {"kind": "pool", "name": "Unnamed cooling site"}, "geometry": {"type": "Point", "coordinates": [-122.41654, 37.8059]}}, {"type": "Feature", "properties": {"kind": "shelter/senior", "name": "Sunny Glen Senior Community"}, "geometry": {"type": "Point", "coordinates": [-121.92415, 37.72774]}}, {"type": "Feature", "properties": {"kind": "community_centre", "name": "Unnamed cooling site"}, "geometry": {"type": "Point", "coordinates": [-121.87962, 37.79268]}}, {"type": "Feature", "properties": {"kind": "pool", "name": "Unnamed cooling site"}, "geometry": {"type": "Point", "coordinates": [-122.19458, 37.74187]}}, {"type": "Feature", "properties": {"kind": "pool", "name": "Unnamed cooling site"}, "geometry": {"type": "Point", "coordinates": [-122.19387, 37.74227]}}, {"type": "Feature", "properties": {"kind": "pool", "name": "Unnamed cooling site"}, "geometry": {"type": "Point", "coordinates": [-122.19494, 37.74308]}}, {"type": "Feature", "properties": {"kind": "shelter/senior", "name": "Camino Ramon Home Care"}, "geometry": {"type": "Point", "coordinates": [-121.98784, 37.80141]}}, {"type": "Feature", "properties": {"kind": "pool", "name": "Unnamed cooling site"}, "geometry": {"type": "Point", "coordinates": [-122.24184, 37.72416]}}, {"type": "Feature", "properties": {"kind": "pool", "name": "Unnamed cooling site"}, "geometry": {"type": "Point", "coordinates": [-122.23924, 37.74755]}}, {"type": "Feature", "properties": {"kind": "shelter/senior", "name": "The Ivy"}, "geometry": {"type": "Point", "coordinates": [-122.26947, 37.86332]}}, {"type": "Feature", "properties": {"kind": "pool", "name": "Unnamed cooling site"}, "geometry": {"type": "Point", "coordinates": [-122.39697, 37.77832]}}, {"type": "Feature", "properties": {"kind": "library", "name": "Unnamed cooling site"}, "geometry": {"type": "Point", "coordinates": [-122.30138, 37.88683]}}, {"type": "Feature", "properties": {"kind": "pool", "name": "Unnamed cooling site"}, "geometry": {"type": "Point", "coordinates": [-122.27375, 37.8041]}}, {"type": "Feature", "properties": {"kind": "pool", "name": "Unnamed cooling site"}, "geometry": {"type": "Point", "coordinates": [-122.27272, 37.80109]}}, {"type": "Feature", "properties": {"kind": "shelter/senior", "name": "Bryant Navigation Center"}, "geometry": {"type": "Point", "coordinates": [-122.39993, 37.77843]}}, {"type": "Feature", "properties": {"kind": "pool", "name": "Contra Loma Swim Lagoon"}, "geometry": {"type": "Point", "coordinates": [-121.83027, 37.97279]}}, {"type": "Feature", "properties": {"kind": "pool", "name": "Unnamed cooling site"}, "geometry": {"type": "Point", "coordinates": [-122.41078, 37.77277]}}, {"type": "Feature", "properties": {"kind": "pool", "name": "Unnamed cooling site"}, "geometry": {"type": "Point", "coordinates": [-122.25291, 37.78804]}}, {"type": "Feature", "properties": {"kind": "shelter/senior", "name": "1888 MLK"}, "geometry": {"type": "Point", "coordinates": [-122.27388, 37.80899]}}, {"type": "Feature", "properties": {"kind": "library", "name": "Pleasant Hill Library"}, "geometry": {"type": "Point", "coordinates": [-122.06744, 37.93395]}}, {"type": "Feature", "properties": {"kind": "community_centre", "name": "Allendale Recreation Center"}, "geometry": {"type": "Point", "coordinates": [-122.20326, 37.78993]}}, {"type": "Feature", "properties": {"kind": "pool", "name": "Unnamed cooling site"}, "geometry": {"type": "Point", "coordinates": [-122.41805, 37.78294]}}, {"type": "Feature", "properties": {"kind": "shelter/senior", "name": "Curry Senior Center"}, "geometry": {"type": "Point", "coordinates": [-122.41444, 37.78254]}}, {"type": "Feature", "properties": {"kind": "pool", "name": "Unnamed cooling site"}, "geometry": {"type": "Point", "coordinates": [-122.16818, 37.78508]}}, {"type": "Feature", "properties": {"kind": "community_centre", "name": "Southeast Community Center"}, "geometry": {"type": "Point", "coordinates": [-122.38671, 37.74306]}}, {"type": "Feature", "properties": {"kind": "shelter/senior", "name": "Tice Valley Post Acute"}, "geometry": {"type": "Point", "coordinates": [-122.07419, 37.87665]}}, {"type": "Feature", "properties": {"kind": "shelter/senior", "name": "Rossmoor Post Acute"}, "geometry": {"type": "Point", "coordinates": [-122.06925, 37.87872]}}, {"type": "Feature", "properties": {"kind": "shelter/senior", "name": "Walnut Creek Skilled Nursing & Rehabilitation Center"}, "geometry": {"type": "Point", "coordinates": [-122.06841, 37.87773]}}, {"type": "Feature", "properties": {"kind": "shelter/senior", "name": "Shadelands Post-Acute"}, "geometry": {"type": "Point", "coordinates": [-122.02344, 37.92916]}}, {"type": "Feature", "properties": {"kind": "shelter/senior", "name": "Elders Inn"}, "geometry": {"type": "Point", "coordinates": [-122.27729, 37.77697]}}, {"type": "Feature", "properties": {"kind": "shelter/senior", "name": "Piedmont Gardens"}, "geometry": {"type": "Point", "coordinates": [-122.25081, 37.82632]}}, {"type": "Feature", "properties": {"kind": "shelter/senior", "name": "Mercy Retirement & Care Center"}, "geometry": {"type": "Point", "coordinates": [-122.22035, 37.78209]}}, {"type": "Feature", "properties": {"kind": "shelter/senior", "name": "Pacifica Senior Living Oakland Heights"}, "geometry": {"type": "Point", "coordinates": [-122.22489, 37.79491]}}, {"type": "Feature", "properties": {"kind": "community_centre", "name": "Norman C King South Vallejo Community Center"}, "geometry": {"type": "Point", "coordinates": [-122.23896, 38.08167]}}, {"type": "Feature", "properties": {"kind": "shelter/senior", "name": "Cypress Meadows Assisted Living"}, "geometry": {"type": "Point", "coordinates": [-121.80824, 37.98244]}}, {"type": "Feature", "properties": {"kind": "shelter/senior", "name": "Lone Tree Post Acute"}, "geometry": {"type": "Point", "coordinates": [-121.8048, 37.9804]}}, {"type": "Feature", "properties": {"kind": "shelter/senior", "name": "The Commons at Dallas Ranch"}, "geometry": {"type": "Point", "coordinates": [-121.79587, 37.96919]}}, {"type": "Feature", "properties": {"kind": "shelter/senior", "name": "Unnamed cooling site"}, "geometry": {"type": "Point", "coordinates": [-121.73373, 37.91885]}}, {"type": "Feature", "properties": {"kind": "shelter/senior", "name": "Notre Dame Plaza"}, "geometry": {"type": "Point", "coordinates": [-122.42577, 37.76389]}}, {"type": "Feature", "properties": {"kind": "shelter/senior", "name": "Unnamed cooling site"}, "geometry": {"type": "Point", "coordinates": [-122.23456, 37.78355]}}, {"type": "Feature", "properties": {"kind": "shelter/senior", "name": "Mandela House"}, "geometry": {"type": "Point", "coordinates": [-122.28838, 37.82739]}}, {"type": "Feature", "properties": {"kind": "community_centre", "name": "Pittsburg Youth Development Center"}, "geometry": {"type": "Point", "coordinates": [-121.87684, 38.00451]}}, {"type": "Feature", "properties": {"kind": "community_centre", "name": "St. Joseph's Parish Hall"}, "geometry": {"type": "Point", "coordinates": [-122.28989, 38.00497]}}, {"type": "Feature", "properties": {"kind": "community_centre", "name": "Unnamed cooling site"}, "geometry": {"type": "Point", "coordinates": [-122.2913, 38.00654]}}, {"type": "Feature", "properties": {"kind": "community_centre", "name": "Mosswood Recreation Center"}, "geometry": {"type": "Point", "coordinates": [-122.26141, 37.82369]}}, {"type": "Feature", "properties": {"kind": "shelter/senior", "name": "Unnamed cooling site"}, "geometry": {"type": "Point", "coordinates": [-122.00085, 37.82828]}}, {"type": "Feature", "properties": {"kind": "shelter/senior", "name": "Oakmont of Montecito"}, "geometry": {"type": "Point", "coordinates": [-121.98096, 37.95947]}}, {"type": "Feature", "properties": {"kind": "pool", "name": "Unnamed cooling site"}, "geometry": {"type": "Point", "coordinates": [-122.16989, 37.79552]}}, {"type": "Feature", "properties": {"kind": "pool", "name": "Unnamed cooling site"}, "geometry": {"type": "Point", "coordinates": [-122.14332, 37.72501]}}, {"type": "Feature", "properties": {"kind": "pool", "name": "Unnamed cooling site"}, "geometry": {"type": "Point", "coordinates": [-122.13679, 37.83324]}}, {"type": "Feature", "properties": {"kind": "pool", "name": "Unnamed cooling site"}, "geometry": {"type": "Point", "coordinates": [-122.12529, 37.8543]}}, {"type": "Feature", "properties": {"kind": "pool", "name": "Unnamed cooling site"}, "geometry": {"type": "Point", "coordinates": [-122.12668, 37.85433]}}, {"type": "Feature", "properties": {"kind": "pool", "name": "Unnamed cooling site"}, "geometry": {"type": "Point", "coordinates": [-122.12625, 37.85365]}}, {"type": "Feature", "properties": {"kind": "pool", "name": "Unnamed cooling site"}, "geometry": {"type": "Point", "coordinates": [-122.12536, 37.85336]}}, {"type": "Feature", "properties": {"kind": "pool", "name": "Unnamed cooling site"}, "geometry": {"type": "Point", "coordinates": [-122.12564, 37.85293]}}, {"type": "Feature", "properties": {"kind": "pool", "name": "Unnamed cooling site"}, "geometry": {"type": "Point", "coordinates": [-122.10074, 37.89502]}}, {"type": "Feature", "properties": {"kind": "community_centre", "name": "Old Finnish Hall"}, "geometry": {"type": "Point", "coordinates": [-122.29359, 37.8707]}}, {"type": "Feature", "properties": {"kind": "community_centre", "name": "Frances Albrier Community Center"}, "geometry": {"type": "Point", "coordinates": [-122.28341, 37.85514]}}, {"type": "Feature", "properties": {"kind": "library", "name": "Berkeley Public Library - Tarea Hall Pittman South Branch"}, "geometry": {"type": "Point", "coordinates": [-122.27099, 37.85636]}}, {"type": "Feature", "properties": {"kind": "library", "name": "Hercules Library - Contra Costa County Library"}, "geometry": {"type": "Point", "coordinates": [-122.26524, 38.0096]}}, {"type": "Feature", "properties": {"kind": "community_centre", "name": "Mastick Senior Center"}, "geometry": {"type": "Point", "coordinates": [-122.26517, 37.77362]}}, {"type": "Feature", "properties": {"kind": "community_centre", "name": "Clinton Community Center"}, "geometry": {"type": "Point", "coordinates": [-122.25275, 37.79424]}}, {"type": "Feature", "properties": {"kind": "shelter/senior", "name": "Oakmont of Cardinal Point"}, "geometry": {"type": "Point", "coordinates": [-122.27757, 37.79062]}}, {"type": "Feature", "properties": {"kind": "shelter/senior", "name": "The Kensington at Walnut Creek"}, "geometry": {"type": "Point", "coordinates": [-122.0658, 37.927]}}, {"type": "Feature", "properties": {"kind": "shelter/senior", "name": "Westmont of Brentwood"}, "geometry": {"type": "Point", "coordinates": [-121.73372, 37.91882]}}, {"type": "Feature", "properties": {"kind": "pool", "name": "Unnamed cooling site"}, "geometry": {"type": "Point", "coordinates": [-121.7714, 37.96555]}}, {"type": "Feature", "properties": {"kind": "community_centre", "name": "JCC East Bay"}, "geometry": {"type": "Point", "coordinates": [-122.26866, 37.88168]}}, {"type": "Feature", "properties": {"kind": "shelter/senior", "name": "The Lodge at Glen Cove"}, "geometry": {"type": "Point", "coordinates": [-122.2122, 38.06936]}}, {"type": "Feature", "properties": {"kind": "community_centre", "name": "Mission YMCA"}, "geometry": {"type": "Point", "coordinates": [-122.42792, 37.73243]}}, {"type": "Feature", "properties": {"kind": "library", "name": "Main Stacks"}, "geometry": {"type": "Point", "coordinates": [-122.25896, 37.87269]}}, {"type": "Feature", "properties": {"kind": "library", "name": "Doe Memorial Library"}, "geometry": {"type": "Point", "coordinates": [-122.25951, 37.87219]}}]}