{"type":"FeatureCollection","features":[{"type":"Feature","geometry":{"type":"Polygon","coordinates":[[[-122.00502499981484,37.771146999842728],[-122.00457499955303,37.77065799997829],[-122.00442999978807,37.770510999800713],[-122.00408099980862,37.770147000267386],[-122.00237899956906,37.768419999702452],[-122.00182700009833,37.767859000112232],[-122.00029999976091,37.766303000069385],[-121.99974599974205,37.765737999838485],[-121.99920199976893,37.765183999664139],[-121.99660599975188,37.765505999703983],[-121.99303700031456,37.76602900009555],[-121.99264499977909,37.766087000319828],[-121.99411000019222,37.768431000041716],[-121.99429500014016,37.768714000267771],[-121.99377399973322,37.768921000261692],[-121.99248499994555,37.768622999761199],[-121.99236600011983,37.768403000336882],[-121.9922570003399,37.768189000010651],[-121.99208900011041,37.767257000175128],[-121.99211400022479,37.767170999986952],[-121.99204200025476,37.766777000306938],[-121.99118899958683,37.766502000095663],[-121.99039799974148,37.765606000083835],[-121.99061299982662,37.765492999886106],[-121.99131699963333,37.765329999900068],[-121.99164100039675,37.765264000043111],[-121.99196500026186,37.765049999865262],[-121.99182899981939,37.764845000169402],[-121.99176199987225,37.764732000229259],[-121.99106300008842,37.763622999931428],[-121.99084499963021,37.763301000215435],[-121.9877380001503,37.762514999966044],[-121.98754200033174,37.76252000026146],[-121.98602900023802,37.76252000026146],[-121.98592499958265,37.76252000026146],[-121.98585500016077,37.762482999771741],[-121.98574499965758,37.762349999969679],[-121.98541599976961,37.761950999838938],[-121.98536399989108,37.761888000294334],[-121.98538999983035,37.761874999840536],[-121.98554600036428,37.761754000205222],[-121.9855349995953,37.761745000148125],[-121.9856190001592,37.761685000213092],[-121.98569699997702,37.761617000085749],[-121.98586100000854,37.761459999667963],[-121.98590500038949,37.76142799972736],[-121.98600300029875,37.761363999804665],[-121.98610700005582,37.761307000071007],[-121.98621400018595,37.76125599989831],[-121.98631799994304,37.761213999813265],[-121.9866600002498,37.761078000050532],[-121.98669899970955,37.761065000164507],[-121.98677900007547,37.761034999927276],[-121.98700099983333,37.760949000316025],[-121.9871189998341,37.760907000056598],[-121.98723500018505,37.760874999876805],[-121.98735300018583,37.760849000031229],[-121.98747299983644,37.760832000345737],[-121.98759500003516,37.760821000296531],[-121.98771800005883,37.760816999826297],[-121.98784100008247,37.760821000296531],[-121.98800099991604,37.760832000345737],[-121.98816599977246,37.760846000212304],[-121.9883230001313,37.76086800030167],[-121.98847799994202,37.760896999957538],[-121.98850200023146,37.760901999652141],[-121.98868399980633,37.760941000099336],[-121.98877699969275,37.760954000007096],[-121.98884600018805,37.760954999945277],[-121.98891499978502,37.760949000316025],[-121.98898199973216,37.760934999758746],[-121.98909899990804,37.760901999652141],[-121.98919299961936,37.760874999876805],[-121.98912800022033,37.760779999905019],[-121.98852399997276,37.759870000123449],[-121.98832099958317,37.759823000194388],[-121.98827000042785,37.759783999867949],[-121.98820599995544,37.75976799989192],[-121.98812099956662,37.759790000301891],[-121.98819300043498,37.759649000272638],[-121.98806500038843,37.759502000227954],[-121.98780900029541,37.759422000008421],[-121.98764199989083,37.759370999956445],[-121.98733200026943,37.759345000292427],[-121.98730600033016,37.759334000022093],[-121.98716400003995,37.759275000222786],[-121.98690799994692,37.759297000069175],[-121.98678499992326,37.759306999674372],[-121.9866329995873,37.759300999911446],[-121.98658099970875,37.759298999990371],[-121.98647199992882,37.759262000019945],[-121.98663500013544,37.758783000076427],[-121.98651499958653,37.75848100003163],[-121.98640400015677,37.758199999661038],[-121.98608000029166,37.757742000270014],[-121.98560999993836,37.757705000231056],[-121.98485500007804,37.757858000176121],[-121.98492899969789,37.757495000139428],[-121.984999999843,37.757059999727318],[-121.98402999989753,37.756737999849996],[-121.98380399994173,37.756663000173589],[-121.983605999575,37.756604999661477],[-121.98345699961207,37.756554999795782],[-121.98332899956556,37.756446999970542],[-121.9833090003724,37.756417999990617],[-121.9831279997241,37.756289999943412],[-121.98299100035507,37.756326999979834],[-121.98263700035275,37.756423999987419],[-121.98212000014379,37.756389999999207],[-121.98203399993007,37.756317999972673],[-121.98172099993563,37.756344999990858],[-121.98158399966827,37.756321999975967],[-121.98134299964387,37.756346999991798],[-121.98103399984737,37.756304999960378],[-121.98095400037975,37.756252999888503],[-121.98063299998937,37.756223999832521],[-121.98059700000437,37.756160999671785],[-121.980283000185,37.756254999891922],[-121.98023499960613,37.756226999838823],[-121.97999199993187,37.756244999874184],[-121.97993800040352,37.756211999806055],[-121.97988399997683,37.756211999806055],[-121.97977199982385,37.756210999803763],[-121.97978699989247,37.75615999966881],[-121.97958799970084,37.756063000025271],[-121.97959799974656,37.755975000304581],[-121.97953900019535,37.755940000104118],[-121.97951599973081,37.755938000092122],[-121.97938000018667,37.75585000022275],[-121.97941500034678,37.755777999670684],[-121.97876099987049,37.755471000081428],[-121.9784100002412,37.755396999844145],[-121.9784239995866,37.755360000052868],[-121.97815999999595,37.755280000325769],[-121.97813900007955,37.755254999949372],[-121.97792999984217,37.755193999705853],[-121.97767200009933,37.755083999989488],[-121.97723000023343,37.755001999926641],[-121.97706299982887,37.754967999995181],[-121.9767900000174,37.754878999662004],[-121.97669399975793,37.754808000316942],[-121.97664400042753,37.75464400019883],[-121.97656300023668,37.754488999947938],[-121.9762839996791,37.754193000307907],[-121.97614700031006,37.754311000152775],[-121.9760789996397,37.754373999758144],[-121.97577700041423,37.754518999998915],[-121.97546299969655,37.754483999819861],[-121.97510100019659,37.754505999670556],[-121.9745520002006,37.753921000285644],[-121.97447100000976,37.753929999874138],[-121.97429399955944,37.75395099985672],[-121.97396899986943,37.753880999654925],[-121.97368500018727,37.753682999801036],[-121.97354799991996,37.753632000054182],[-121.9734609998813,37.753599000241074],[-121.97328799962894,37.753560000184606],[-121.97291400043343,37.753472000327783],[-121.97281499980093,37.753320999917953],[-121.97263999989876,37.753132999715461],[-121.97231199983571,37.75299399987442],[-121.97207400018432,37.753020999685127],[-121.97176100018986,37.753421999765216],[-121.97172299965672,37.753520000068981],[-121.97095199990287,37.753283999798697],[-121.97076399958188,37.753341000032258],[-121.97036500027204,37.753341000032258],[-121.97012400024759,37.753218999890024],[-121.9695040001065,37.753097000256915],[-121.96940399964907,37.753175000127051],[-121.96919500031001,37.753260000210631],[-121.96896099995828,37.753306000006205],[-121.96877400036053,37.753183999806275],[-121.96890900007978,37.752895000247399],[-121.96901399966173,37.752703000184248],[-121.96883299991177,37.75224700025715],[-121.96876799961444,37.752188999834431],[-121.96860600013105,37.751989000305898],[-121.96842200000805,37.75181699983861],[-121.96844499957426,37.751700999694151],[-121.96827700024309,37.751427000320788],[-121.96765600027707,37.751129999724469],[-121.9674060000318,37.751060999766821],[-121.96715199958857,37.751039000312382],[-121.96703799978577,37.751057000189391],[-121.9669690001888,37.750900000089004],[-121.96669800002714,37.750818999726],[-121.96649200016283,37.750968000123628],[-121.96625000031351,37.750812999984952],[-121.96604100007612,37.750629000113754],[-121.96554300013374,37.75030000008374],[-121.96546500031594,37.750289999971365],[-121.96517499988771,37.750110999933867],[-121.96496800019847,37.750016999720948],[-121.96488600018272,37.749901999683416],[-121.96465199983099,37.749990000234639],[-121.96450899971585,37.750243000348668],[-121.96440300030895,37.750207000194351],[-121.96424599995012,37.750158999724562],[-121.96411000040598,37.750117999816496],[-121.96391299986418,37.750037000018075],[-121.96381999997777,37.749989000148254],[-121.96373100028929,37.74993699989907],[-121.96359400002197,37.749839999910215],[-121.96356499970962,37.749820000270134],[-121.96349000026488,37.749756000249185],[-121.96344099986109,37.749724000217945],[-121.96337499973885,37.74968799981108],[-121.96336200021837,37.749681999978328],[-121.96330500031695,37.749656999841328],[-121.9632319996237,37.749630000223668],[-121.96315700017897,37.749608000343784],[-121.96307900036113,37.749592000297895],[-121.96299999982011,37.749580999997988],[-121.96286299955275,37.749569999696455],[-121.96278499973496,37.749568000222574],[-121.96270799974207,37.749570999788503],[-121.96263199957409,37.749579999906082],[-121.96255600030442,37.749593999771129],[-121.96253899968768,37.749598000137937],[-121.9624850001593,37.749616999746607],[-121.96241200036438,37.749637000151786],[-121.96233899967113,37.749595999954565],[-121.96226800042434,37.749567000130483],[-121.96214100020273,37.749396999904519],[-121.96260099961195,37.749208000289478],[-121.96208299957809,37.74851299996309],[-121.96211699991328,37.748497999786991],[-121.96191500024692,37.748304000171451],[-121.96150299961994,37.747645999994411],[-121.96135799985501,37.747399999664957],[-121.96129000008293,37.746999000334718],[-121.96121800011289,37.746740999843659],[-121.96101399989841,37.746163999840419],[-121.9610559997312,37.746147000332272],[-121.96185699962228,37.745842000135795],[-121.96287500014665,37.745825999986003],[-121.96300499984298,37.745913000270463],[-121.96306299956932,37.746013000144551],[-121.96335600037058,37.746544000195691],[-121.96348600006694,37.746734000351928],[-121.96407000022303,37.746740999843659],[-121.96455599957152,37.746498999881588],[-121.96441300035468,37.74604099980094],[-121.9641809996528,37.745759999775423],[-121.96373700013709,37.74518799998382],[-121.96338700033274,37.745027000314472],[-121.96219300008126,37.744733000076259],[-121.96340400005116,37.744265000216288],[-121.963665999992,37.744144999648043],[-121.96341200044708,37.743735000323014],[-121.96191900044487,37.741391999652464],[-121.96177999962939,37.741445999916209],[-121.96085099969179,37.739969000329594],[-121.96212199993614,37.739476000159549],[-121.96312500039191,37.739086999774329],[-121.96431500044541,37.738645999818274],[-121.96358200032641,37.737457999653152],[-121.96179100039836,37.736588000097854],[-121.96142300015231,37.736620999682032],[-121.96040200015324,37.736730999847438],[-121.96039100028257,37.736700000133823],[-121.96036500034329,37.73666699987443],[-121.96032699981015,37.73664200031395],[-121.96028199960431,37.736628000130125],[-121.96022600042612,37.736626000306657],[-121.96017899967214,37.736636999690411],[-121.95969199960042,37.735812999735288],[-121.95924600043492,37.735987000296511],[-121.9592249996202,37.735961000230468],[-121.95883499963286,37.736124999838388],[-121.95878000027959,37.736149000010485],[-121.95864600038529,37.736205999943941],[-121.95843700014791,37.735886000098127],[-121.95770900005175,37.73477200002332],[-121.95571300008432,37.731716999704226],[-121.95456200038886,37.729953999991253],[-121.95069299957929,37.723638999953536],[-121.95065300029462,37.723574000300523],[-121.9499589996354,37.722439999810426],[-121.94989000003841,37.722328999981869],[-121.94998200009989,37.722243000153966],[-121.95011199979628,37.722160000192339],[-121.95016299984988,37.722120000160508],[-121.95018299994136,37.722025999929642],[-121.9502209995762,37.721788999672185],[-121.95025099971342,37.721573999768978],[-121.9502769996527,37.721421999893877],[-121.95017299989564,37.721400999919297],[-121.95001999973476,37.721382999936402],[-121.95001899990984,37.721283999952156],[-121.94950000005107,37.721280999950558],[-121.94909300034527,37.721277999948825],[-121.94902399985001,37.721277000185104],[-121.94882200018365,37.721277000185104],[-121.94875500023649,37.721277000185104],[-121.94820500041558,37.721412999905475],[-121.94582299976044,37.721984000317043],[-121.94502199986937,37.722354000111395],[-121.94476400012648,37.722422999828225],[-121.94418300034347,37.722582000135915],[-121.94407500038841,37.722613000075668],[-121.94399400019756,37.722635999908015],[-121.94396700043337,37.722644000002497],[-121.94393300009818,37.722654000297048],[-121.94388899971726,37.722666000080245],[-121.94373800010455,37.722710000216026],[-121.94369500044684,37.722721999990206],[-121.94341900026228,37.722768000290579],[-121.94259200043193,37.722909999987273],[-121.94249799982229,37.722926000116182],[-121.94238300019458,37.722945999917172],[-121.94231899972218,37.72296599971277],[-121.94218900002582,37.722997999942926],[-121.94179800021357,37.723096000028853],[-121.94166900034216,37.723128999941594],[-121.94157200025775,37.723147999949298],[-121.9412850002026,37.723204999943128],[-121.94118899994312,37.723224999668787],[-121.94116899985163,37.723229000039602],[-121.94095299994157,37.723274000288349],[-121.94052199994636,37.723393999870567],[-121.94033100015064,37.723444000112821],[-121.94019499970818,37.723484000140232],[-121.93955100017595,37.723631999698476],[-121.93926900014367,37.723700999645928],[-121.93919100032585,37.723729999656129],[-121.93873500021625,37.723841999956463],[-121.93706599958864,37.724251000306324],[-121.93700299983948,37.724246999990704],[-121.93651400011791,37.724369000282827],[-121.93615799956744,37.724466999975846],[-121.93375400006931,37.724996000256063],[-121.93338499999837,37.72507100005042],[-121.93280800041327,37.725196999960289],[-121.93273399989511,37.725216000148002],[-121.93191299991257,37.725436999804593],[-121.93141699962001,37.725555999729188],[-121.93123199967208,37.725601999690525],[-121.93055399980466,37.725771000152932],[-121.92937200014705,37.726078000023179],[-121.92928599993333,37.726084000348159],[-121.9286420004011,37.726170999677201],[-121.92697600014654,37.726566999692857],[-121.92672599990128,37.726626999682715],[-121.92647700037926,37.726688000025256],[-121.9262349996316,37.726747000227242],[-121.92582299990295,37.726848000102592],[-121.92469700032187,37.72711599999063],[-121.92451300019886,37.727160000324957],[-121.92264100007995,37.727615999925177],[-121.92236200042069,37.727684000036319],[-121.91737399970273,37.728897000064741],[-121.91646999987951,37.72911400005232],[-121.91449900002641,37.729587000172486],[-121.913568000439,37.729827999648698],[-121.91349700029389,37.729839999690526],[-121.91324299985067,37.729887000191006],[-121.91268800000688,37.730000000062887],[-121.91114700032409,37.730317999776531],[-121.9110209999274,37.730329999739006],[-121.9105699998407,37.730380000272149],[-121.91045900041094,37.730392999865266],[-121.91039400011361,37.730404999815548],[-121.91020099976976,37.730445999986323],[-121.91013800002057,37.730459999918132],[-121.91007199989832,37.730671999982988],[-121.90994899987469,37.731557999824929],[-121.90996399994329,37.732297000337574],[-121.91023799957968,37.732779999656856],[-121.91097099969868,37.733561999824978],[-121.91159500003778,37.734248000025744],[-121.91192099955268,37.734663999665599],[-121.91229999966939,37.735616999699367],[-121.91271899996902,37.736953999765127],[-121.91339500018663,37.739113000163293],[-121.9139629995509,37.740672000185583],[-121.91410300019128,37.742371999887716],[-121.91480199997511,37.743881999728849],[-121.91476900036314,37.744209000259481],[-121.91475500011946,37.744347000102024],[-121.91441000033795,37.744318999804769],[-121.91418699985687,37.744296999766689],[-121.91342899962349,37.746291999647141],[-121.91343799984433,37.74713099990776],[-121.91344200004228,37.747450000034902],[-121.91105500026261,37.747456000048615],[-121.90548199956362,37.747468000074598],[-121.90415199976803,37.747470999725593],[-121.8999949999767,37.747458000289832],[-121.89743499994462,37.747464000302912],[-121.89716600033113,37.747464000302912],[-121.89619200018768,37.746779999942575],[-121.88850299987067,37.741377000164157],[-121.88782500000323,37.741515999804847],[-121.8851319999018,37.742680000021899],[-121.88335699986725,37.742363000314242],[-121.88319500038386,37.742992999779297],[-121.88259500033425,37.745426000088912],[-121.88274599994699,37.746784999880923],[-121.88294699978846,37.748590000298265],[-121.88292099984919,37.749773000348931],[-121.88285200025219,37.752847000100736],[-121.88160199992424,37.754006000222475],[-121.87961500017764,37.757550999985391],[-121.88080900042908,37.758393000346274],[-121.88115000001264,37.758632999822595],[-121.88118599999764,37.760459999775193],[-121.88119199984543,37.760709999772963],[-121.88122799983043,37.76313200020715],[-121.88123100020348,37.76331700013737],[-121.88100799972239,37.765103000026713],[-121.88100400042276,37.765363000161507],[-121.88089999976738,37.76577000004481],[-121.87919300040323,37.767530999859993],[-121.87914599964925,37.768732999938024],[-121.88001500021069,37.769321000251452],[-121.87978199968389,37.769894999868534],[-121.87897800031809,37.771874000263139],[-121.8784939997211,37.772154999810283],[-121.8770149999626,37.773363999805724],[-121.87697999980249,37.775616000174409],[-121.87697800015268,37.775739999776121],[-121.87792600035682,37.777243000106253],[-121.87848700004839,37.778108000290182],[-121.87831200014622,37.779543000072636],[-121.87822599993248,37.780248000297135],[-121.87821699971165,37.780369999878111],[-121.87810999958155,37.781274000055035],[-121.88140799975547,37.781299000156508],[-121.88373400033414,37.781316999769935],[-121.88631799975732,37.781310999662608],[-121.89111200030655,37.781333000053742],[-121.89159500018029,37.78136600027311],[-121.89848500025606,37.781404999867988],[-121.89887199987032,37.78140800027289],[-121.89990600028824,37.781398999767809],[-121.90011899982525,37.781400000139534],[-121.90019300034342,37.781400999801249],[-121.90066299979837,37.781404000206315],[-121.90066199997345,37.781878000197622],[-121.90066000032367,37.782691999803703],[-121.9006579997755,37.783081999899387],[-121.90065699995058,37.7831890002413],[-121.90065100010283,37.783853999729097],[-121.90064799972977,37.784113000331949],[-121.90064500025504,37.785202000010479],[-121.90064299970688,37.785773000344221],[-121.90063900040724,37.787222999830036],[-121.9006360000342,37.788092000066669],[-121.90063500020929,37.788664999915277],[-121.90081900033231,37.788658000131001],[-121.90196400017997,37.788664000351808],[-121.90361299981778,37.788659999968012],[-121.90508400007867,37.788666000188655],[-121.90722999983396,37.788671000135459],[-121.90761800017147,37.788672999972114],[-121.90782400003579,37.788671000135459],[-121.90820700035043,37.788682000301314],[-121.90845500004755,37.788700999809414],[-121.90905099989922,37.788718999749968],[-121.9095639999102,37.78870200008231],[-121.91029399965616,37.788710999698047],[-121.91098900014035,37.788749000114308],[-121.91115599964661,37.788739999793329],[-121.91126799979959,37.788721000295205],[-121.91135800021131,37.788726999800964],[-121.91149399975541,37.788747000279713],[-121.91166899965761,37.788747999842109],[-121.91223799974509,37.788762999664954],[-121.91252099960229,37.788762999664954],[-121.91275400012913,37.788752999783362],[-121.91280500018276,37.788752000221081],[-121.91292499983335,37.788757999724325],[-121.91297699971189,37.788760999830728],[-121.9145049998742,37.788775000088975],[-121.92157599969993,37.788360999951749],[-121.92183599999095,37.788346000047248],[-121.92293700035597,37.788280999716122],[-121.92313599964928,37.788268999921769],[-121.92322299968794,37.788263999947716],[-121.92343299975019,37.788252000150642],[-121.92376599983614,37.788258999973323],[-121.923742000445,37.788593000074272],[-121.92370899993475,37.791926000215113],[-121.92370599956169,37.792317000077396],[-121.9237149997825,37.792410999772137],[-121.92404600021861,37.792410999772137],[-121.92439199982503,37.792410000259295],[-121.92483500041413,37.792409000036642],[-121.92539299973265,37.792409000036642],[-121.92546999972555,37.792407999813925],[-121.9257209997957,37.792407999813925],[-121.92640799988396,37.792407000301097],[-121.92678100015289,37.792404999855599],[-121.92751300044696,37.792404000342721],[-121.92871000017315,37.792400000161408],[-121.93069299972183,37.792394000243974],[-121.93278499994875,37.792388999839197],[-121.93278699959856,37.792321000263208],[-121.93281300043614,37.790741999714228],[-121.93282799960643,37.789835999824611],[-121.9328440003983,37.788899999894056],[-121.93309700011827,37.788896000232967],[-121.9374480000784,37.788849000294469],[-121.93838700006171,37.78883699988242],[-121.94124900021757,37.788802999887615],[-121.94194200015362,37.788793000011488],[-121.94194399980344,37.791059999646166],[-121.94338300027728,37.791720000266963],[-121.94423900041996,37.792112000026364],[-121.94461699981339,37.792285000003019],[-121.94592099966972,37.792882000217446],[-121.94647700023671,37.793138999988535],[-121.94646999966574,37.793673999749238],[-121.94645999961998,37.794501999926666],[-121.94644799992443,37.795105999857427],[-121.947489000015,37.795085000203585],[-121.95090900038767,37.795009000189616],[-121.95101999981748,37.795003999961772],[-121.95104699958164,37.792892000250092],[-121.95108299956664,37.789428000111158],[-121.95109799963527,37.789208000124248],[-121.95110799968097,37.787058000302238],[-121.95110900040422,37.786909999779844],[-121.95140700033005,37.78683099969151],[-121.95181400003582,37.786771999822065],[-121.95195399977791,37.78675200022861],[-121.95233700009257,37.786676999752736],[-121.9542329996026,37.786180000052539],[-121.95478800034469,37.786008000290522],[-121.9553180000741,37.785789999975719],[-121.95581600001648,37.785529999964332],[-121.95610800009453,37.78534799976714],[-121.95780699996106,37.784247999995792],[-121.95825700022284,37.78398499993915],[-121.95874000009661,37.783761999767997],[-121.95929499994038,37.783566999996552],[-121.95966700038439,37.783477999999022],[-121.96033100000813,37.783322000191539],[-121.96091099996625,37.78322699994721],[-121.96150900036605,37.783038999791373],[-121.96154199997802,37.783024999866363],[-121.96212000028633,37.782785000029769],[-121.96233399964824,37.782693000157927],[-121.96254600025868,37.7826030001725],[-121.96322099975308,37.782262999948529],[-121.96363500002984,37.782075000180527],[-121.96449299982233,37.781717999803455],[-121.96474600044063,37.781615000227347],[-121.96471299993036,37.781569999946981],[-121.96602900038054,37.781030999792584],[-121.96688899982286,37.780678000159092],[-121.9673130001454,37.781274000055035],[-121.96847399988656,37.782906999683213],[-121.96853599981085,37.78299500001819],[-121.96859400043549,37.783075999935399],[-121.96862100019965,37.783064999645063],[-121.96869200034479,37.783032999823831],[-121.96879899957658,37.782985000066077],[-121.96911199957103,37.782848000230921],[-121.96917199984547,37.782822999943434],[-121.96990400013958,37.782527000099464],[-121.96997399956149,37.782499000052844],[-121.97005200027756,37.782466999986625],[-121.97046999985402,37.782297999761866],[-121.97066400002277,37.782248999876536],[-121.97076899960477,37.782216999702023],[-121.97147800033265,37.781930000002674],[-121.97213100008572,37.781665999849302],[-121.97307199971887,37.781284999901921],[-121.97383599980003,37.780976000352766],[-121.97386400028742,37.780970000217764],[-121.97388600002874,37.780972000262821],[-121.97391100014309,37.780981999777332],[-121.97392899968644,37.781000000177904],[-121.97401800027322,37.780964999749941],[-121.97411700000741,37.78092399987662],[-121.97411700000741,37.780908999882641],[-121.97411899965726,37.780897000311278],[-121.9741239996801,37.780885000027958],[-121.97453499958387,37.780728999717553],[-121.97519300025813,37.780548999824184],[-121.97548799981088,37.780480000328666],[-121.97580599982822,37.780406999938201],[-121.97588899966888,37.780537000194379],[-121.9761780002722,37.780467000303311],[-121.97638099976348,37.780417999914114],[-121.97621099988417,37.780078000289194],[-121.97636700041808,37.780030999712643],[-121.97650200013733,37.779990999712048],[-121.97657099973428,37.77997000002258],[-121.97677300029895,37.77990799989027],[-121.9768670000103,37.77988000027154],[-121.97691300004104,37.779858000157951],[-121.9770500003084,37.779842999947654],[-121.97708299992034,37.779840999872057],[-121.97743299972474,37.780472999769138],[-121.97752200031148,37.78065600028301],[-121.97772399997787,37.781183999761751],[-121.97783299975779,37.781475000290747],[-121.978015000231,37.781824000334041],[-121.97823000031616,37.782222000085206],[-121.97848499968597,37.782693000157927],[-121.97880400042649,37.783262000014084],[-121.97887800004635,37.783390999873923],[-121.97938799968431,37.784272000178447],[-121.98002899974179,37.785381999931637],[-121.9804370001708,37.78607200018272],[-121.98075299963998,37.786674000271674],[-121.98103600039551,37.786669999780159],[-121.98389699982813,37.786627000339827],[-121.99120399965543,37.786434999809131],[-121.99406199961332,37.786357000227561],[-121.99638399999401,37.786320000306233],[-121.99657700033785,37.786317000100738],[-121.99665900035362,37.785493000338931],[-121.99674100036938,37.78526000010396],[-121.9968979998299,37.784903000201886],[-121.99698700041669,37.784545999995316],[-121.99699800028735,37.784087999762377],[-121.99697599964772,37.78368600017675],[-121.99693100034018,37.783363000154615],[-121.99680800031655,37.783050000085581],[-121.9967079998591,37.782771000056648],[-121.99658499983545,37.782347000324748],[-121.99653999962963,37.782022999767548],[-121.99655600042145,37.781849000249494],[-121.99664099991196,37.781164000076132],[-121.99668500029289,37.780583999739186],[-121.99673100032365,37.780143999703874],[-121.99685199979915,37.780147000159971],[-121.99700599978493,37.780147000159971],[-121.99741599986375,37.780101000016607],[-121.99825399956475,37.78000500021173],[-121.99905799982886,37.779912999719635],[-121.99904899960805,37.779887000177219],[-121.9993199997697,37.779862000308178],[-121.99852599955133,37.778036000104557],[-121.99844299971063,37.77759099982687],[-121.99882699985019,37.777441999802264],[-121.99899599990459,37.777376999821314],[-121.99877599979658,37.777124999922954],[-121.99864799975005,37.77698299984975],[-121.99871999972008,37.77672699970875],[-121.99848200006869,37.776170000299807],[-121.99841500012155,37.776190999648684],[-121.99809899975406,37.776292000220778],[-121.99789799991262,37.776575000181836],[-121.99770399974385,37.776271999921576],[-121.9972779997715,37.775730000262605],[-121.99702500005151,37.775302000218375],[-121.99693700018797,37.775036000329358],[-121.99662099982048,37.774033999863853],[-121.99662099982048,37.773853000235789],[-121.99638800019196,37.773556000207741],[-121.99656599956887,37.773468999765619],[-121.99646299963671,37.773116000234864],[-121.99647299968247,37.77308299988281],[-121.99666900039938,37.773013999809187],[-121.99881299960651,37.77296500016034],[-121.99922900043143,37.772864999790762],[-122.00008800004881,37.772661000236354],[-122.00052200041708,37.772454999843724],[-122.00165600039411,37.771899999783415],[-122.00199699997764,37.771734000340359],[-122.00502499981484,37.771146999842728]]]},"properties":{"GEOID":"0668378","NAME":"San Ramon city"}}]}