{"type": "FeatureCollection", "features": [{"type": "Feature", "properties": {"kind": "pool", "name": "Unnamed cooling site"}, "geometry": {"type": "Point", "coordinates": [-121.91932, 37.74776]}}, {"type": "Feature", "properties": {"kind": "community_centre", "name": "Spirited Play Labs"}, "geometry": {"type": "Point", "coordinates": [-121.96763, 37.77635]}}, {"type": "Feature", "properties": {"kind": "community_centre", "name": "San Ramon Community Center"}, "geometry": {"type": "Point", "coordinates": [-121.9538, 37.76645]}}, {"type": "Feature", "properties": {"kind": "shelter/senior", "name": "Brookdale San Ramon"}, "geometry": {"type": "Point", "coordinates": [-121.9969, 37.7764]}}, {"type": "Feature", "properties": {"kind": "pool", "name": "Unnamed cooling site"}, "geometry": {"type": "Point", "coordinates": [-121.92791, 37.73384]}}, {"type": "Feature", "properties": {"kind": "pool", "name": "50 Meter Olympic Pool"}, "geometry": {"type": "Point", "coordinates": [-121.94689, 37.74768]}}, {"type": "Feature", "properties": {"kind": "library", "name": "Dougherty Station Library"}, "geometry": {"type": "Point", "coordinates": [-121.90976, 37.75393]}}, {"type": "Feature", "properties": {"kind": "community_centre", "name": "Dougherty Station Community Center"}, "geometry": {"type": "Point", "coordinates": [-121.91019, 37.75339]}}, {"type": "Feature", "properties": {"kind": "community_centre", "name": "Danville Ranch House"}, "geometry": {"type": "Point", "coordinates": [-121.9843, 37.7902]}}, {"type": "Feature", "properties": {"kind": "pool", "name": "Play Pool"}, "geometry": {"type": "Point", "coordinates": [-121.94651, 37.74792]}}, {"type": "Feature", "properties": {"kind": "pool", "name": "Unnamed cooling site"}, "geometry": {"type": "Point", "coordinates": [-121.95381, 37.76294]}}, {"type": "Feature", "properties": {"kind": "community_centre", "name": "Amador Rancho"}, "geometry": {"type": "Point", "coordinates": [-121.92021, 37.74812]}}, {"type": "Feature", "properties": {"kind": "community_centre", "name": "Mosaic Recreation Center"}, "geometry": {"type": "Point", "coordinates": [-121.91596, 37.76681]}}, {"type": "Feature", "properties": {"kind": "community_centre", "name": "Portofino Clubhouse"}, "geometry": {"type": "Point", "coordinates": [-121.91202, 37.75878]}}, {"type": "Feature", "properties": {"kind": "shelter/senior", "name": "Deer Creek"}, "geometry": {"type": "Point", "coordinates": [-121.9116, 37.75345]}}, {"type": "Feature", "properties": {"kind": "community_centre", "name": "Unnamed cooling site"}, "geometry": {"type": "Point", "coordinates": [-121.9309, 37.77377]}}, {"type": "Feature", "properties": {"kind": "shelter/senior", "name": "Alcosta Senior & Community Center"}, "geometry": {"type": "Point", "coordinates": [-121.92318, 37.73304]}}, {"type": "Feature", "properties": {"kind": "shelter/senior", "name": "Valley Vista Senior Housing"}, "geometry": {"type": "Point", "coordinates": [-121.95003, 37.73303]}}, {"type": "Feature", "properties": {"kind": "community_centre", "name": "Unnamed cooling site"}, "geometry": {"type": "Point", "coordinates": [-121.93469, 37.72827]}}, {"type": "Feature", "properties": {"kind": "community_centre", "name": "Unnamed cooling site"}, "geometry": {"type": "Point", "coordinates": [-121.94716, 37.78675]}}, {"type": "Feature", "properties": {"kind": "library", "name": "Unnamed cooling site"}, "geometry": {"type": "Point", "coordinates": [-121.91029, 37.75467]}}, {"type": "Feature", "properties": {"kind": "library", "name": "San Ramon Library"}, "geometry": {"type": "Point", "coordinates": [-121.95329, 37.76438]}}, {"type": "Feature", "properties": {"kind": "community_centre", "name": "The Preserve Residents Clubhouse"}, "geometry": {"type": "Point", "coordinates": [-121.98809, 37.78027]}}, {"type": "Feature", "properties": {"kind": "shelter/senior", "name": "Sunny Glen Senior Community"}, "geometry": {"type": "Point", "coordinates": [-121.92415, 37.72774]}}, {"type": "Feature", "properties": {"kind": "community_centre", "name": "Unnamed cooling site"}, "geometry": {"type": "Point", "coordinates": [-121.87962, 37.79268]}}]}