{"type": "FeatureCollection", "properties": {"source": "Census TIGERweb Places_CouSub_ConCity_SubMCD layers 4 and 5", "fetched": "2026-09-13", "assignment": "cell centroid within polygon; cities before CDPs"}, "features": [{"type": "Feature", "properties": {"name": "Dublin", "kind": "city", "geoid": "0620018"}, "geometry": {"type": "Polygon", "coordinates": [[[-121.9878, 37.70932], [-121.98779, 37.70663], [-121.98779, 37.70558], [-121.98779, 37.70547], [-121.98777, 37.7047], [-121.98757, 37.70271], [-121.98751, 37.70204], [-121.98751, 37.702], [-121.98753, 37.70164], [-121.98758, 37.70061], [-121.98759, 37.70051], [-121.98719, 37.70063], [-121.9864, 37.70021], [-121.98563, 37.70013], [-121.98462, 37.69994], [-121.98337, 37.69992], [-121.98321, 37.69992], [-121.98166, 37.69964], [-121.98137, 37.69954], [-121.98019, 37.69917], [-121.97948, 37.69902], [-121.97931, 37.699], [-121.97929, 37.69905], [-121.97927, 37.69911], [-121.97923, 37.69922], [-121.9792, 37.69927], [-121.97919, 37.69928], [-121.97913, 37.69941], [-121.9791, 37.69947], [-121.97907, 37.69951], [-121.97903, 37.69956], [-121.979, 37.69961], [-121.97869, 37.69966], [-121.97861, 37.69971], [-121.97769, 37.69987], [-121.97733, 37.69994], [-121.97727, 37.69991], [-121.9769, 37.69975], [-121.97654, 37.6996], [-121.97651, 37.69957], [-121.97554, 37.69873], [-121.97425, 37.69891], [-121.97263, 37.69858], [-121.97205, 37.6981], [-121.97131, 37.69785], [-121.97127, 37.69788], [-121.97104, 37.69804], [-121.97003, 37.69811], [-121.96982, 37.69776], [-121.96871, 37.69784], [-121.96851, 37.69831], [-121.9685, 37.69845], [-121.96847, 37.69844], [-121.96808, 37.69844], [-121.96782, 37.69845], [-121.96777, 37.69833], [-121.96753, 37.69795], [-121.96713, 37.69795], [-121.96694, 37.69839], [-121.96694, 37.69851], [-121.96662, 37.69855], [-121.96658, 37.69843], [-121.96586, 37.69803], [-121.96516, 37.69796], [-121.96452, 37.69812], [-121.9643, 37.69852], [-121.9643, 37.69863], [-121.9642, 37.69864], [-121.96382, 37.69868], [-121.96365, 37.69871], [-121.96351, 37.6986], [-121.96287, 37.69824], [-121.9624, 37.69843], [-121.96221, 37.69871], [-121.96217, 37.69875], [-121.96208, 37.69882], [-121.9617, 37.69879], [-121.96124, 37.69879], [-121.96081, 37.69882], [-121.96038, 37.69886], [-121.95995, 37.6989], [-121.9597, 37.69892], [-121.95961, 37.69882], [-121.95952, 37.69872], [-121.95939, 37.69874], [-121.95934, 37.69885], [-121.95928, 37.69895], [-121.95908, 37.69897], [-121.95866, 37.69896], [-121.95823, 37.69893], [-121.95782, 37.69889], [-121.95781, 37.69885], [-121.95761, 37.69877], [-121.9576, 37.6987], [-121.95622, 37.6987], [-121.95621, 37.69886], [-121.95619, 37.69894], [-121.95602, 37.69894], [-121.95554, 37.69893], [-121.95537, 37.69893], [-121.95529, 37.69893], [-121.95509, 37.69893], [-121.95506, 37.69893], [-121.95498, 37.69894], [-121.95496, 37.69885], [-121.95496, 37.69884], [-121.95453, 37.69884], [-121.95432, 37.69884], [-121.94878, 37.69879], [-121.94831, 37.69879], [-121.94748, 37.69878], [-121.94703, 37.69878], [-121.94691, 37.69878], [-121.94666, 37.69879], [-121.94644, 37.6988], [-121.94528, 37.69878], [-121.94506, 37.69878], [-121.94455, 37.69875], [-121.94356, 37.69872], [-121.94043, 37.69874], [-121.93917, 37.69875], [-121.93851, 37.69866], [-121.93819, 37.69866], [-121.93784, 37.69869], [-121.93734, 37.69872], [-121.93711, 37.69876], [-121.93689, 37.69887], [-121.93674, 37.69901], [-121.93666, 37.69908], [-121.93593, 37.69989], [-121.93597, 37.69991], [-121.93601, 37.69994], [-121.93622, 37.70006], [-121.93611, 37.70018], [-121.93582, 37.70049], [-121.9357, 37.7005], [-121.93564, 37.70051], [-121.93545, 37.70054], [-121.9354, 37.70054], [-121.93535, 37.70055], [-121.93523, 37.70056], [-121.93459, 37.70016], [-121.93357, 37.69956], [-121.93338, 37.69945], [-121.93348, 37.69934], [-121.93351, 37.69931], [-121.93334, 37.69924], [-121.93324, 37.69922], [-121.93308, 37.69919], [-121.93282, 37.6992], [-121.9327, 37.69922], [-121.93253, 37.69925], [-121.93181, 37.69938], [-121.93145, 37.69944], [-121.93043, 37.69961], [-121.93019, 37.69965], [-121.92966, 37.69977], [-121.92905, 37.69991], [-121.92866, 37.7], [-121.92761, 37.70025], [-121.92715, 37.70038], [-121.92602, 37.70068], [-121.92541, 37.70086], [-121.92521, 37.70095], [-121.92512, 37.70101], [-121.92499, 37.70111], [-121.92489, 37.70121], [-121.92479, 37.7014], [-121.92446, 37.70196], [-121.9244, 37.70205], [-121.92425, 37.70229], [-121.92421, 37.70237], [-121.9242, 37.70245], [-121.92419, 37.70253], [-121.9241, 37.70256], [-121.92376, 37.70268], [-121.92361, 37.70273], [-121.92357, 37.70274], [-121.9233, 37.70284], [-121.92322, 37.70286], [-121.92304, 37.70293], [-121.92275, 37.70303], [-121.92265, 37.70297], [-121.92253, 37.70291], [-121.92234, 37.7028], [-121.92186, 37.70254], [-121.92159, 37.70239], [-121.9213, 37.70223], [-121.92123, 37.7022], [-121.92116, 37.70216], [-121.92108, 37.70213], [-121.921, 37.7021], [-121.9209, 37.70207], [-121.92081, 37.70205], [-121.92072, 37.70203], [-121.92063, 37.70201], [-121.92052, 37.702], [-121.92042, 37.70199], [-121.92034, 37.70199], [-121.92027, 37.70199], [-121.92023, 37.70199], [-121.92013, 37.702], [-121.92005, 37.70201], [-121.91996, 37.70202], [-121.91987, 37.70204], [-121.9198, 37.70206], [-121.91942, 37.70211], [-121.91915, 37.70214], [-121.91887, 37.70217], [-121.91863, 37.70219], [-121.9184, 37.7022], [-121.91817, 37.70222], [-121.91672, 37.7022], [-121.91637, 37.7022], [-121.91635, 37.7022], [-121.91208, 37.70212], [-121.91195, 37.70212], [-121.91176, 37.70212], [-121.91056, 37.70212], [-121.91055, 37.70213], [-121.90973, 37.70214], [-121.90882, 37.70212], [-121.90875, 37.70212], [-121.90857, 37.70211], [-121.90853, 37.70211], [-121.90825, 37.7021], [-121.9078, 37.70209], [-121.90767, 37.70209], [-121.90749, 37.70209], [-121.90737, 37.70209], [-121.90718, 37.7021], [-121.90713, 37.7021], [-121.90705, 37.70211], [-121.90686, 37.70215], [-121.90685, 37.70216], [-121.90683, 37.70216], [-121.90665, 37.70227], [-121.90664, 37.70229], [-121.90662, 37.70231], [-121.90661, 37.70233], [-121.90651, 37.7023], [-121.90619, 37.70223], [-121.90514, 37.70197], [-121.90485, 37.70197], [-121.90457, 37.70197], [-121.90434, 37.70197], [-121.90365, 37.70198], [-121.9031, 37.70198], [-121.90305, 37.70198], [-121.903, 37.70198], [-121.90295, 37.70198], [-121.90288, 37.70198], [-121.90284, 37.70198], [-121.90172, 37.702], [-121.90074, 37.70202], [-121.89905, 37.70202], [-121.89901, 37.70202], [-121.8988, 37.70201], [-121.89872, 37.70201], [-121.89866, 37.70201], [-121.89853, 37.70201], [-121.89762, 37.702], [-121.89629, 37.70197], [-121.89626, 37.70197], [-121.89623, 37.70197], [-121.89619, 37.70197], [-121.89615, 37.70198], [-121.89609, 37.70199], [-121.89606, 37.70199], [-121.89469, 37.70191], [-121.89436, 37.7019], [-121.89402, 37.70188], [-121.89323, 37.70193], [-121.89259, 37.70193], [-121.89114, 37.70188], [-121.88992, 37.70188], [-121.88812, 37.70186], [-121.88798, 37.70186], [-121.88746, 37.70186], [-121.88425, 37.70185], [-121.88281, 37.70188], [-121.88187, 37.70187], [-121.88085, 37.70185], [-121.88077, 37.70185], [-121.8803, 37.70185], [-121.87943, 37.70185], [-121.87923, 37.70184], [-121.87896, 37.70184], [-121.87882, 37.70184], [-121.87875, 37.70184], [-121.87873, 37.70184], [-121.8786, 37.70184], [-121.87843, 37.70184], [-121.87557, 37.70182], [-121.87424, 37.70183], [-121.87425, 37.70179], [-121.87226, 37.70182], [-121.87226, 37.70257], [-121.87224, 37.70257], [-121.87219, 37.70257], [-121.872, 37.70257], [-121.87195, 37.70257], [-121.87114, 37.70255], [-121.87095, 37.70246], [-121.87045, 37.70218], [-121.87007, 37.70196], [-121.8699, 37.70188], [-121.86982, 37.70185], [-121.86963, 37.7018], [-121.86954, 37.70178], [-121.86927, 37.70174], [-121.8685, 37.70167], [-121.86761, 37.70162], [-121.86745, 37.70161], [-121.86691, 37.70156], [-121.86664, 37.70152], [-121.86659, 37.70152], [-121.86645, 37.70151], [-121.8664, 37.70151], [-121.86615, 37.70151], [-121.86568, 37.70151], [-121.86542, 37.70151], [-121.86518, 37.70151], [-121.86497, 37.7015], [-121.86475, 37.7015], [-121.86433, 37.7015], [-121.86412, 37.7015], [-121.86322, 37.70149], [-121.86284, 37.70149], [-121.86171, 37.70148], [-121.86053, 37.70146], [-121.85961, 37.70145], [-121.85903, 37.70144], [-121.85813, 37.70143], [-121.85776, 37.70143], [-121.85722, 37.70143], [-121.85559, 37.70141], [-121.85504, 37.70141], [-121.85463, 37.70145], [-121.85407, 37.70148], [-121.85319, 37.70155], [-121.85277, 37.70161], [-121.85268, 37.70163], [-121.84967, 37.70159], [-121.84928, 37.70158], [-121.84693, 37.70154], [-121.84692, 37.70154], [-121.84654, 37.70149], [-121.84613, 37.70146], [-121.84579, 37.70143], [-121.84552, 37.70141], [-121.8453, 37.70138], [-121.84499, 37.70132], [-121.84496, 37.70132], [-121.84487, 37.70132], [-121.84484, 37.70132], [-121.8441, 37.70132], [-121.84385, 37.70132], [-121.84304, 37.70131], [-121.83766, 37.70125], [-121.83586, 37.70123], [-121.83533, 37.70123], [-121.83375, 37.70121], [-121.83338, 37.70121], [-121.83339, 37.70144], [-121.83347, 37.70923], [-121.83244, 37.70923], [-121.83255, 37.72374], [-121.84103, 37.72377], [-121.8416, 37.72377], [-121.84161, 37.73096], [-121.84994, 37.73096], [-121.85065, 37.73096], [-121.85064, 37.73159], [-121.85064, 37.73206], [-121.85061, 37.73406], [-121.85059, 37.73792], [-121.85059, 37.73823], [-121.85073, 37.74494], [-121.85562, 37.74376], [-121.85838, 37.74309], [-121.86002, 37.74269], [-121.8637, 37.74179], [-121.87072, 37.74009], [-121.87073, 37.74009], [-121.87099, 37.74004], [-121.87365, 37.7395], [-121.88117, 37.73767], [-121.88308, 37.73718], [-121.884, 37.73693], [-121.88556, 37.73651], [-121.88827, 37.73577], [-121.89223, 37.73484], [-121.8949, 37.73422], [-121.89527, 37.73413], [-121.89545, 37.73408], [-121.89681, 37.73376], [-121.89742, 37.73361], [-121.90255, 37.73238], [-121.90396, 37.73205], [-121.90447, 37.73193], [-121.90472, 37.73186], [-121.90546, 37.73167], [-121.90724, 37.73121], [-121.90845, 37.7309], [-121.90944, 37.73064], [-121.90952, 37.73062], [-121.90967, 37.73058], [-121.90978, 37.73055], [-121.90987, 37.73053], [-121.90992, 37.73051], [-121.91008, 37.73047], [-121.91014, 37.73046], [-121.9102, 37.73045], [-121.9103, 37.73042], [-121.91039, 37.7304], [-121.91046, 37.73039], [-121.91057, 37.73038], [-121.91102, 37.73033], [-121.91115, 37.73032], [-121.91269, 37.73], [-121.91324, 37.72989], [-121.9135, 37.72984], [-121.91357, 37.72983], [-121.9145, 37.72959], [-121.91647, 37.72911], [-121.91737, 37.7289], [-121.92236, 37.72768], [-121.92264, 37.72762], [-121.92451, 37.72716], [-121.9247, 37.72712], [-121.92582, 37.72685], [-121.92623, 37.72675], [-121.92648, 37.72669], [-121.92673, 37.72663], [-121.92698, 37.72657], [-121.92864, 37.72617], [-121.92929, 37.72608], [-121.92937, 37.72608], [-121.93055, 37.72577], [-121.93123, 37.7256], [-121.93142, 37.72556], [-121.93191, 37.72544], [-121.93273, 37.72522], [-121.93281, 37.7252], [-121.93338, 37.72507], [-121.93375, 37.725], [-121.93616, 37.72447], [-121.93651, 37.72437], [-121.937, 37.72425], [-121.93707, 37.72425], [-121.93874, 37.72384], [-121.93919, 37.72373], [-121.93927, 37.7237], [-121.93955, 37.72363], [-121.94019, 37.72348], [-121.94033, 37.72344], [-121.94052, 37.72339], [-121.94095, 37.72327], [-121.94117, 37.72323], [-121.94119, 37.72322], [-121.94129, 37.7232], [-121.94157, 37.72315], [-121.94167, 37.72313], [-121.9418, 37.7231], [-121.94219, 37.723], [-121.94232, 37.72297], [-121.94238, 37.72295], [-121.9425, 37.72293], [-121.94259, 37.72291], [-121.94342, 37.72277], [-121.9437, 37.72272], [-121.94374, 37.72271], [-121.94389, 37.72267], [-121.94393, 37.72265], [-121.94397, 37.72264], [-121.94399, 37.72264], [-121.94408, 37.72261], [-121.94418, 37.72258], [-121.94476, 37.72242], [-121.94502, 37.72235], [-121.94582, 37.72198], [-121.94821, 37.72141], [-121.94876, 37.72128], [-121.94945, 37.72111], [-121.95, 37.72096], [-121.95035, 37.72087], [-121.9512, 37.72067], [-121.95201, 37.72046], [-121.95375, 37.72005], [-121.9546, 37.71984], [-121.95511, 37.71972], [-121.95506, 37.71968], [-121.95504, 37.71966], [-121.95501, 37.71963], [-121.95499, 37.71962], [-121.95496, 37.71959], [-121.95494, 37.71957], [-121.95488, 37.71953], [-121.95462, 37.71931], [-121.95459, 37.71928], [-121.95456, 37.71927], [-121.95453, 37.71925], [-121.95416, 37.71901], [-121.95412, 37.71898], [-121.95402, 37.71894], [-121.95386, 37.71888], [-121.95373, 37.71884], [-121.95357, 37.71874], [-121.95345, 37.71867], [-121.95336, 37.71862], [-121.95328, 37.71857], [-121.95296, 37.71839], [-121.95286, 37.71832], [-121.95275, 37.71825], [-121.9527, 37.71822], [-121.95252, 37.71812], [-121.95245, 37.71808], [-121.9524, 37.71805], [-121.9522, 37.71794], [-121.95211, 37.71783], [-121.95203, 37.71773], [-121.95194, 37.71762], [-121.95184, 37.71751], [-121.95182, 37.71749], [-121.95164, 37.71742], [-121.95155, 37.71738], [-121.95122, 37.71724], [-121.95096, 37.71713], [-121.9509, 37.7171], [-121.95077, 37.71705], [-121.95074, 37.71703], [-121.95096, 37.71557], [-121.95217, 37.71585], [-121.95288, 37.71602], [-121.95316, 37.71527], [-121.95326, 37.71504], [-121.95339, 37.71465], [-121.95355, 37.71421], [-121.95322, 37.71364], [-121.95308, 37.71339], [-121.95263, 37.7133], [-121.95252, 37.71328], [-121.95165, 37.71309], [-121.95157, 37.71308], [-121.95148, 37.71306], [-121.95134, 37.71303], [-121.95124, 37.71301], [-121.95085, 37.71288], [-121.95083, 37.71286], [-121.95091, 37.71268], [-121.95095, 37.71258], [-121.95098, 37.71256], [-121.95102, 37.71253], [-121.95108, 37.7125], [-121.95119, 37.71244], [-121.95132, 37.71238], [-121.95137, 37.71235], [-121.9514, 37.71233], [-121.95174, 37.71215], [-121.95178, 37.71213], [-121.9521, 37.71196], [-121.95277, 37.71161], [-121.95333, 37.71131], [-121.95359, 37.71117], [-121.95377, 37.71107], [-121.95384, 37.71102], [-121.95389, 37.71098], [-121.954, 37.71093], [-121.95415, 37.71085], [-121.95426, 37.71079], [-121.95423, 37.71077], [-121.95403, 37.71056], [-121.95379, 37.71035], [-121.95358, 37.71017], [-121.95336, 37.71], [-121.95314, 37.70982], [-121.95281, 37.70956], [-121.95255, 37.70939], [-121.95249, 37.70936], [-121.95254, 37.70909], [-121.95261, 37.70868], [-121.95263, 37.70858], [-121.95265, 37.70843], [-121.95268, 37.70829], [-121.95269, 37.70822], [-121.95271, 37.70807], [-121.95276, 37.70774], [-121.9528, 37.70759], [-121.95292, 37.70765], [-121.95394, 37.70816], [-121.95397, 37.70818], [-121.954, 37.70819], [-121.95402, 37.70821], [-121.95478, 37.70834], [-121.95495, 37.70834], [-121.95497, 37.70834], [-121.95577, 37.70856], [-121.95588, 37.70851], [-121.95624, 37.70837], [-121.95651, 37.70851], [-121.95669, 37.7086], [-121.95775, 37.70913], [-121.95831, 37.7094], [-121.95848, 37.70949], [-121.95852, 37.70951], [-121.9586, 37.70955], [-121.95894, 37.70971], [-121.95904, 37.70976], [-121.95914, 37.70981], [-121.95923, 37.70985], [-121.9593, 37.70988], [-121.9594, 37.70998], [-121.9598, 37.71038], [-121.96007, 37.71064], [-121.96022, 37.71079], [-121.96023, 37.7106], [-121.96024, 37.71041], [-121.96024, 37.71017], [-121.96025, 37.70994], [-121.96025, 37.70975], [-121.96027, 37.70914], [-121.96027, 37.70899], [-121.96027, 37.7089], [-121.96037, 37.70879], [-121.96061, 37.7087], [-121.96074, 37.70862], [-121.96089, 37.70851], [-121.96092, 37.70849], [-121.96099, 37.70844], [-121.96109, 37.70843], [-121.96114, 37.70843], [-121.96152, 37.7084], [-121.96183, 37.70839], [-121.96247, 37.70838], [-121.96267, 37.70841], [-121.96288, 37.70841], [-121.96303, 37.70841], [-121.96354, 37.70841], [-121.96392, 37.70855], [-121.96437, 37.70856], [-121.96462, 37.70863], [-121.965, 37.70875], [-121.96533, 37.70888], [-121.96565, 37.70898], [-121.96575, 37.709], [-121.96595, 37.70918], [-121.96614, 37.70929], [-121.96617, 37.7093], [-121.96623, 37.7093], [-121.96628, 37.70931], [-121.96633, 37.70931], [-121.96685, 37.70941], [-121.96709, 37.70946], [-121.9678, 37.70957], [-121.96806, 37.70961], [-121.96815, 37.70962], [-121.96832, 37.70964], [-121.96846, 37.70966], [-121.96862, 37.70968], [-121.96919, 37.70965], [-121.96944, 37.7097], [-121.96949, 37.70971], [-121.96949, 37.70942], [-121.9711, 37.70941], [-121.97188, 37.70941], [-121.97279, 37.7094], [-121.9729, 37.7094], [-121.97322, 37.7094], [-121.97383, 37.7094], [-121.97426, 37.70939], [-121.97778, 37.70937], [-121.97847, 37.70937], [-121.97883, 37.70937], [-121.9878, 37.70932]]]}}, {"type": "Feature", "properties": {"name": "Danville", "kind": "city", "geoid": "0617988"}, "geometry": {"type": "Polygon", "coordinates": [[[-122.02602, 37.82002], [-122.02608, 37.81944], [-122.02584, 37.81944], [-122.026, 37.81226], [-122.02608, 37.80906], [-122.02002, 37.80906], [-122.01954, 37.80906], [-122.01826, 37.80906], [-122.01556, 37.80905], [-122.01503, 37.80906], [-122.01476, 37.80859], [-122.01463, 37.80844], [-122.01432, 37.80843], [-122.01387, 37.80843], [-122.00744, 37.80835], [-122.0072, 37.80944], [-122.00675, 37.80975], [-122.0067, 37.80978], [-122.00571, 37.81015], [-122.00527, 37.81016], [-122.0048, 37.81031], [-122.00434, 37.81045], [-122.00379, 37.81061], [-122.00357, 37.81074], [-122.00299, 37.81054], [-122.00301, 37.81049], [-122.00304, 37.81043], [-122.00347, 37.81058], [-122.00375, 37.81033], [-122.00374, 37.80995], [-122.00365, 37.80964], [-122.00342, 37.80927], [-122.00314, 37.80905], [-122.0028, 37.80885], [-122.00219, 37.8087], [-122.00161, 37.80904], [-122.00113, 37.80933], [-122.00089, 37.80954], [-122.00083, 37.80971], [-122.00077, 37.80952], [-122.00115, 37.80921], [-122.0017, 37.80888], [-122.00228, 37.80851], [-122.00239, 37.8083], [-122.0057, 37.8083], [-122.00569, 37.80762], [-122.00566, 37.80762], [-122.00565, 37.80711], [-122.00564, 37.80536], [-122.00557, 37.80267], [-122.0055, 37.7993], [-122.00543, 37.79654], [-122.00537, 37.79412], [-122.00548, 37.79418], [-122.00544, 37.79329], [-122.00378, 37.79335], [-122.00141, 37.79342], [-122.00065, 37.79345], [-121.99869, 37.79351], [-121.99769, 37.79354], [-121.9937, 37.79367], [-121.99335, 37.79365], [-121.99388, 37.79191], [-121.99383, 37.79062], [-121.99346, 37.78944], [-121.99287, 37.78837], [-121.99328, 37.78754], [-121.9932, 37.78745], [-121.9928, 37.787], [-121.99214, 37.78738], [-121.99139, 37.78666], [-121.9912, 37.78643], [-121.9839, 37.78663], [-121.98104, 37.78667], [-121.98075, 37.78667], [-121.98044, 37.78607], [-121.98003, 37.78538], [-121.97939, 37.78427], [-121.97888, 37.78339], [-121.9788, 37.78326], [-121.97848, 37.78269], [-121.97823, 37.78222], [-121.97802, 37.78182], [-121.97783, 37.78148], [-121.97772, 37.78118], [-121.97752, 37.78066], [-121.97743, 37.78047], [-121.97708, 37.77984], [-121.97705, 37.77984], [-121.97691, 37.77986], [-121.97687, 37.77988], [-121.97677, 37.77991], [-121.97657, 37.77997], [-121.9765, 37.77999], [-121.97637, 37.78003], [-121.97621, 37.78008], [-121.97638, 37.78042], [-121.97618, 37.78047], [-121.97589, 37.78054], [-121.97581, 37.78041], [-121.97549, 37.78048], [-121.97519, 37.78055], [-121.97453, 37.78073], [-121.97412, 37.78089], [-121.97412, 37.7809], [-121.97412, 37.78091], [-121.97412, 37.78092], [-121.97402, 37.78096], [-121.97393, 37.781], [-121.97391, 37.78098], [-121.97389, 37.78097], [-121.97386, 37.78097], [-121.97384, 37.78098], [-121.97307, 37.78128], [-121.97213, 37.78167], [-121.97148, 37.78193], [-121.97077, 37.78222], [-121.97066, 37.78225], [-121.97047, 37.7823], [-121.97005, 37.78247], [-121.96997, 37.7825], [-121.9699, 37.78253], [-121.96917, 37.78282], [-121.96911, 37.78285], [-121.9688, 37.78299], [-121.96869, 37.78303], [-121.96862, 37.78306], [-121.96859, 37.78308], [-121.96854, 37.783], [-121.96847, 37.78291], [-121.96731, 37.78127], [-121.96689, 37.78068], [-121.96603, 37.78103], [-121.96471, 37.78157], [-121.96475, 37.78162], [-121.96449, 37.78172], [-121.96364, 37.78208], [-121.96322, 37.78226], [-121.96255, 37.7826], [-121.96233, 37.78269], [-121.96212, 37.78279], [-121.96154, 37.78302], [-121.96151, 37.78304], [-121.96091, 37.78323], [-121.96033, 37.78332], [-121.95967, 37.78348], [-121.95929, 37.78357], [-121.95874, 37.78376], [-121.95826, 37.78398], [-121.95781, 37.78425], [-121.95611, 37.78535], [-121.95582, 37.78553], [-121.95532, 37.78579], [-121.95479, 37.78601], [-121.95423, 37.78618], [-121.95234, 37.78668], [-121.95195, 37.78675], [-121.95181, 37.78677], [-121.95141, 37.78683], [-121.95111, 37.78691], [-121.95111, 37.78706], [-121.9511, 37.78921], [-121.95108, 37.78943], [-121.95105, 37.79289], [-121.95102, 37.795], [-121.95091, 37.79501], [-121.94749, 37.79509], [-121.94645, 37.79511], [-121.94646, 37.7945], [-121.94647, 37.79367], [-121.94648, 37.79314], [-121.94592, 37.79288], [-121.94462, 37.79229], [-121.94424, 37.79211], [-121.94338, 37.79172], [-121.94194, 37.79106], [-121.94194, 37.78879], [-121.94125, 37.7888], [-121.93839, 37.78884], [-121.93745, 37.78885], [-121.9331, 37.7889], [-121.93284, 37.7889], [-121.93283, 37.78984], [-121.93281, 37.79074], [-121.93279, 37.79232], [-121.93278, 37.79239], [-121.93069, 37.79239], [-121.92871, 37.7924], [-121.92751, 37.7924], [-121.92678, 37.7924], [-121.92641, 37.79241], [-121.92572, 37.79241], [-121.92547, 37.79241], [-121.92539, 37.79241], [-121.92484, 37.79241], [-121.92439, 37.79241], [-121.92405, 37.79241], [-121.92371, 37.79241], [-121.92371, 37.79232], [-121.92371, 37.79193], [-121.92374, 37.78859], [-121.92377, 37.78826], [-121.92343, 37.78825], [-121.92322, 37.78826], [-121.92314, 37.78827], [-121.92294, 37.78828], [-121.92184, 37.78835], [-121.92158, 37.78836], [-121.9145, 37.78878], [-121.91298, 37.78876], [-121.91292, 37.78876], [-121.91281, 37.78875], [-121.91275, 37.78875], [-121.91252, 37.78876], [-121.91224, 37.78876], [-121.91167, 37.78875], [-121.91149, 37.78875], [-121.91136, 37.78873], [-121.91127, 37.78872], [-121.91116, 37.78874], [-121.91099, 37.78875], [-121.91029, 37.78871], [-121.90956, 37.7887], [-121.90905, 37.78872], [-121.90846, 37.7887], [-121.90821, 37.78868], [-121.90782, 37.78867], [-121.90762, 37.78867], [-121.90723, 37.78867], [-121.90508, 37.78867], [-121.90361, 37.78866], [-121.90196, 37.78866], [-121.90082, 37.78866], [-121.90064, 37.78866], [-121.90064, 37.78809], [-121.90064, 37.78722], [-121.90064, 37.78577], [-121.90065, 37.7852], [-121.90065, 37.78411], [-121.90065, 37.78385], [-121.90066, 37.78319], [-121.90066, 37.78308], [-121.90066, 37.78269], [-121.90066, 37.78188], [-121.90066, 37.7814], [-121.90019, 37.7814], [-121.90012, 37.7814], [-121.89991, 37.7814], [-121.89887, 37.78141], [-121.89849, 37.7814], [-121.8916, 37.78137], [-121.8916, 37.78179], [-121.8916, 37.78862], [-121.892, 37.78865], [-121.89237, 37.78865], [-121.89613, 37.78864], [-121.89613, 37.7889], [-121.89608, 37.79447], [-121.89608, 37.79513], [-121.89607, 37.79567], [-121.89608, 37.79641], [-121.89608, 37.79677], [-121.89608, 37.79702], [-121.89608, 37.79752], [-121.89608, 37.79768], [-121.89608, 37.79796], [-121.89608, 37.79828], [-121.89608, 37.79847], [-121.89608, 37.79949], [-121.89608, 37.79956], [-121.89608, 37.79976], [-121.89607, 37.79988], [-121.89613, 37.79988], [-121.8988, 37.79992], [-121.89973, 37.79994], [-121.90096, 37.79994], [-121.90096, 37.7999], [-121.90298, 37.79988], [-121.90372, 37.7998], [-121.90402, 37.79969], [-121.9046, 37.79949], [-121.90506, 37.79942], [-121.90517, 37.7994], [-121.9054, 37.79936], [-121.90538, 37.79874], [-121.90543, 37.79862], [-121.90544, 37.79856], [-121.90553, 37.7984], [-121.90562, 37.7983], [-121.90576, 37.79821], [-121.90602, 37.79812], [-121.90625, 37.79811], [-121.90631, 37.79813], [-121.9065, 37.79818], [-121.90654, 37.79819], [-121.90675, 37.79828], [-121.90709, 37.79841], [-121.90729, 37.79848], [-121.90751, 37.79856], [-121.9077, 37.79862], [-121.90799, 37.79872], [-121.90837, 37.79885], [-121.90848, 37.79887], [-121.90896, 37.79893], [-121.90943, 37.79898], [-121.90998, 37.79905], [-121.91005, 37.79905], [-121.91168, 37.79891], [-121.91224, 37.79878], [-121.91244, 37.79873], [-121.91295, 37.79857], [-121.91309, 37.79854], [-121.91332, 37.79849], [-121.91352, 37.79847], [-121.91366, 37.79846], [-121.91401, 37.79845], [-121.915, 37.79858], [-121.91533, 37.79863], [-121.91571, 37.79868], [-121.91575, 37.79869], [-121.91685, 37.79883], [-121.91691, 37.79884], [-121.91723, 37.79887], [-121.91808, 37.79896], [-121.92065, 37.79922], [-121.92151, 37.79931], [-121.92166, 37.79933], [-121.9219, 37.79935], [-121.92309, 37.79948], [-121.92349, 37.79952], [-121.92363, 37.79959], [-121.92366, 37.79989], [-121.92367, 37.79998], [-121.92368, 37.80006], [-121.92367, 37.80018], [-121.92367, 37.80289], [-121.92369, 37.80538], [-121.92369, 37.8055], [-121.92369, 37.80894], [-121.9237, 37.80916], [-121.92375, 37.80996], [-121.92375, 37.81008], [-121.92356, 37.81046], [-121.9234, 37.81098], [-121.92318, 37.81145], [-121.9227, 37.81244], [-121.92256, 37.81293], [-121.92239, 37.81352], [-121.92213, 37.81406], [-121.9221, 37.81411], [-121.92154, 37.81506], [-121.92129, 37.8155], [-121.92121, 37.81584], [-121.92121, 37.81623], [-121.92123, 37.81663], [-121.92119, 37.81707], [-121.9211, 37.81734], [-121.92206, 37.81736], [-121.93287, 37.8171], [-121.93301, 37.82254], [-121.93283, 37.82297], [-121.93285, 37.82341], [-121.93285, 37.82352], [-121.93285, 37.82473], [-121.93285, 37.82506], [-121.93286, 37.82511], [-121.93286, 37.82517], [-121.93287, 37.82635], [-121.93296, 37.82638], [-121.93666, 37.82739], [-121.93703, 37.82749], [-121.93784, 37.82771], [-121.9379, 37.82772], [-121.93788, 37.82776], [-121.93784, 37.82786], [-121.93783, 37.8279], [-121.93799, 37.82793], [-121.93836, 37.82802], [-121.93849, 37.82805], [-121.93865, 37.82809], [-121.93891, 37.82815], [-121.93969, 37.82833], [-121.93994, 37.82839], [-121.94002, 37.82841], [-121.94026, 37.82846], [-121.94031, 37.82848], [-121.94034, 37.82849], [-121.94069, 37.82858], [-121.94141, 37.82878], [-121.94173, 37.82886], [-121.94208, 37.82895], [-121.94236, 37.82902], [-121.94262, 37.8291], [-121.94297, 37.8292], [-121.94318, 37.82926], [-121.94346, 37.82934], [-121.94365, 37.8294], [-121.94377, 37.82945], [-121.94389, 37.8295], [-121.94392, 37.82951], [-121.94402, 37.82954], [-121.94415, 37.82958], [-121.94442, 37.82964], [-121.94538, 37.8298], [-121.94566, 37.82985], [-121.94586, 37.82989], [-121.94616, 37.82995], [-121.9466, 37.83004], [-121.94674, 37.83006], [-121.94689, 37.83009], [-121.94704, 37.83012], [-121.94718, 37.83016], [-121.94733, 37.8302], [-121.94734, 37.83019], [-121.94735, 37.83016], [-121.94736, 37.83015], [-121.94758, 37.83023], [-121.94807, 37.8304], [-121.94826, 37.83047], [-121.94849, 37.83055], [-121.94848, 37.83057], [-121.94847, 37.83059], [-121.94866, 37.83067], [-121.94885, 37.83076], [-121.94935, 37.83098], [-121.95038, 37.83148], [-121.95055, 37.83155], [-121.95071, 37.83163], [-121.95091, 37.83172], [-121.95109, 37.83177], [-121.95175, 37.83194], [-121.95192, 37.83193], [-121.95285, 37.83192], [-121.95351, 37.83182], [-121.95351, 37.83183], [-121.95397, 37.83183], [-121.95397, 37.83185], [-121.95499, 37.83184], [-121.955, 37.83192], [-121.95587, 37.83192], [-121.95628, 37.83192], [-121.95646, 37.83193], [-121.95655, 37.83195], [-121.95664, 37.83197], [-121.95672, 37.832], [-121.95681, 37.83203], [-121.95688, 37.83206], [-121.95738, 37.83234], [-121.95788, 37.83263], [-121.95842, 37.83293], [-121.95857, 37.83302], [-121.95869, 37.83307], [-121.95882, 37.83313], [-121.95895, 37.83317], [-121.95907, 37.83322], [-121.9595, 37.8333], [-121.95992, 37.83338], [-121.96048, 37.8335], [-121.96054, 37.83351], [-121.96059, 37.83351], [-121.96067, 37.83352], [-121.96083, 37.8335], [-121.96091, 37.83349], [-121.96099, 37.83347], [-121.96106, 37.83344], [-121.96113, 37.83342], [-121.96138, 37.83329], [-121.96151, 37.83321], [-121.96158, 37.83317], [-121.96166, 37.83314], [-121.96174, 37.83312], [-121.96182, 37.8331], [-121.96191, 37.83308], [-121.96202, 37.83307], [-121.96211, 37.83307], [-121.96219, 37.83307], [-121.96236, 37.8331], [-121.96244, 37.83312], [-121.96259, 37.83317], [-121.96267, 37.83321], [-121.96332, 37.83357], [-121.9634, 37.83361], [-121.96349, 37.83365], [-121.96358, 37.83368], [-121.96377, 37.83373], [-121.96422, 37.8338], [-121.9643, 37.83381], [-121.96434, 37.83381], [-121.96442, 37.83381], [-121.9645, 37.8338], [-121.96465, 37.83378], [-121.96472, 37.83375], [-121.96488, 37.83372], [-121.96506, 37.8337], [-121.96514, 37.8337], [-121.96523, 37.83371], [-121.96571, 37.83384], [-121.96583, 37.83389], [-121.9659, 37.83393], [-121.96603, 37.83402], [-121.96615, 37.83412], [-121.96624, 37.83424], [-121.96628, 37.8343], [-121.96681, 37.83494], [-121.96685, 37.83499], [-121.9669, 37.83505], [-121.96696, 37.83511], [-121.9671, 37.83523], [-121.96702, 37.83523], [-121.96694, 37.83524], [-121.96705, 37.83536], [-121.96716, 37.83549], [-121.96728, 37.83552], [-121.96811, 37.8357], [-121.96838, 37.83577], [-121.96855, 37.83579], [-121.96907, 37.83586], [-121.96918, 37.83588], [-121.96887, 37.83727], [-121.96964, 37.83731], [-121.96964, 37.83738], [-121.96965, 37.83745], [-121.96965, 37.83747], [-121.9695, 37.83754], [-121.96945, 37.83757], [-121.96957, 37.83765], [-121.96933, 37.83783], [-121.96982, 37.83817], [-121.97032, 37.83814], [-121.97062, 37.83831], [-121.97222, 37.83823], [-121.97226, 37.83833], [-121.976, 37.83807], [-121.97552, 37.83905], [-121.97538, 37.83907], [-121.97381, 37.83944], [-121.97261, 37.83971], [-121.97239, 37.83981], [-121.97022, 37.84072], [-121.9687, 37.84136], [-121.9674, 37.84194], [-121.96707, 37.84204], [-121.967, 37.8421], [-121.96586, 37.84298], [-121.96549, 37.84327], [-121.96527, 37.84338], [-121.96538, 37.84343], [-121.96548, 37.84348], [-121.96606, 37.84328], [-121.96643, 37.8436], [-121.96666, 37.84403], [-121.96651, 37.8445], [-121.96642, 37.84463], [-121.96633, 37.84476], [-121.96628, 37.84475], [-121.96586, 37.84535], [-121.96961, 37.84524], [-121.96985, 37.84523], [-121.9728, 37.84512], [-121.97682, 37.84497], [-121.97705, 37.84496], [-121.97821, 37.84492], [-121.97839, 37.84506], [-121.97844, 37.8451], [-121.97848, 37.84515], [-121.97853, 37.84515], [-121.97886, 37.84515], [-121.97902, 37.84515], [-121.97925, 37.84515], [-121.97952, 37.84515], [-121.97964, 37.84516], [-121.98044, 37.84514], [-121.98074, 37.8451], [-121.98101, 37.84507], [-121.98155, 37.84499], [-121.98208, 37.84489], [-121.98231, 37.84484], [-121.98233, 37.84484], [-121.98268, 37.84479], [-121.9828, 37.84477], [-121.98303, 37.84476], [-121.98349, 37.84474], [-121.9838, 37.84474], [-121.98417, 37.84473], [-121.98454, 37.84473], [-121.98572, 37.84468], [-121.98584, 37.84467], [-121.9865, 37.84465], [-121.98673, 37.84465], [-121.98684, 37.84464], [-121.98681, 37.84285], [-121.98681, 37.84087], [-121.98681, 37.84017], [-121.98672, 37.83742], [-121.9868, 37.83743], [-121.98936, 37.83732], [-121.99693, 37.83709], [-121.99696, 37.83726], [-121.99695, 37.83799], [-121.99692, 37.83854], [-121.9969, 37.83906], [-121.9969, 37.83943], [-121.9969, 37.84054], [-121.9969, 37.84091], [-121.99697, 37.8434], [-121.99703, 37.84522], [-121.99799, 37.84518], [-122.00262, 37.84515], [-122.00327, 37.84506], [-122.0033, 37.84503], [-122.00347, 37.845], [-122.00356, 37.84499], [-122.00368, 37.84496], [-122.00462, 37.84477], [-122.00465, 37.84476], [-122.0047, 37.84476], [-122.0048, 37.84476], [-122.00499, 37.84482], [-122.00515, 37.84488], [-122.00522, 37.84491], [-122.00547, 37.84499], [-122.00587, 37.84511], [-122.0061, 37.84518], [-122.00632, 37.84525], [-122.00646, 37.84529], [-122.00682, 37.8454], [-122.007, 37.84546], [-122.00729, 37.84561], [-122.00739, 37.84567], [-122.00765, 37.84576], [-122.00782, 37.84582], [-122.00802, 37.84589], [-122.00813, 37.84592], [-122.00888, 37.84617], [-122.00904, 37.84626], [-122.00919, 37.8463], [-122.00956, 37.84629], [-122.01078, 37.84626], [-122.0125, 37.84625], [-122.01282, 37.84625], [-122.0128, 37.84602], [-122.01332, 37.84594], [-122.01331, 37.84578], [-122.01326, 37.84504], [-122.01424, 37.84576], [-122.01444, 37.8459], [-122.01453, 37.84586], [-122.01467, 37.84581], [-122.01473, 37.84582], [-122.01481, 37.84583], [-122.01493, 37.84586], [-122.01506, 37.84587], [-122.01516, 37.84587], [-122.01529, 37.84585], [-122.01542, 37.84582], [-122.01554, 37.8458], [-122.01568, 37.84582], [-122.01581, 37.84513], [-122.01603, 37.84494], [-122.01598, 37.84491], [-122.01568, 37.84471], [-122.01558, 37.84464], [-122.01531, 37.84452], [-122.01538, 37.84435], [-122.01538, 37.84433], [-122.0154, 37.84427], [-122.01541, 37.84414], [-122.01541, 37.84407], [-122.0154, 37.844], [-122.01537, 37.84387], [-122.01534, 37.84382], [-122.0153, 37.84373], [-122.01526, 37.84366], [-122.01518, 37.84368], [-122.01507, 37.84372], [-122.01505, 37.84373], [-122.01499, 37.84375], [-122.01492, 37.84377], [-122.01478, 37.84378], [-122.01464, 37.84377], [-122.01457, 37.84376], [-122.0145, 37.84374], [-122.01447, 37.84373], [-122.01441, 37.84371], [-122.01435, 37.84368], [-122.01432, 37.84366], [-122.0143, 37.84364], [-122.01425, 37.8436], [-122.01417, 37.84351], [-122.01413, 37.84347], [-122.01411, 37.84341], [-122.0141, 37.84338], [-122.0141, 37.84334], [-122.01411, 37.84324], [-122.01412, 37.84318], [-122.01415, 37.8431], [-122.0142, 37.843], [-122.01422, 37.84297], [-122.01425, 37.84294], [-122.01436, 37.84286], [-122.01441, 37.84283], [-122.01445, 37.84278], [-122.01449, 37.84274], [-122.01453, 37.84269], [-122.01456, 37.84261], [-122.01469, 37.84213], [-122.0148, 37.84177], [-122.01482, 37.84169], [-122.01484, 37.84161], [-122.01487, 37.84153], [-122.01491, 37.84145], [-122.01495, 37.84138], [-122.015, 37.84131], [-122.01504, 37.84125], [-122.01525, 37.84106], [-122.01542, 37.84093], [-122.01567, 37.84081], [-122.01605, 37.84046], [-122.01614, 37.84041], [-122.01633, 37.8403], [-122.01684, 37.84051], [-122.01695, 37.84056], [-122.0171, 37.84099], [-122.01735, 37.84072], [-122.01764, 37.8404], [-122.0176, 37.84038], [-122.01742, 37.84028], [-122.01761, 37.84014], [-122.01769, 37.84008], [-122.01773, 37.84006], [-122.01779, 37.84001], [-122.01812, 37.83977], [-122.01902, 37.83912], [-122.01909, 37.83906], [-122.01915, 37.83903], [-122.01928, 37.83892], [-122.01934, 37.83881], [-122.01909, 37.83843], [-122.01877, 37.83807], [-122.01868, 37.83802], [-122.01834, 37.83783], [-122.01814, 37.83773], [-122.01798, 37.83768], [-122.01737, 37.83776], [-122.01711, 37.83775], [-122.01701, 37.83774], [-122.01696, 37.83757], [-122.01714, 37.83684], [-122.01712, 37.83667], [-122.01703, 37.8366], [-122.01664, 37.8363], [-122.01647, 37.83613], [-122.01638, 37.83606], [-122.01616, 37.83582], [-122.01577, 37.83573], [-122.01569, 37.83566], [-122.01585, 37.83549], [-122.01584, 37.83543], [-122.01584, 37.83542], [-122.01583, 37.83533], [-122.01602, 37.83526], [-122.01613, 37.83513], [-122.01624, 37.83501], [-122.01651, 37.83484], [-122.01654, 37.83482], [-122.01655, 37.83439], [-122.01662, 37.83445], [-122.01669, 37.83438], [-122.01686, 37.83424], [-122.01693, 37.83418], [-122.01723, 37.83389], [-122.0176, 37.83361], [-122.01809, 37.83317], [-122.019, 37.83237], [-122.01914, 37.83228], [-122.01932, 37.83206], [-122.01951, 37.83189], [-122.02035, 37.83119], [-122.02044, 37.83101], [-122.02055, 37.83081], [-122.02095, 37.83], [-122.02118, 37.8298], [-122.02113, 37.82976], [-122.02106, 37.82964], [-122.02092, 37.82938], [-122.0208, 37.82917], [-122.02089, 37.82901], [-122.02095, 37.82898], [-122.02108, 37.82891], [-122.02108, 37.82872], [-122.02144, 37.82824], [-122.02142, 37.82825], [-122.02139, 37.8281], [-122.02156, 37.82803], [-122.02164, 37.828], [-122.02164, 37.82804], [-122.02165, 37.82808], [-122.02168, 37.82817], [-122.02171, 37.82822], [-122.02174, 37.82826], [-122.0218, 37.82832], [-122.02189, 37.82845], [-122.02193, 37.82852], [-122.02195, 37.82858], [-122.02198, 37.82867], [-122.02209, 37.82881], [-122.02238, 37.82916], [-122.02259, 37.82911], [-122.02286, 37.82905], [-122.02595, 37.82838], [-122.02594, 37.82786], [-122.02593, 37.82731], [-122.02559, 37.82635], [-122.02523, 37.82596], [-122.02508, 37.82579], [-122.02505, 37.82575], [-122.02497, 37.82568], [-122.02475, 37.82527], [-122.02473, 37.82525], [-122.02482, 37.82524], [-122.0248, 37.8252], [-122.02477, 37.82514], [-122.0247, 37.82496], [-122.02458, 37.82459], [-122.02456, 37.82451], [-122.02451, 37.82441], [-122.02438, 37.82433], [-122.02422, 37.82426], [-122.02416, 37.82425], [-122.02411, 37.82413], [-122.02394, 37.82357], [-122.024, 37.82357], [-122.026, 37.8236], [-122.02598, 37.82314], [-122.02566, 37.82312], [-122.02571, 37.823], [-122.0258, 37.82272], [-122.02578, 37.82245], [-122.02561, 37.82205], [-122.02552, 37.82175], [-122.02556, 37.82166], [-122.02568, 37.82132], [-122.02605, 37.82132], [-122.02604, 37.82122], [-122.02603, 37.82085], [-122.02603, 37.82072], [-122.02602, 37.82002]]]}}, {"type": "Feature", "properties": {"name": "San Ramon", "kind": "city", "geoid": "0668378"}, "geometry": {"type": "Polygon", "coordinates": [[[-122.00502, 37.77115], [-122.00457, 37.77066], [-122.00443, 37.77051], [-122.00408, 37.77015], [-122.00238, 37.76842], [-122.00183, 37.76786], [-122.0003, 37.7663], [-121.99975, 37.76574], [-121.9992, 37.76518], [-121.99661, 37.76551], [-121.99304, 37.76603], [-121.99264, 37.76609], [-121.99411, 37.76843], [-121.9943, 37.76871], [-121.99377, 37.76892], [-121.99248, 37.76862], [-121.99237, 37.7684], [-121.99226, 37.76819], [-121.99209, 37.76726], [-121.99211, 37.76717], [-121.99204, 37.76678], [-121.99119, 37.7665], [-121.9904, 37.76561], [-121.99061, 37.76549], [-121.99132, 37.76533], [-121.99164, 37.76526], [-121.99197, 37.76505], [-121.99183, 37.76485], [-121.99176, 37.76473], [-121.99106, 37.76362], [-121.99084, 37.7633], [-121.98774, 37.76251], [-121.98754, 37.76252], [-121.98603, 37.76252], [-121.98592, 37.76252], [-121.98586, 37.76248], [-121.98574, 37.76235], [-121.98542, 37.76195], [-121.98536, 37.76189], [-121.98539, 37.76187], [-121.98555, 37.76175], [-121.98553, 37.76175], [-121.98562, 37.76169], [-121.9857, 37.76162], [-121.98586, 37.76146], [-121.98591, 37.76143], [-121.986, 37.76136], [-121.98611, 37.76131], [-121.98621, 37.76126], [-121.98632, 37.76121], [-121.98666, 37.76108], [-121.9867, 37.76107], [-121.98678, 37.76103], [-121.987, 37.76095], [-121.98712, 37.76091], [-121.98724, 37.76087], [-121.98735, 37.76085], [-121.98747, 37.76083], [-121.9876, 37.76082], [-121.98772, 37.76082], [-121.98784, 37.76082], [-121.988, 37.76083], [-121.98817, 37.76085], [-121.98832, 37.76087], [-121.98848, 37.7609], [-121.9885, 37.7609], [-121.98868, 37.76094], [-121.98878, 37.76095], [-121.98885, 37.76095], [-121.98891, 37.76095], [-121.98898, 37.76093], [-121.9891, 37.7609], [-121.98919, 37.76087], [-121.98913, 37.76078], [-121.98852, 37.75987], [-121.98832, 37.75982], [-121.98827, 37.75978], [-121.98821, 37.75977], [-121.98812, 37.75979], [-121.98819, 37.75965], [-121.98807, 37.7595], [-121.98781, 37.75942], [-121.98764, 37.75937], [-121.98733, 37.75935], [-121.98731, 37.75933], [-121.98716, 37.75928], [-121.98691, 37.7593], [-121.98678, 37.75931], [-121.98663, 37.7593], [-121.98658, 37.7593], [-121.98647, 37.75926], [-121.98664, 37.75878], [-121.98651, 37.75848], [-121.9864, 37.7582], [-121.98608, 37.75774], [-121.98561, 37.75771], [-121.98486, 37.75786], [-121.98493, 37.7575], [-121.985, 37.75706], [-121.98403, 37.75674], [-121.9838, 37.75666], [-121.98361, 37.7566], [-121.98346, 37.75655], [-121.98333, 37.75645], [-121.98331, 37.75642], [-121.98313, 37.75629], [-121.98299, 37.75633], [-121.98264, 37.75642], [-121.98212, 37.75639], [-121.98203, 37.75632], [-121.98172, 37.75634], [-121.98158, 37.75632], [-121.98134, 37.75635], [-121.98103, 37.7563], [-121.98095, 37.75625], [-121.98063, 37.75622], [-121.9806, 37.75616], [-121.98028, 37.75625], [-121.98023, 37.75623], [-121.97999, 37.75624], [-121.97994, 37.75621], [-121.97988, 37.75621], [-121.97977, 37.75621], [-121.97979, 37.75616], [-121.97959, 37.75606], [-121.9796, 37.75598], [-121.97954, 37.75594], [-121.97952, 37.75594], [-121.97938, 37.75585], [-121.97942, 37.75578], [-121.97876, 37.75547], [-121.97841, 37.7554], [-121.97842, 37.75536], [-121.97816, 37.75528], [-121.97814, 37.75525], [-121.97793, 37.75519], [-121.97767, 37.75508], [-121.97723, 37.755], [-121.97706, 37.75497], [-121.97679, 37.75488], [-121.97669, 37.75481], [-121.97664, 37.75464], [-121.97656, 37.75449], [-121.97628, 37.75419], [-121.97615, 37.75431], [-121.97608, 37.75437], [-121.97578, 37.75452], [-121.97546, 37.75448], [-121.9751, 37.75451], [-121.97455, 37.75392], [-121.97447, 37.75393], [-121.97429, 37.75395], [-121.97397, 37.75388], [-121.97369, 37.75368], [-121.97355, 37.75363], [-121.97346, 37.7536], [-121.97329, 37.75356], [-121.97291, 37.75347], [-121.97281, 37.75332], [-121.97264, 37.75313], [-121.97231, 37.75299], [-121.97207, 37.75302], [-121.97176, 37.75342], [-121.97172, 37.75352], [-121.97095, 37.75328], [-121.97076, 37.75334], [-121.97037, 37.75334], [-121.97012, 37.75322], [-121.9695, 37.7531], [-121.9694, 37.75318], [-121.9692, 37.75326], [-121.96896, 37.75331], [-121.96877, 37.75318], [-121.96891, 37.7529], [-121.96901, 37.7527], [-121.96883, 37.75225], [-121.96877, 37.75219], [-121.96861, 37.75199], [-121.96842, 37.75182], [-121.96844, 37.7517], [-121.96828, 37.75143], [-121.96766, 37.75113], [-121.96741, 37.75106], [-121.96715, 37.75104], [-121.96704, 37.75106], [-121.96697, 37.7509], [-121.9667, 37.75082], [-121.96649, 37.75097], [-121.96625, 37.75081], [-121.96604, 37.75063], [-121.96554, 37.7503], [-121.96547, 37.75029], [-121.96517, 37.75011], [-121.96497, 37.75002], [-121.96489, 37.7499], [-121.96465, 37.74999], [-121.96451, 37.75024], [-121.9644, 37.75021], [-121.96425, 37.75016], [-121.96411, 37.75012], [-121.96391, 37.75004], [-121.96382, 37.74999], [-121.96373, 37.74994], [-121.96359, 37.74984], [-121.96356, 37.74982], [-121.96349, 37.74976], [-121.96344, 37.74972], [-121.96337, 37.74969], [-121.96336, 37.74968], [-121.96331, 37.74966], [-121.96323, 37.74963], [-121.96316, 37.74961], [-121.96308, 37.74959], [-121.963, 37.74958], [-121.96286, 37.74957], [-121.96278, 37.74957], [-121.96271, 37.74957], [-121.96263, 37.74958], [-121.96256, 37.74959], [-121.96254, 37.7496], [-121.96249, 37.74962], [-121.96241, 37.74964], [-121.96234, 37.7496], [-121.96227, 37.74957], [-121.96214, 37.7494], [-121.9626, 37.74921], [-121.96208, 37.74851], [-121.96212, 37.7485], [-121.96192, 37.7483], [-121.9615, 37.74765], [-121.96136, 37.7474], [-121.96129, 37.747], [-121.96122, 37.74674], [-121.96101, 37.74616], [-121.96106, 37.74615], [-121.96186, 37.74584], [-121.96288, 37.74583], [-121.963, 37.74591], [-121.96306, 37.74601], [-121.96336, 37.74654], [-121.96349, 37.74673], [-121.96407, 37.74674], [-121.96456, 37.7465], [-121.96441, 37.74604], [-121.96418, 37.74576], [-121.96374, 37.74519], [-121.96339, 37.74503], [-121.96219, 37.74473], [-121.9634, 37.74427], [-121.96367, 37.74414], [-121.96341, 37.74374], [-121.96192, 37.74139], [-121.96178, 37.74145], [-121.96085, 37.73997], [-121.96212, 37.73948], [-121.96313, 37.73909], [-121.96432, 37.73865], [-121.96358, 37.73746], [-121.96179, 37.73659], [-121.96142, 37.73662], [-121.9604, 37.73673], [-121.96039, 37.7367], [-121.96037, 37.73667], [-121.96033, 37.73664], [-121.96028, 37.73663], [-121.96023, 37.73663], [-121.96018, 37.73664], [-121.95969, 37.73581], [-121.95925, 37.73599], [-121.95922, 37.73596], [-121.95883, 37.73612], [-121.95878, 37.73615], [-121.95865, 37.73621], [-121.95844, 37.73589], [-121.95771, 37.73477], [-121.95571, 37.73172], [-121.95456, 37.72995], [-121.95069, 37.72364], [-121.95065, 37.72357], [-121.94996, 37.72244], [-121.94989, 37.72233], [-121.94998, 37.72224], [-121.95011, 37.72216], [-121.95016, 37.72212], [-121.95018, 37.72203], [-121.95022, 37.72179], [-121.95025, 37.72157], [-121.95028, 37.72142], [-121.95017, 37.7214], [-121.95002, 37.72138], [-121.95002, 37.72128], [-121.9495, 37.72128], [-121.94909, 37.72128], [-121.94902, 37.72128], [-121.94882, 37.72128], [-121.94876, 37.72128], [-121.94821, 37.72141], [-121.94582, 37.72198], [-121.94502, 37.72235], [-121.94476, 37.72242], [-121.94418, 37.72258], [-121.94408, 37.72261], [-121.94399, 37.72264], [-121.94397, 37.72264], [-121.94393, 37.72265], [-121.94389, 37.72267], [-121.94374, 37.72271], [-121.9437, 37.72272], [-121.94342, 37.72277], [-121.94259, 37.72291], [-121.9425, 37.72293], [-121.94238, 37.72295], [-121.94232, 37.72297], [-121.94219, 37.723], [-121.9418, 37.7231], [-121.94167, 37.72313], [-121.94157, 37.72315], [-121.94129, 37.7232], [-121.94119, 37.72322], [-121.94117, 37.72323], [-121.94095, 37.72327], [-121.94052, 37.72339], [-121.94033, 37.72344], [-121.94019, 37.72348], [-121.93955, 37.72363], [-121.93927, 37.7237], [-121.93919, 37.72373], [-121.93874, 37.72384], [-121.93707, 37.72425], [-121.937, 37.72425], [-121.93651, 37.72437], [-121.93616, 37.72447], [-121.93375, 37.725], [-121.93338, 37.72507], [-121.93281, 37.7252], [-121.93273, 37.72522], [-121.93191, 37.72544], [-121.93142, 37.72556], [-121.93123, 37.7256], [-121.93055, 37.72577], [-121.92937, 37.72608], [-121.92929, 37.72608], [-121.92864, 37.72617], [-121.92698, 37.72657], [-121.92673, 37.72663], [-121.92648, 37.72669], [-121.92623, 37.72675], [-121.92582, 37.72685], [-121.9247, 37.72712], [-121.92451, 37.72716], [-121.92264, 37.72762], [-121.92236, 37.72768], [-121.91737, 37.7289], [-121.91647, 37.72911], [-121.9145, 37.72959], [-121.91357, 37.72983], [-121.9135, 37.72984], [-121.91324, 37.72989], [-121.91269, 37.73], [-121.91115, 37.73032], [-121.91102, 37.73033], [-121.91057, 37.73038], [-121.91046, 37.73039], [-121.91039, 37.7304], [-121.9103, 37.73042], [-121.9102, 37.73045], [-121.91014, 37.73046], [-121.91007, 37.73067], [-121.90995, 37.73156], [-121.90996, 37.7323], [-121.91024, 37.73278], [-121.91097, 37.73356], [-121.9116, 37.73425], [-121.91192, 37.73466], [-121.9123, 37.73562], [-121.91272, 37.73695], [-121.9134, 37.73911], [-121.91396, 37.74067], [-121.9141, 37.74237], [-121.9148, 37.74388], [-121.91477, 37.74421], [-121.91476, 37.74435], [-121.91441, 37.74432], [-121.91419, 37.7443], [-121.91343, 37.74629], [-121.91344, 37.74713], [-121.91344, 37.74745], [-121.91106, 37.74746], [-121.90548, 37.74747], [-121.90415, 37.74747], [-121.89999, 37.74746], [-121.89743, 37.74746], [-121.89717, 37.74746], [-121.89619, 37.74678], [-121.8885, 37.74138], [-121.88783, 37.74152], [-121.88513, 37.74268], [-121.88336, 37.74236], [-121.8832, 37.74299], [-121.8826, 37.74543], [-121.88275, 37.74678], [-121.88295, 37.74859], [-121.88292, 37.74977], [-121.88285, 37.75285], [-121.8816, 37.75401], [-121.87962, 37.75755], [-121.88081, 37.75839], [-121.88115, 37.75863], [-121.88119, 37.76046], [-121.88119, 37.76071], [-121.88123, 37.76313], [-121.88123, 37.76332], [-121.88101, 37.7651], [-121.881, 37.76536], [-121.8809, 37.76577], [-121.87919, 37.76753], [-121.87915, 37.76873], [-121.88002, 37.76932], [-121.87978, 37.76989], [-121.87898, 37.77187], [-121.87849, 37.77215], [-121.87701, 37.77336], [-121.87698, 37.77562], [-121.87698, 37.77574], [-121.87793, 37.77724], [-121.87849, 37.77811], [-121.87831, 37.77954], [-121.87823, 37.78025], [-121.87822, 37.78037], [-121.87811, 37.78127], [-121.88141, 37.7813], [-121.88373, 37.78132], [-121.88632, 37.78131], [-121.89111, 37.78133], [-121.8916, 37.78137], [-121.89849, 37.7814], [-121.89887, 37.78141], [-121.89991, 37.7814], [-121.90012, 37.7814], [-121.90019, 37.7814], [-121.90066, 37.7814], [-121.90066, 37.78188], [-121.90066, 37.78269], [-121.90066, 37.78308], [-121.90066, 37.78319], [-121.90065, 37.78385], [-121.90065, 37.78411], [-121.90065, 37.7852], [-121.90064, 37.78577], [-121.90064, 37.78722], [-121.90064, 37.78809], [-121.90064, 37.78866], [-121.90082, 37.78866], [-121.90196, 37.78866], [-121.90361, 37.78866], [-121.90508, 37.78867], [-121.90723, 37.78867], [-121.90762, 37.78867], [-121.90782, 37.78867], [-121.90821, 37.78868], [-121.90846, 37.7887], [-121.90905, 37.78872], [-121.90956, 37.7887], [-121.91029, 37.78871], [-121.91099, 37.78875], [-121.91116, 37.78874], [-121.91127, 37.78872], [-121.91136, 37.78873], [-121.91149, 37.78875], [-121.91167, 37.78875], [-121.91224, 37.78876], [-121.91252, 37.78876], [-121.91275, 37.78875], [-121.91281, 37.78875], [-121.91292, 37.78876], [-121.91298, 37.78876], [-121.9145, 37.78878], [-121.92158, 37.78836], [-121.92184, 37.78835], [-121.92294, 37.78828], [-121.92314, 37.78827], [-121.92322, 37.78826], [-121.92343, 37.78825], [-121.92377, 37.78826], [-121.92374, 37.78859], [-121.92371, 37.79193], [-121.92371, 37.79232], [-121.92371, 37.79241], [-121.92405, 37.79241], [-121.92439, 37.79241], [-121.92484, 37.79241], [-121.92539, 37.79241], [-121.92547, 37.79241], [-121.92572, 37.79241], [-121.92641, 37.79241], [-121.92678, 37.7924], [-121.92751, 37.7924], [-121.92871, 37.7924], [-121.93069, 37.79239], [-121.93278, 37.79239], [-121.93279, 37.79232], [-121.93281, 37.79074], [-121.93283, 37.78984], [-121.93284, 37.7889], [-121.9331, 37.7889], [-121.93745, 37.78885], [-121.93839, 37.78884], [-121.94125, 37.7888], [-121.94194, 37.78879], [-121.94194, 37.79106], [-121.94338, 37.79172], [-121.94424, 37.79211], [-121.94462, 37.79229], [-121.94592, 37.79288], [-121.94648, 37.79314], [-121.94647, 37.79367], [-121.94646, 37.7945], [-121.94645, 37.79511], [-121.94749, 37.79509], [-121.95091, 37.79501], [-121.95102, 37.795], [-121.95105, 37.79289], [-121.95108, 37.78943], [-121.9511, 37.78921], [-121.95111, 37.78706], [-121.95111, 37.78691], [-121.95141, 37.78683], [-121.95181, 37.78677], [-121.95195, 37.78675], [-121.95234, 37.78668], [-121.95423, 37.78618], [-121.95479, 37.78601], [-121.95532, 37.78579], [-121.95582, 37.78553], [-121.95611, 37.78535], [-121.95781, 37.78425], [-121.95826, 37.78398], [-121.95874, 37.78376], [-121.95929, 37.78357], [-121.95967, 37.78348], [-121.96033, 37.78332], [-121.96091, 37.78323], [-121.96151, 37.78304], [-121.96154, 37.78302], [-121.96212, 37.78279], [-121.96233, 37.78269], [-121.96255, 37.7826], [-121.96322, 37.78226], [-121.96364, 37.78208], [-121.96449, 37.78172], [-121.96475, 37.78162], [-121.96471, 37.78157], [-121.96603, 37.78103], [-121.96689, 37.78068], [-121.96731, 37.78127], [-121.96847, 37.78291], [-121.96854, 37.783], [-121.96859, 37.78308], [-121.96862, 37.78306], [-121.96869, 37.78303], [-121.9688, 37.78299], [-121.96911, 37.78285], [-121.96917, 37.78282], [-121.9699, 37.78253], [-121.96997, 37.7825], [-121.97005, 37.78247], [-121.97047, 37.7823], [-121.97066, 37.78225], [-121.97077, 37.78222], [-121.97148, 37.78193], [-121.97213, 37.78167], [-121.97307, 37.78128], [-121.97384, 37.78098], [-121.97386, 37.78097], [-121.97389, 37.78097], [-121.97391, 37.78098], [-121.97393, 37.781], [-121.97402, 37.78096], [-121.97412, 37.78092], [-121.97412, 37.78091], [-121.97412, 37.7809], [-121.97412, 37.78089], [-121.97453, 37.78073], [-121.97519, 37.78055], [-121.97549, 37.78048], [-121.97581, 37.78041], [-121.97589, 37.78054], [-121.97618, 37.78047], [-121.97638, 37.78042], [-121.97621, 37.78008], [-121.97637, 37.78003], [-121.9765, 37.77999], [-121.97657, 37.77997], [-121.97677, 37.77991], [-121.97687, 37.77988], [-121.97691, 37.77986], [-121.97705, 37.77984], [-121.97708, 37.77984], [-121.97743, 37.78047], [-121.97752, 37.78066], [-121.97772, 37.78118], [-121.97783, 37.78148], [-121.97802, 37.78182], [-121.97823, 37.78222], [-121.97848, 37.78269], [-121.9788, 37.78326], [-121.97888, 37.78339], [-121.97939, 37.78427], [-121.98003, 37.78538], [-121.98044, 37.78607], [-121.98075, 37.78667], [-121.98104, 37.78667], [-121.9839, 37.78663], [-121.9912, 37.78643], [-121.99406, 37.78636], [-121.99638, 37.78632], [-121.99658, 37.78632], [-121.99666, 37.78549], [-121.99674, 37.78526], [-121.9969, 37.7849], [-121.99699, 37.78455], [-121.997, 37.78409], [-121.99698, 37.78369], [-121.99693, 37.78336], [-121.99681, 37.78305], [-121.99671, 37.78277], [-121.99658, 37.78235], [-121.99654, 37.78202], [-121.99656, 37.78185], [-121.99664, 37.78116], [-121.99669, 37.78058], [-121.99673, 37.78014], [-121.99685, 37.78015], [-121.99701, 37.78015], [-121.99742, 37.7801], [-121.99825, 37.78001], [-121.99906, 37.77991], [-121.99905, 37.77989], [-121.99932, 37.77986], [-121.99853, 37.77804], [-121.99844, 37.77759], [-121.99883, 37.77744], [-121.999, 37.77738], [-121.99878, 37.77712], [-121.99865, 37.77698], [-121.99872, 37.77673], [-121.99848, 37.77617], [-121.99842, 37.77619], [-121.9981, 37.77629], [-121.9979, 37.77658], [-121.9977, 37.77627], [-121.99728, 37.77573], [-121.99703, 37.7753], [-121.99694, 37.77504], [-121.99662, 37.77403], [-121.99662, 37.77385], [-121.99639, 37.77356], [-121.99657, 37.77347], [-121.99646, 37.77312], [-121.99647, 37.77308], [-121.99667, 37.77301], [-121.99881, 37.77297], [-121.99923, 37.77286], [-122.00009, 37.77266], [-122.00052, 37.77245], [-122.00166, 37.7719], [-122.002, 37.77173], [-122.00502, 37.77115]]]}}, {"type": "Feature", "properties": {"name": "Camino Tassajara", "kind": "cdp", "geoid": "0610301"}, "geometry": {"type": "Polygon", "coordinates": [[[-121.89613, 37.7889], [-121.89613, 37.78864], [-121.89237, 37.78865], [-121.892, 37.78865], [-121.8916, 37.78862], [-121.8916, 37.78179], [-121.8916, 37.78137], [-121.89111, 37.78133], [-121.88632, 37.78131], [-121.88373, 37.78132], [-121.88141, 37.7813], [-121.87811, 37.78127], [-121.87822, 37.78037], [-121.87814, 37.78041], [-121.87807, 37.78049], [-121.87765, 37.78086], [-121.87739, 37.78098], [-121.87723, 37.78099], [-121.87688, 37.78196], [-121.87681, 37.78214], [-121.87543, 37.78599], [-121.87482, 37.7877], [-121.875, 37.79072], [-121.87502, 37.79107], [-121.87502, 37.79115], [-121.87506, 37.79191], [-121.8752, 37.79233], [-121.8751, 37.79414], [-121.87521, 37.79496], [-121.87527, 37.79539], [-121.87596, 37.79613], [-121.87694, 37.79661], [-121.87558, 37.79703], [-121.87551, 37.79787], [-121.87575, 37.799], [-121.877, 37.79921], [-121.87745, 37.79927], [-121.87756, 37.79929], [-121.87782, 37.79932], [-121.87814, 37.79935], [-121.87849, 37.79936], [-121.8786, 37.79937], [-121.87932, 37.79938], [-121.88036, 37.79938], [-121.88081, 37.79939], [-121.88125, 37.7994], [-121.8817, 37.7994], [-121.88208, 37.79939], [-121.88231, 37.79939], [-121.8824, 37.79939], [-121.88268, 37.79936], [-121.88301, 37.79932], [-121.88323, 37.7993], [-121.88325, 37.79929], [-121.88329, 37.79929], [-121.8833, 37.79929], [-121.88375, 37.79923], [-121.88407, 37.79919], [-121.88421, 37.79916], [-121.88432, 37.79914], [-121.88512, 37.79898], [-121.88535, 37.79894], [-121.88557, 37.79891], [-121.88594, 37.79887], [-121.88603, 37.79886], [-121.8862, 37.79885], [-121.88672, 37.79884], [-121.88704, 37.79884], [-121.88725, 37.79885], [-121.88739, 37.79886], [-121.88746, 37.79887], [-121.88767, 37.79888], [-121.88784, 37.7989], [-121.8881, 37.79895], [-121.8884, 37.79901], [-121.88905, 37.79914], [-121.88952, 37.79924], [-121.88977, 37.79931], [-121.88979, 37.79932], [-121.89004, 37.79937], [-121.89085, 37.79955], [-121.89106, 37.79959], [-121.89119, 37.79962], [-121.8916, 37.79967], [-121.89185, 37.79968], [-121.89243, 37.79971], [-121.89282, 37.79972], [-121.89539, 37.79975], [-121.89572, 37.79975], [-121.8958, 37.79976], [-121.89608, 37.79976], [-121.89608, 37.79956], [-121.89608, 37.79949], [-121.89608, 37.79847], [-121.89608, 37.79828], [-121.89608, 37.79796], [-121.89608, 37.79768], [-121.89608, 37.79752], [-121.89608, 37.79702], [-121.89608, 37.79677], [-121.89608, 37.79641], [-121.89607, 37.79567], [-121.89608, 37.79513], [-121.89608, 37.79447], [-121.89613, 37.7889]]]}}, {"type": "Feature", "properties": {"name": "Norris Canyon", "kind": "cdp", "geoid": "0651622"}, "geometry": {"type": "Polygon", "coordinates": [[[-122.01177, 37.74749], [-122.01177, 37.74743], [-122.00586, 37.74279], [-122.00107, 37.73903], [-121.9995, 37.73843], [-121.99586, 37.7384], [-121.99543, 37.73835], [-121.99192, 37.73605], [-121.9894, 37.73411], [-121.9881, 37.73315], [-121.98487, 37.73235], [-121.9801, 37.7311], [-121.97719, 37.73081], [-121.97514, 37.73062], [-121.97194, 37.73032], [-121.97126, 37.72956], [-121.96937, 37.72748], [-121.96846, 37.72659], [-121.96311, 37.73271], [-121.95771, 37.73477], [-121.95844, 37.73589], [-121.95865, 37.73621], [-121.95878, 37.73615], [-121.95883, 37.73612], [-121.95922, 37.73596], [-121.95925, 37.73599], [-121.95969, 37.73581], [-121.96018, 37.73664], [-121.96023, 37.73663], [-121.96028, 37.73663], [-121.96033, 37.73664], [-121.96037, 37.73667], [-121.96039, 37.7367], [-121.9604, 37.73673], [-121.96142, 37.73662], [-121.96179, 37.73659], [-121.96358, 37.73746], [-121.96432, 37.73865], [-121.96313, 37.73909], [-121.96323, 37.73922], [-121.96333, 37.73936], [-121.96346, 37.73949], [-121.96358, 37.73962], [-121.9637, 37.73978], [-121.96379, 37.73991], [-121.96394, 37.74005], [-121.96404, 37.74013], [-121.96417, 37.74022], [-121.96444, 37.74039], [-121.96457, 37.74047], [-121.96472, 37.74055], [-121.96484, 37.74063], [-121.96495, 37.74067], [-121.96499, 37.74078], [-121.96511, 37.7409], [-121.96525, 37.74102], [-121.96538, 37.74111], [-121.96578, 37.7414], [-121.9659, 37.7415], [-121.96595, 37.74158], [-121.96602, 37.74169], [-121.9661, 37.74178], [-121.96633, 37.74194], [-121.96647, 37.74202], [-121.96658, 37.74207], [-121.96669, 37.7421], [-121.96674, 37.7421], [-121.96685, 37.7421], [-121.96699, 37.74208], [-121.96709, 37.74206], [-121.96717, 37.74209], [-121.9672, 37.74213], [-121.9673, 37.74223], [-121.96743, 37.74234], [-121.96776, 37.7426], [-121.96792, 37.74273], [-121.96807, 37.74283], [-121.96837, 37.74302], [-121.96853, 37.74314], [-121.96867, 37.74325], [-121.96882, 37.74335], [-121.96901, 37.74346], [-121.96916, 37.74356], [-121.96929, 37.74364], [-121.96955, 37.74382], [-121.96971, 37.74389], [-121.97, 37.74401], [-121.9703, 37.74412], [-121.97082, 37.74433], [-121.97118, 37.74448], [-121.97138, 37.74459], [-121.97149, 37.74467], [-121.97158, 37.74479], [-121.97164, 37.74489], [-121.97168, 37.74499], [-121.97182, 37.74523], [-121.97189, 37.74533], [-121.97196, 37.74541], [-121.97199, 37.74546], [-121.97211, 37.74547], [-121.97216, 37.74548], [-121.97433, 37.74403], [-121.97459, 37.74385], [-121.97513, 37.74448], [-121.97954, 37.74968], [-121.98012, 37.75036], [-121.98358, 37.75444], [-121.98408, 37.75503], [-121.98456, 37.7556], [-121.98781, 37.75942], [-121.98807, 37.7595], [-121.98819, 37.75965], [-121.98812, 37.75979], [-121.98821, 37.75977], [-121.98827, 37.75978], [-121.98832, 37.75982], [-121.98852, 37.75987], [-121.98913, 37.76078], [-121.98919, 37.76087], [-121.9891, 37.7609], [-121.98898, 37.76093], [-121.98891, 37.76095], [-121.98885, 37.76095], [-121.98878, 37.76095], [-121.98868, 37.76094], [-121.9885, 37.7609], [-121.98848, 37.7609], [-121.98832, 37.76087], [-121.98817, 37.76085], [-121.988, 37.76083], [-121.98784, 37.76082], [-121.98772, 37.76082], [-121.9876, 37.76082], [-121.98747, 37.76083], [-121.98735, 37.76085], [-121.98724, 37.76087], [-121.98712, 37.76091], [-121.987, 37.76095], [-121.98678, 37.76103], [-121.9867, 37.76107], [-121.98666, 37.76108], [-121.98632, 37.76121], [-121.98621, 37.76126], [-121.98611, 37.76131], [-121.986, 37.76136], [-121.98591, 37.76143], [-121.98586, 37.76146], [-121.9857, 37.76162], [-121.98562, 37.76169], [-121.98553, 37.76175], [-121.98555, 37.76175], [-121.98539, 37.76187], [-121.98536, 37.76189], [-121.98542, 37.76195], [-121.98574, 37.76235], [-121.98586, 37.76248], [-121.98592, 37.76252], [-121.98603, 37.76252], [-121.98754, 37.76252], [-121.98774, 37.76251], [-121.99084, 37.7633], [-121.99106, 37.76362], [-121.99176, 37.76473], [-121.99183, 37.76485], [-121.99197, 37.76505], [-121.99164, 37.76526], [-121.99132, 37.76533], [-121.99061, 37.76549], [-121.9904, 37.76561], [-121.99119, 37.7665], [-121.99204, 37.76678], [-121.99211, 37.76717], [-121.99209, 37.76726], [-121.99226, 37.76819], [-121.99237, 37.7684], [-121.99248, 37.76862], [-121.99377, 37.76892], [-121.9943, 37.76871], [-121.99411, 37.76843], [-121.99264, 37.76609], [-121.99304, 37.76603], [-121.99661, 37.76551], [-121.9992, 37.76518], [-121.99889, 37.76486], [-121.99829, 37.76425], [-121.99741, 37.76336], [-121.99793, 37.76313], [-121.99944, 37.76218], [-122.0012, 37.76109], [-122.00301, 37.75996], [-122.00371, 37.75952], [-122.00794, 37.75689], [-122.01077, 37.75513], [-122.01087, 37.75494], [-122.01118, 37.75438], [-122.01128, 37.7542], [-122.01129, 37.75417], [-122.01137, 37.75403], [-122.01177, 37.74749]]]}}]}