{"type": "FeatureCollection", "features": [{"type": "Feature", "properties": {"NAME": "West Contra Costa", "GEOIDS": ["0668294", "0621796", "0657288", "0633308", "0660620", "0662700", "0658226", "0648718", "0604470", "0621061", "0677924", "0638086", "0617274", "0652162", "0622454", "0662490"]}, "geometry": {"type": "MultiPolygon", "coordinates": [[[[-122.19228100010243, 38.04211000020339], [-122.19210100017736, 38.04233800008032], [-122.19203599988008, 38.04241299998711], [-122.19195600041243, 38.042472000340815], [-122.19189500031305, 38.04249599990755], [-122.19166799963402, 38.042551000152486], [-122.1915739999227, 38.04256999999594], [-122.19148500023421, 38.04259800027759], [-122.19141099971606, 38.04263300026086], [-122.19133999957097, 38.042674999935684], [-122.19127599999686, 38.042721999981204], [-122.19117600043775, 38.0428179999955], [-122.1910960000718, 38.04292799996032], [-122.19103699962226, 38.0430450001403], [-122.19101400005604, 38.043110999651454], [-122.1909849997437, 38.043246999914295], [-122.19098200026899, 38.04339000027196], [-122.19096499965222, 38.043456999823974], [-122.19094399973584, 38.04349499974326], [-122.19091699997165, 38.043531999999495], [-122.19088400035967, 38.043565000250474], [-122.1908480003747, 38.04358999980897], [-122.19080700036682, 38.04361199972471], [-122.19076299998588, 38.04362700001721], [-122.19071600013021, 38.04363299999184], [-122.19053700003006, 38.04362199968419], [-122.1903780000214, 38.043605000105984], [-122.19021499981478, 38.043611000082414], [-122.19013600017206, 38.04362199968419], [-122.1900259996689, 38.04365400025294], [-122.1899210000869, 38.04369899968041], [-122.18968000006251, 38.04381899966923], [-122.18954799981799, 38.04389899978834], [-122.18943700038825, 38.043992999692804], [-122.18938600033461, 38.04405200018833], [-122.18934100012876, 38.04411600022842], [-122.1893069997936, 38.04418200018909], [-122.18928599987719, 38.044248000090306], [-122.18927599983145, 38.04431599990478], [-122.18927400018163, 38.044383999656155], [-122.1892869997021, 38.04447700001496], [-122.18931900038746, 38.04457000025563], [-122.18937600028887, 38.04466599996935], [-122.1894120002739, 38.044713999779034], [-122.18949699976439, 38.044802999799735], [-122.18958399980302, 38.044876999678976], [-122.18995100022413, 38.04513799967877], [-122.1901450003929, 38.04526599992684], [-122.19057300001506, 38.045536999652846], [-122.19077499968145, 38.04570899990358], [-122.19059200028165, 38.04566600023251], [-122.19079499977293, 38.04584000011136], [-122.19070699990937, 38.04603499986234], [-122.18870799956885, 38.045613999757464], [-122.18834299969588, 38.0455340000973], [-122.18827499992382, 38.04553200015777], [-122.18806400003662, 38.045541000239076], [-122.18765800015578, 38.04560400006999], [-122.18732400024494, 38.045661999653056], [-122.1871529996424, 38.04568699991047], [-122.1869850003112, 38.04568899984582], [-122.18676199983015, 38.04570500003392], [-122.18662600028601, 38.0457039997128], [-122.18664899985222, 38.04584000011136], [-122.18549499978373, 38.04617300027562], [-122.1848090004187, 38.046633000010395], [-122.18584600031133, 38.04643799972988], [-122.18609400000845, 38.04706999980498], [-122.18545999962365, 38.047278000176696], [-122.18552200044626, 38.047278000176696], [-122.18580500030343, 38.04726299992481], [-122.18586300002978, 38.047271000201], [-122.18589700036495, 38.04730200029039], [-122.18589800018987, 38.04735900035205], [-122.18588099957311, 38.047413999773724], [-122.18582799986967, 38.04747500022869], [-122.18576000009762, 38.04753599992544], [-122.18563600024905, 38.04763300028954], [-122.18552499992096, 38.04770599984428], [-122.18546700019465, 38.047765000177414], [-122.18541899961575, 38.0478149999549], [-122.18558799967015, 38.047995000002956], [-122.18586399985467, 38.048288000164334], [-122.18591900010625, 38.04834599974334], [-122.18486200012215, 38.048886999872565], [-122.18442299973101, 38.048445000309066], [-122.18412800017823, 38.04815899996008], [-122.18398500006309, 38.04801800029947], [-122.183949999903, 38.047984000350716], [-122.1836820001144, 38.04771999971182], [-122.1832040002635, 38.047287000043426], [-122.18293899994964, 38.0470670003123], [-122.1825980003661, 38.04682299965723], [-122.18253800009164, 38.04678100023942], [-122.18208100015715, 38.04649799998033], [-122.18155999975023, 38.04620299980813], [-122.18112999957994, 38.045963999984146], [-122.18070100013286, 38.04572800034248], [-122.18047199980398, 38.04559199973581], [-122.18022999995466, 38.04543400022236], [-122.17997499968654, 38.045254000244725], [-122.17993700005171, 38.04522499994363], [-122.17969699985217, 38.0450410002537], [-122.17952399959982, 38.044883000258636], [-122.17937800000996, 38.04474799983148], [-122.1791689997726, 38.04452100001421], [-122.17896499955806, 38.04428299999228], [-122.17886800037203, 38.04415700012525], [-122.1805420001242, 38.04316200013333], [-122.18050199994123, 38.043152000111036], [-122.18038899996333, 38.04308999994208], [-122.180219000084, 38.04263300026086], [-122.18018300009899, 38.042460999858804], [-122.18019999981745, 38.04237700023954], [-122.18026500011476, 38.04232300023129], [-122.18034399975748, 38.042311999726834], [-122.18045699973538, 38.04230499998383], [-122.18059200035289, 38.042329000312776], [-122.18066599997277, 38.042340000107146], [-122.18076399988203, 38.0423790002653], [-122.18082699963122, 38.04241799969515], [-122.1809289997385, 38.04246299988226], [-122.1809799997921, 38.04247099997548], [-122.18104199971637, 38.04245800017724], [-122.18106799965567, 38.04243599991478], [-122.1811060001888, 38.04237700023954], [-122.18119800025033, 38.04216399966123], [-122.18124199973292, 38.04204300012627], [-122.18127900044118, 38.04195699999032], [-122.18129699998453, 38.04190100034101], [-122.18135100041121, 38.04187600020585], [-122.18142099983308, 38.04186899971368], [-122.1815489998796, 38.041866999673985], [-122.18163000007047, 38.04185599980856], [-122.1816970000176, 38.041876999871825], [-122.18178300023132, 38.04191600027654], [-122.18187000026997, 38.04197300028648], [-122.18195300011065, 38.04204199975512], [-122.18202799955539, 38.042077999667384], [-122.1821919995869, 38.04211000020339], [-122.1822889996713, 38.042102000070685], [-122.18236300018947, 38.04211000020339], [-122.1824369998093, 38.04212799979125], [-122.1826540004426, 38.04227199987247], [-122.18297300028483, 38.042611999706914], [-122.18309499958524, 38.04267800031584], [-122.18321599995906, 38.04271300026081], [-122.18341799962545, 38.04271300026081], [-122.18364000028161, 38.04270700021078], [-122.18381900038173, 38.042713999915364], [-122.1839509997279, 38.04272399999754], [-122.18421299966873, 38.0427730000266], [-122.18438400027128, 38.04279799985551], [-122.18453200040926, 38.04280199988398], [-122.18488899988634, 38.04278799978349], [-122.18555800043123, 38.042787000129955], [-122.18563100022618, 38.0427680003428], [-122.18574699967883, 38.04272600001382], [-122.18582700004475, 38.04266400019165], [-122.18588800014412, 38.04259499989421], [-122.18592499995404, 38.042518000151986], [-122.18595000006839, 38.04243999996302], [-122.18594300039572, 38.04229899990038], [-122.1859640003121, 38.04220400028208], [-122.18597400035786, 38.042110999866175], [-122.18600299977187, 38.04202200011061], [-122.18603600028213, 38.04195699999032], [-122.1862399995983, 38.04184000019428], [-122.1864010001551, 38.04176100032302], [-122.18655099994294, 38.04169399992663], [-122.18675199978439, 38.04158000013545], [-122.18680799986087, 38.04154899974578], [-122.18691199961796, 38.0414770000909], [-122.18700399967946, 38.04142900028161], [-122.1871240002284, 38.04142500017819], [-122.18721399974177, 38.04144200026258], [-122.18728900008483, 38.04149000006329], [-122.18732500006983, 38.04154499964892], [-122.18736600007773, 38.04162100003736], [-122.18734900035928, 38.0417440003127], [-122.18731199965104, 38.04181200033026], [-122.18724800007693, 38.04189599989018], [-122.18717600010693, 38.04197100024969], [-122.18706499977884, 38.04204300012627], [-122.186983999588, 38.042081000071946], [-122.18689499989954, 38.04211699996504], [-122.18681000040903, 38.04214499971241], [-122.1867529996093, 38.04218600000541], [-122.18672300037039, 38.04221399972642], [-122.18671999999736, 38.04226700015445], [-122.18673699971579, 38.04232799994548], [-122.18695099997602, 38.042503000339785], [-122.18703399981668, 38.042563000277596], [-122.18707800019763, 38.04261500008964], [-122.18713400027413, 38.0427059998487], [-122.18715500019053, 38.04277700005638], [-122.18714299959663, 38.04293699965429], [-122.18712000003042, 38.04311200000806], [-122.18711800038061, 38.043208000218456], [-122.1871240002284, 38.0432840002958], [-122.18710599978671, 38.04334299994775], [-122.18707200034984, 38.04339600026601], [-122.18702299994605, 38.04345800017585], [-122.18694599995317, 38.043496000094606], [-122.1868849998538, 38.04353099964864], [-122.18679600016532, 38.043575000216364], [-122.18676600002809, 38.04360900009031], [-122.1867440002868, 38.04367099981978], [-122.18673000004308, 38.0437359998335], [-122.18672300037039, 38.04409599973557], [-122.18670499992874, 38.04415399980575], [-122.1866670002939, 38.04420399992695], [-122.18662100026313, 38.044248000090306], [-122.18647800014801, 38.044292999860176], [-122.18632699963695, 38.04430999998612], [-122.18630400007073, 38.04432300016301], [-122.18628599962908, 38.044360000000836], [-122.18627899995636, 38.04440600004079], [-122.18631800031444, 38.04443899989785], [-122.1863650001701, 38.04445400002087], [-122.18652199963061, 38.044488999824424], [-122.18660000034676, 38.04450000000177], [-122.18668099963928, 38.04450500027476], [-122.1869340002576, 38.04450100033939], [-122.18698000028833, 38.044490999792494], [-122.18705700028123, 38.04445999992773], [-122.18711500000755, 38.04441300029036], [-122.18714099994682, 38.0443659999154], [-122.18721499956666, 38.04420500026861], [-122.18723600038138, 38.04411600022842], [-122.18726599962031, 38.04406000010798], [-122.18731199965104, 38.0440159998317], [-122.18739600021495, 38.043980999802045], [-122.18747400003276, 38.04396200032471], [-122.18755799969836, 38.04391799998949], [-122.18765300013291, 38.04382399998873], [-122.18771699970699, 38.04373999981073], [-122.18782800003508, 38.04364000031538], [-122.18790099983003, 38.04361500006642], [-122.18798700004375, 38.04362599966764], [-122.18805999983867, 38.04364099995727], [-122.1880959998237, 38.04364899992177], [-122.1881870000603, 38.04368699974146], [-122.18824099958866, 38.04370499964914], [-122.18835299974164, 38.043711000324855], [-122.18831099990885, 38.04366899982931], [-122.1882950000153, 38.04364699993075], [-122.18828199959654, 38.04358700017372], [-122.18828599979449, 38.04355700027674], [-122.18830099986312, 38.04352400002216], [-122.18832500015253, 38.04349299974803], [-122.18835399956654, 38.04346499980863], [-122.18843899995537, 38.04342499987665], [-122.18854500026055, 38.043404999902464], [-122.18864900001763, 38.043378999927796], [-122.18874699992693, 38.04333699994935], [-122.18884200036149, 38.04328899994442], [-122.18893000022503, 38.04323499990127], [-122.18900800004285, 38.04317200015432], [-122.18914799978494, 38.04303100008628], [-122.18925200044032, 38.04290500018718], [-122.18931000016663, 38.04284699983506], [-122.18936899971787, 38.042807000272944], [-122.18961200029042, 38.04268200035081], [-122.18972899956798, 38.04263100024203], [-122.18984300026912, 38.042574999693315], [-122.19001800017129, 38.04247399965651], [-122.19009699981399, 38.04241599967045], [-122.19016200011133, 38.04235400029328], [-122.19027699973907, 38.042217999786786], [-122.19035799992992, 38.04210699979997], [-122.19040800015861, 38.04206000006718], [-122.19049500019727, 38.04201500033989], [-122.19058800008371, 38.0419869998353], [-122.19068599999298, 38.04196700017582], [-122.19078100042753, 38.04194299972828], [-122.19090199990305, 38.041887999734094], [-122.19101599970584, 38.04182300020229], [-122.19113399970664, 38.04176400003313], [-122.19133899974605, 38.041670999765834], [-122.19154399978545, 38.04156399975341], [-122.19175499967265, 38.04143499972891], [-122.1919460003667, 38.04130699985841], [-122.19207699988795, 38.04118400026392], [-122.19228100010243, 38.041099999887244], [-122.19229299979801, 38.04110400000841], [-122.1923840000346, 38.041106000068936], [-122.1924400001111, 38.04111999978351], [-122.19252700014971, 38.0411320001432], [-122.19257900002827, 38.04115099964736], [-122.19261900021122, 38.041173999971484], [-122.19265400037132, 38.041208999927896], [-122.19267600011264, 38.04124500024969], [-122.19268500033346, 38.04126799983679], [-122.19269100018126, 38.04128299990199], [-122.19269799985396, 38.0413190001874], [-122.19269600020412, 38.0413950001029], [-122.19265400037132, 38.04153100001554], [-122.19257200035555, 38.041661000247345], [-122.1924839995937, 38.041789000206535], [-122.19238599968442, 38.041950999878296], [-122.19228100010243, 38.04211000020339]]], [[[-122.23951400002483, 38.053643000190064], [-122.23951999987261, 38.05354100035299], [-122.23950399997908, 38.05343299978808], [-122.2394899997354, 38.05338099987843], [-122.23945999959815, 38.05330899983373], [-122.2394200003135, 38.05323900015462], [-122.23936599988684, 38.053178999770104], [-122.23931099963522, 38.05314099992554], [-122.23918099993891, 38.05308199968101], [-122.23908300002961, 38.053046999741305], [-122.23897900027252, 38.05302000014015], [-122.23887399979222, 38.05299899973612], [-122.23874999994369, 38.05298500017075], [-122.23840799963692, 38.05297900025521], [-122.23802100002264, 38.052972000117265], [-122.23787100023478, 38.05296399975671], [-122.23793099961094, 38.05322799987558], [-122.23731800004084, 38.05359000021618], [-122.23698199958184, 38.05322799987558], [-122.23619699958432, 38.052418000315946], [-122.23610100022316, 38.052434999970004], [-122.23600599978859, 38.052461000265474], [-122.23590899970422, 38.05248200011649], [-122.23575200024368, 38.05250199973324], [-122.23567400042589, 38.05250400018975], [-122.2355909996869, 38.05292100010268], [-122.23627799977517, 38.052915000181834], [-122.23627699995025, 38.052951999921596], [-122.23625299966082, 38.05507699970406], [-122.2361050004211, 38.05506299982884], [-122.23593999966636, 38.05506100014958], [-122.23577499980992, 38.05506900028096], [-122.23561099977837, 38.05508400034805], [-122.23542599983047, 38.05511600015077], [-122.23517200028556, 38.055172999786876], [-122.23501400010181, 38.05552799980984], [-122.23499499983522, 38.0555720002407], [-122.23481800028324, 38.05596999975313], [-122.23459999982502, 38.05645999974536], [-122.23454000044889, 38.056594999794754], [-122.23438300009005, 38.05695100016111], [-122.23433299986134, 38.05708399968082], [-122.23421499986057, 38.05707800010124], [-122.23378399986532, 38.05696900034424], [-122.23370100002467, 38.056963000047936], [-122.23359700026758, 38.05695200032859], [-122.23336100026603, 38.056897000292444], [-122.23314500035596, 38.056875000124975], [-122.2325340004357, 38.05685900025621], [-122.2322969997109, 38.05683199993926], [-122.23156799978985, 38.05680400015016], [-122.23067099963932, 38.056705999743095], [-122.23038600013228, 38.05671099988975], [-122.23006700029005, 38.056661999994], [-122.2296709995566, 38.0566020002935], [-122.22938600004959, 38.05659099981255], [-122.22929599963787, 38.05665100022942], [-122.22916400029173, 38.05663500031167], [-122.22915699972073, 38.05677199967079], [-122.22894099981066, 38.05670100030344], [-122.22894099981066, 38.05661300006545], [-122.2287540002129, 38.0566020002935], [-122.2287609998856, 38.056656999844], [-122.2285729995646, 38.05664099992757], [-122.2285729995646, 38.0566079999121], [-122.22843399964746, 38.0565970001394], [-122.22844799989115, 38.05668999983738], [-122.22796900021535, 38.056679000077004], [-122.22798900030682, 38.05655799977453], [-122.22787100030605, 38.056553000324776], [-122.22788499965145, 38.05660299975841], [-122.22783000029818, 38.05664099992757], [-122.22771099957417, 38.056651999693656], [-122.2277039999015, 38.056541999836455], [-122.22752399997643, 38.056525999894944], [-122.22737099981555, 38.05658100020985], [-122.22714900005771, 38.0565970001394], [-122.22698900022412, 38.056525999894944], [-122.22693999982033, 38.056651999693656], [-122.22687799989606, 38.05698699981565], [-122.22668999957507, 38.05698199968785], [-122.22668299990238, 38.056673999928165], [-122.22680799957587, 38.05662500000765], [-122.22680799957587, 38.0565859996577], [-122.22613399990637, 38.05652099973565], [-122.22611200016509, 38.05661800021845], [-122.22608600022582, 38.0567349997401], [-122.22597400007281, 38.0567349997401], [-122.22595300015641, 38.05651500010992], [-122.22587699998843, 38.056476999875336], [-122.22586299974472, 38.05654300000954], [-122.22562000007046, 38.05662500000765], [-122.22557099966667, 38.05647100024599], [-122.22547500030554, 38.05646499990881], [-122.2253820004191, 38.05645999974536], [-122.22533499966514, 38.05617499976646], [-122.22473700016364, 38.05611700002453], [-122.2243830001613, 38.05608200012142], [-122.22432700008483, 38.056130999698134], [-122.22422400015266, 38.057707999954424], [-122.22029800034, 38.057566000137605], [-122.22028400009629, 38.05767599987033], [-122.21467699996043, 38.05740800029652], [-122.21462799955664, 38.057232000000305], [-122.21456499980745, 38.057320000201294], [-122.21443299956297, 38.05730899982833], [-122.2143780002097, 38.057172000059765], [-122.21418999988872, 38.05707299997967], [-122.21414200020816, 38.05717700017458], [-122.21403000005517, 38.05714999997496], [-122.21406000019239, 38.05707400014543], [-122.21409199997944, 38.056990000316546], [-122.21404400029886, 38.05690299988686], [-122.21390500038169, 38.056885999855886], [-122.21387000022159, 38.056742999688446], [-122.2137659995662, 38.05680400015016], [-122.21370399964191, 38.05663400013986], [-122.21369000029654, 38.05652899970739], [-122.21334899981468, 38.05644700030908], [-122.21319599965379, 38.05643000017212], [-122.21265400022881, 38.05626599964707], [-122.2121889998984, 38.05623800034877], [-122.21187599990397, 38.0561290000481], [-122.21075699999554, 38.05581000034435], [-122.21072000018565, 38.05587200035131], [-122.21061100040569, 38.05589800013323], [-122.21040299999322, 38.05585399989832], [-122.21044499982602, 38.055794000242805], [-122.20997899967072, 38.055651000063705], [-122.20823499959833, 38.055256000095945], [-122.207956999764, 38.055172999786876], [-122.20758900041628, 38.05510699983188], [-122.20728300009452, 38.05498100020268], [-122.20653999992979, 38.05486599968371], [-122.20624200000395, 38.05485800023756], [-122.20594099970506, 38.05483600016448], [-122.20593900005524, 38.05456599969369], [-122.20593400003234, 38.05411399982005], [-122.20590200024532, 38.05314900026673], [-122.20589499967429, 38.04928900003905], [-122.20595199957572, 38.04922099989151], [-122.20594699955282, 38.04900899969186], [-122.20591300011597, 38.04897700004883], [-122.20590600044326, 38.048870000101914], [-122.20594699955282, 38.04879499973518], [-122.20597400021535, 38.048514000045365], [-122.20596099979656, 38.04840099983838], [-122.2059630003447, 38.04834599974334], [-122.20590700026818, 38.048249000323956], [-122.20588399980363, 38.04822999983189], [-122.2060140003983, 38.047833999847256], [-122.20614300026973, 38.047437999842835], [-122.20614200044481, 38.04735699975489], [-122.20611399995741, 38.04718800003399], [-122.2061209996301, 38.046860999951846], [-122.20610899993454, 38.04674999992942], [-122.20612499982808, 38.046180999963525], [-122.20622299973736, 38.046184999807124], [-122.20637800044638, 38.046164000272], [-122.20667100034932, 38.04610500006348], [-122.20680400041873, 38.046094000127276], [-122.20706600035953, 38.046087000038376], [-122.20739400042261, 38.046132999700745], [-122.20759699991389, 38.04615599987479], [-122.20779899958025, 38.04616600019427], [-122.20808700035866, 38.04616800011653], [-122.20832699965983, 38.046126000323014], [-122.20850300028525, 38.04606599976764], [-122.20860399966928, 38.04606799969264], [-122.20906599962666, 38.04611200015066], [-122.20950300036795, 38.04618899965055], [-122.20984700032456, 38.04618699972886], [-122.21011000009028, 38.046215000042224], [-122.21082499976765, 38.0460610003087], [-122.2109009999356, 38.046054000216635], [-122.21139899987799, 38.0460819998734], [-122.21154799984089, 38.046070000325024], [-122.21182999987322, 38.046034000253115], [-122.21222400005848, 38.045963999984146], [-122.21233200001352, 38.045940000139225], [-122.21239800013579, 38.045936999892795], [-122.212420999702, 38.045936000282246], [-122.21250299971774, 38.04599899977327], [-122.21252100015943, 38.04606199991754], [-122.21254700009867, 38.04613200009287], [-122.21254100025091, 38.04623800019052], [-122.21259700032739, 38.046387000115], [-122.21261700041889, 38.046419999786636], [-122.21262999993937, 38.04646400003312], [-122.21266500009946, 38.046531999911814], [-122.21294100028399, 38.046857000145174], [-122.2132230003163, 38.04713000024494], [-122.21329600011123, 38.04717999974868], [-122.21337599957886, 38.04722100005197], [-122.21346699981545, 38.04723100022603], [-122.2135759995954, 38.04720899998283], [-122.21362800037225, 38.04720200000059], [-122.21364500009068, 38.04713000024494], [-122.21365799961117, 38.04703499982041], [-122.21365900033442, 38.04690300003116], [-122.21364900028864, 38.04679599988267], [-122.21363400022004, 38.04645899989385], [-122.2136509999385, 38.04640199983897], [-122.21366400035726, 38.04631799978883], [-122.21371600023578, 38.046126999930976], [-122.21379400005361, 38.045945999924314], [-122.21386799967345, 38.04582599988432], [-122.21397800017662, 38.04569099978111], [-122.21412200011666, 38.04554799967273], [-122.21423000007171, 38.04545300002518], [-122.21438400005749, 38.04532899999439], [-122.21461099983821, 38.045163999736225], [-122.2147799998926, 38.045066000015694], [-122.21488500037289, 38.04498199984765], [-122.21497400006137, 38.04485900005937], [-122.21503400033582, 38.044760000303995], [-122.21505799972697, 38.04467500015716], [-122.21510999960549, 38.04460199970254], [-122.21516800023012, 38.04455700012259], [-122.2152440003981, 38.04453200018674], [-122.2153420003074, 38.04454000005394], [-122.21545299973717, 38.044578000118634], [-122.21650200022367, 38.045168999963884], [-122.2166879999965, 38.04526999982048], [-122.21695400013529, 38.04539000006432], [-122.21759199981975, 38.0457010001641], [-122.21801899961699, 38.045963999984146], [-122.21821600015879, 38.046069000008835], [-122.21841700000029, 38.046148000184154], [-122.21858699987956, 38.04620900027913], [-122.21871199955304, 38.04627299984866], [-122.21881399966031, 38.04631300034709], [-122.21888900000337, 38.04637899974216], [-122.21907399995128, 38.04652800008713], [-122.21914500009642, 38.046615000115104], [-122.21937000022733, 38.04696800000538], [-122.21945499971781, 38.04718400024513], [-122.21948099965707, 38.04736600031928], [-122.21966200030538, 38.0474399997303], [-122.21984200023041, 38.047513999773955], [-122.22031000003555, 38.04770700013811], [-122.22035600006632, 38.04772600005848], [-122.22077799984069, 38.047899999993454], [-122.22059899974057, 38.04759200021697], [-122.22054699986202, 38.04751500007039], [-122.2214180000733, 38.04751800025216], [-122.22133000020976, 38.047666000106986], [-122.22132400036197, 38.04773299999067], [-122.22133299968449, 38.04781800012443], [-122.22135100012613, 38.04790300015944], [-122.22142300009617, 38.04804200017057], [-122.22147199960163, 38.04815599980459], [-122.22146599975387, 38.0482349998502], [-122.22147599979961, 38.048345000165675], [-122.22149300041634, 38.04841700014121], [-122.22151799963241, 38.04848400004498], [-122.22157299988402, 38.048550000312595], [-122.22166699959531, 38.04863399992404], [-122.22195000035086, 38.04855700016601], [-122.22204800026016, 38.0484940000465], [-122.22213100010082, 38.04842599986787], [-122.22222700036029, 38.04822999983189], [-122.22225499994939, 38.04812699994556], [-122.22225999997225, 38.04802300033221], [-122.22215100019231, 38.04793399998122], [-122.22210299961343, 38.04785500031823], [-122.22210900035952, 38.04780699973811], [-122.22213000027592, 38.04772700035203], [-122.22224400007872, 38.0476409998179], [-122.22237200012526, 38.047559999954615], [-122.22260599957866, 38.04754900023696], [-122.22272399957944, 38.04748200018488], [-122.22279999974742, 38.04743200018001], [-122.22291600009838, 38.04730799996386], [-122.22300099958888, 38.04719300012342], [-122.22311199991697, 38.047081000301986], [-122.22318300006205, 38.04705099971436], [-122.22328500016933, 38.047212999770316], [-122.22335399976627, 38.04726100003246], [-122.22354999958488, 38.04725799984011], [-122.22397700028043, 38.04721499966398], [-122.22416200022839, 38.047175999959435], [-122.22425199974177, 38.047146999712204], [-122.22431799986398, 38.047525000204246], [-122.22733400000564, 38.04753299974442], [-122.2294520001718, 38.04753999969507], [-122.22946899989024, 38.04825400034092], [-122.22948300013395, 38.048817999780404], [-122.2298170000448, 38.04896200014505], [-122.23039700000295, 38.04921299982836], [-122.23087499985382, 38.049418999937316], [-122.23129599980331, 38.04959999984645], [-122.23150599986558, 38.04969100012025], [-122.23173199982139, 38.04978799975117], [-122.23181100036241, 38.049822000276905], [-122.23186999991366, 38.049848000085746], [-122.23241700025983, 38.05008399988694], [-122.23296899973056, 38.050322000150885], [-122.23388799962241, 38.05071800011758], [-122.23395100026991, 38.05074600011274], [-122.23393200000334, 38.051015999819576], [-122.2339219999576, 38.05115899985826], [-122.2342950002265, 38.050977000017774], [-122.23462499993938, 38.05081799984897], [-122.23572499958121, 38.05151100023255], [-122.23615499975152, 38.05178200018535], [-122.23617099964503, 38.0517689999182], [-122.23626899955433, 38.05169199992077], [-122.23632999965369, 38.05164300020178], [-122.23643099993605, 38.05156499983071], [-122.23703299963549, 38.05195999991127], [-122.23734900000298, 38.05216799982936], [-122.2373859998129, 38.05211999995514], [-122.23774700038625, 38.051661999808], [-122.23779500006682, 38.05167600033374], [-122.2390629999381, 38.052046999850255], [-122.23952200042075, 38.05255400026736], [-122.24007300006657, 38.0532529996714], [-122.23989999981421, 38.05347299991108], [-122.23965399976692, 38.05378799976228], [-122.23960500026143, 38.05376900000052], [-122.23957599994911, 38.05374799981142], [-122.23952800026854, 38.053690000268254], [-122.23951400002483, 38.053643000190064]]], [[[-122.44148400042442, 37.967718000321625], [-122.44148400042442, 37.968023000258384], [-122.44113200007192, 37.96802500018882], [-122.44111799982821, 37.96770699994961], [-122.4342310001255, 37.96779799995159], [-122.4316459999791, 37.96783300024923], [-122.42184000021909, 37.96783500018477], [-122.42161099989026, 37.967834000217], [-122.4129359997342, 37.9678049997292], [-122.41084299968239, 37.96779699998332], [-122.40322700005864, 37.96777100009506], [-122.4031059996848, 37.96821099985066], [-122.40258199980313, 37.96931899967713], [-122.40185700008006, 37.97024100006486], [-122.4010510001661, 37.971286999688], [-122.409984000065, 37.97115300027072], [-122.41967699984707, 37.97100600017414], [-122.42931699992569, 37.97086100034456], [-122.43907599983001, 37.97071399966329], [-122.43979899990329, 37.970702999740176], [-122.4398149997968, 37.97103799987822], [-122.43987500007125, 37.97343200018741], [-122.4398840002921, 37.973950000241885], [-122.43179800031503, 37.98274200028121], [-122.41966900034946, 37.99568800003492], [-122.41741399991592, 37.99809500031058], [-122.40526200038411, 38.0111479999718], [-122.40075900008806, 38.01598299976291], [-122.3920039995661, 38.02571900028267], [-122.39129399991162, 38.02650899978554], [-122.39124600023105, 38.02649199977304], [-122.3897570004268, 38.028136000333234], [-122.39073999989277, 38.028565999777896], [-122.39137599992738, 38.028816000187184], [-122.39077599987775, 38.02958100017335], [-122.38475700001325, 38.037262999852416], [-122.38275100000008, 38.03982400030646], [-122.38139600009012, 38.04155200017202], [-122.37733399983503, 38.046737000183455], [-122.37665799961742, 38.04759999974982], [-122.37597999975002, 38.048465999897395], [-122.37447500005221, 38.04977400027915], [-122.36995900023568, 38.053697999842065], [-122.36845500036283, 38.05500600010706], [-122.36425400019056, 38.058655999900516], [-122.35165400004676, 38.06960800035154], [-122.3474539996994, 38.073260000074065], [-122.33363900028608, 38.070891999680626], [-122.31783499967969, 38.06818299999001], [-122.2921950000744, 38.06378799968044], [-122.27838099958771, 38.061420000339666], [-122.27790100008698, 38.06136400001788], [-122.27688099991279, 38.06124700011661], [-122.27629299955873, 38.04907599976123], [-122.27628000003827, 38.04904200030384], [-122.27628199968808, 38.048960999868385], [-122.27628500006111, 38.048769000259824], [-122.27626599979456, 38.048318999823024], [-122.27624599970308, 38.04786299982234], [-122.27622499978668, 38.04735800005348], [-122.27613299972518, 38.0452199997198], [-122.2760590001053, 38.043490000108754], [-122.27433799959918, 38.0439370001857], [-122.27256299956466, 38.04406400006745], [-122.27074700042057, 38.044190999728926], [-122.26961799956813, 38.04441399992171], [-122.26945600008474, 38.04447700001496], [-122.2689320002031, 38.04543000033773], [-122.26856899997992, 38.0470819998969], [-122.26836700031359, 38.04962399990633], [-122.26840699959824, 38.05137100019802], [-122.2691740000524, 38.05318199971974], [-122.27006199998213, 38.056104999999036], [-122.27010399981492, 38.05729699999822], [-122.26994200033151, 38.05831299986199], [-122.26954999979604, 38.05826200003243], [-122.24819800040167, 38.058320000196396], [-122.24822699981567, 38.05661800021845], [-122.24821900031809, 38.05620500015158], [-122.24820400024946, 38.056197000144415], [-122.24618599964239, 38.05569700008255], [-122.24679099971488, 38.05526000015107], [-122.24708199996803, 38.055040000331125], [-122.24721800041047, 38.054923999709736], [-122.24734700028189, 38.054794999882034], [-122.24758300028344, 38.05452099987208], [-122.24795900002707, 38.054045999910485], [-122.24810700016508, 38.053878000279155], [-122.24857199959719, 38.053282000329226], [-122.248797999553, 38.052983999949106], [-122.24895099971386, 38.052799999953564], [-122.24909600037715, 38.052644000179455], [-122.24923199992126, 38.05251700032641], [-122.24934499989917, 38.05243000023861], [-122.24967200013732, 38.052215999672114], [-122.24984000036682, 38.05211500020223], [-122.25021600011044, 38.051914999902216], [-122.25030399997398, 38.05187200033933], [-122.25036500007334, 38.05183200004875], [-122.25037099992115, 38.05181400001696], [-122.25035800040067, 38.05175599964869], [-122.25030999982177, 38.05165599978397], [-122.25029599957806, 38.051625000123515], [-122.25025899976816, 38.05153199964871], [-122.25023399965379, 38.051468999967355], [-122.25016699970665, 38.05134299973454], [-122.250127000422, 38.051281999673016], [-122.25009800010967, 38.05124400025843], [-122.25005600027689, 38.051189000177224], [-122.24951999980136, 38.050613999940765], [-122.24942699991492, 38.050510999871655], [-122.24934900009714, 38.05042299997256], [-122.24920400033218, 38.05026700008435], [-122.24907000043788, 38.050123000164504], [-122.24866899968157, 38.049692999946224], [-122.24853599961216, 38.04954999987331], [-122.24839000002231, 38.049394000246885], [-122.24828899973996, 38.04928599992988], [-122.24802000012644, 38.04898000017072], [-122.24796200040012, 38.04891999983214], [-122.24781400026211, 38.04876699970119], [-122.24772600039859, 38.04885599974691], [-122.2476369998118, 38.04894400011496], [-122.24741199968089, 38.04917199993331], [-122.24690299986788, 38.049670999735525], [-122.24671999956976, 38.04983800026917], [-122.24658900004852, 38.04994000031452], [-122.2464330004129, 38.0500470001123], [-122.24627400040424, 38.05014200016526], [-122.24604699972522, 38.050262999756306], [-122.24588100004387, 38.05033900029172], [-122.24569500027104, 38.050410000171404], [-122.245503999577, 38.05047400031284], [-122.24528699984204, 38.050534000085094], [-122.24504400016778, 38.05058599989512], [-122.24464099976164, 38.050648000082866], [-122.24377399974834, 38.05075200021136], [-122.24346499995185, 38.050797999772165], [-122.24328400020188, 38.05083400033094], [-122.24314699993454, 38.05087399975207], [-122.24289500003947, 38.0509840003465], [-122.24268400015227, 38.05066800020065], [-122.24258399969483, 38.05052600016544], [-122.242433999907, 38.05031199969171], [-122.24218100018702, 38.049932000329996], [-122.24199600023911, 38.04967699992227], [-122.24183899988026, 38.04943399974744], [-122.24121799991424, 38.04853400003883], [-122.24112500002784, 38.048372999653644], [-122.24105800008067, 38.048224000233965], [-122.24100600020212, 38.048064999744895], [-122.2409740004151, 38.04792200002895], [-122.24095000012564, 38.047762000005775], [-122.24090099972182, 38.04728599974386], [-122.24085200021634, 38.046908999737376], [-122.24082799992689, 38.04678599964925], [-122.24082499955387, 38.04676700019236], [-122.2407800002463, 38.04662200015352], [-122.24069900005546, 38.04641799987126], [-122.24066800009332, 38.04635300011618], [-122.24056900035912, 38.0461899999651], [-122.2405119995594, 38.04611200015066], [-122.24037099999241, 38.04594799985259], [-122.2401309997929, 38.045717000349576], [-122.2399709999593, 38.04559899987205], [-122.23988999976845, 38.0455540001974], [-122.23957199975115, 38.04540600031777], [-122.23933800029774, 38.045314999669685], [-122.23925100025909, 38.04528899966586], [-122.23915699964945, 38.04526700025401], [-122.23895199961004, 38.04523700033796], [-122.23823399955963, 38.04516800034284], [-122.23813800019849, 38.04515799988705], [-122.23804100011411, 38.04514600018722], [-122.23787500043275, 38.04512799992634], [-122.23765600014964, 38.04510599975866], [-122.23746199998088, 38.045084999914], [-122.23727000036027, 38.045066000015694], [-122.23676499984688, 38.04501599977569], [-122.23656400000544, 38.04499299995098], [-122.23586100002363, 38.04489899991542], [-122.23547699988409, 38.04483899976942], [-122.23525000010338, 38.044791000041734], [-122.23502699962228, 38.04472400029547], [-122.23491899966727, 38.044684000343814], [-122.23472299984869, 38.04459999973751], [-122.23450899958843, 38.044490999792494], [-122.234091000012, 38.04425499964758], [-122.23418600044657, 38.037879000107935], [-122.23417899987554, 38.03395999988523], [-122.23416999965472, 38.03389600016704], [-122.23416600035509, 38.03276300018851], [-122.2341610003322, 38.0326810003493], [-122.2341610003322, 38.026798999973664], [-122.23416200015711, 38.025910000296506], [-122.23416200015711, 38.02506899968744], [-122.23418700027146, 38.02338400018359], [-122.23418999974619, 38.021769000254366], [-122.23418999974619, 38.02163600027234], [-122.23423400012715, 38.02163500033009], [-122.23647899961662, 38.02164099998339], [-122.2366040001884, 38.021418999746174], [-122.2366610000898, 38.021467999875526], [-122.23684400038792, 38.021603999990575], [-122.23702299958973, 38.02171899967755], [-122.23728299988073, 38.021867000012165], [-122.23751600040757, 38.02198199999408], [-122.23767299986808, 38.02204800008678], [-122.23788799995323, 38.02211999973411], [-122.23809399981756, 38.0221959997569], [-122.23829200018429, 38.022244000140425], [-122.23850300007146, 38.02229500029227], [-122.23870999976069, 38.02233199993618], [-122.2388989999066, 38.02235100007122], [-122.23909700027332, 38.0223669996969], [-122.23931300018339, 38.02237900029846], [-122.23969099957684, 38.0223669996969], [-122.24004299992933, 38.022341000037976], [-122.24032599978656, 38.0222960002255], [-122.24079199994189, 38.0221959997569], [-122.24183100038265, 38.02192499999484], [-122.2427009998707, 38.02169900014495], [-122.24409299959058, 38.021333000162144], [-122.24431699989654, 38.021274999710904], [-122.24529699988777, 38.02101800009956], [-122.24592000040192, 38.020858000032256], [-122.2463899998569, 38.0207290003384], [-122.24687299973066, 38.02059499992774], [-122.24700400015021, 38.02055800011447], [-122.24734300008394, 38.02043900018661], [-122.24778599977472, 38.02023599982216], [-122.24799400018718, 38.020108999667265], [-122.24828000041747, 38.01992899972264], [-122.24853399996238, 38.019709999866095], [-122.24878900023047, 38.019450999776055], [-122.24896199958451, 38.019231999906474], [-122.2490729999126, 38.01901899995813], [-122.2506799997176, 38.01596900019799], [-122.25105100033672, 38.015265000025835], [-122.2511070004132, 38.015157000334135], [-122.2512749997444, 38.014835999701496], [-122.25133199964579, 38.01472900012191], [-122.25137199982876, 38.01465200010285], [-122.25141299983663, 38.01457600004154], [-122.25174900029563, 38.01451199966805], [-122.25214699978056, 38.01445100006729], [-122.25330800042006, 38.01424399992984], [-122.25367199956983, 38.01418700028169], [-122.2535069997134, 38.014028000209386], [-122.25248499988938, 38.013027999709635], [-122.25241700011729, 38.012960999925994], [-122.25237000026165, 38.012913999893286], [-122.2516210002491, 38.01217699988201], [-122.24806500033229, 38.008678999648524], [-122.23909999974803, 38.00721800017563], [-122.237709999678, 38.005370999843656], [-122.23721900030662, 38.00471699999291], [-122.23694700032009, 38.004341999960324], [-122.23650499955586, 38.00373300004541], [-122.23564799958831, 38.00415199983465], [-122.23489199990307, 38.004488999816566], [-122.23454499957343, 38.004003999827844], [-122.23441700042524, 38.00383399970002], [-122.23393200000334, 38.00319199979323], [-122.23330400036463, 38.002361000319446], [-122.23113900034276, 38.00212100022653], [-122.2307810001425, 38.00424400012833], [-122.23053500009519, 38.00555699970332], [-122.23045300007942, 38.00609999980235], [-122.23044800005655, 38.00623700027398], [-122.2303579996449, 38.006640999833216], [-122.23029200042095, 38.00701499999879], [-122.23023899981918, 38.00732299982685], [-122.22983600031135, 38.00972800021558], [-122.22979899960313, 38.01038099986255], [-122.22955400027904, 38.010309000006856], [-122.22936500013316, 38.010260000202265], [-122.22931400007955, 38.010247000349715], [-122.22934300039186, 38.01013999973356], [-122.22938600004959, 38.009788000103896], [-122.22931300025466, 38.00979899983035], [-122.22917199978933, 38.00982099998613], [-122.22904700011586, 38.00981600017652], [-122.22888700028231, 38.009776000271714], [-122.22882500035801, 38.00976100012483], [-122.22863000036435, 38.009640000149], [-122.22838699979178, 38.00935499984375], [-122.22832499986751, 38.00931599979776], [-122.22804000036047, 38.009300000154006], [-122.22787999962858, 38.0092719998843], [-122.2277690001988, 38.00922900005596], [-122.22766500044175, 38.00916800030559], [-122.22757000000716, 38.00904999969296], [-122.22735900011999, 38.00934000031853], [-122.22730800006636, 38.009404999654585], [-122.22672100043552, 38.00912800004722], [-122.22589500043009, 38.00875799980766], [-122.22549899969667, 38.00860299976453], [-122.22548799982602, 38.00859899999195], [-122.22509399964069, 38.008461999687164], [-122.22468199991205, 38.008335999780144], [-122.2245429999949, 38.00829699989988], [-122.2224380002475, 38.00789499981593], [-122.22214500034453, 38.007853000018066], [-122.2219469999778, 38.00783300024063], [-122.22164900005197, 38.00781899982696], [-122.22135100012613, 38.00782100008845], [-122.22058799986992, 38.00783900031603], [-122.22035199986834, 38.007853000018066], [-122.22011500004189, 38.007851999887755], [-122.21987800021542, 38.00783599992451], [-122.21964399986369, 38.00780399998748], [-122.21941500043314, 38.007758000319036], [-122.21903600031646, 38.0076579998323], [-122.21873800039064, 38.00758000003745], [-122.21844499958937, 38.007498999754354], [-122.21824600029603, 38.00745199975873], [-122.21794400017225, 38.00739499978392], [-122.21773999995773, 38.007364999928335], [-122.21619699972683, 38.00719800022497], [-122.21595700042563, 38.007184999829455], [-122.21531700019302, 38.00715200017631], [-122.21435100044555, 38.00710100010396], [-122.21422900024679, 38.00709499996821], [-122.2139560004353, 38.00709200025406], [-122.21368400044875, 38.007102999677215], [-122.2134130002871, 38.00712799964707], [-122.21305199971376, 38.00720300021313], [-122.21281400006238, 38.00726199990619], [-122.21223900012713, 38.00742800003552], [-122.21189500017051, 38.007508999689286], [-122.21154500036616, 38.00757199967266], [-122.21080700022428, 38.00766700032054], [-122.21071000013991, 38.00768200018804], [-122.21071000013991, 38.007604999844645], [-122.21070199974399, 38.007597000190366], [-122.21069400024638, 38.00758899982744], [-122.21068500002553, 38.00758200030546], [-122.21067599980472, 38.00757500007499], [-122.21066599975896, 38.00756699970967], [-122.21065700043646, 38.00756100031988], [-122.21064700039072, 38.00755500022178], [-122.21063700034497, 38.007549000123184], [-122.21062700029924, 38.00754300002409], [-122.21061600042859, 38.00753800005913], [-122.21060499965961, 38.00753300009381], [-122.21059399978895, 38.007528000128154], [-122.21058200009337, 38.00752400029695], [-122.21057100022274, 38.007519000330674], [-122.21055899962884, 38.00751499979115], [-122.21054699993329, 38.007512000094195], [-122.21053500023774, 38.007508999689286], [-122.21052299964384, 38.00750599999208], [-122.21051099994826, 38.00750300029469], [-122.21049800042779, 38.00750100002458], [-122.21048599983392, 38.007498999754354], [-122.21047300031344, 38.00749800032699], [-122.21045999989465, 38.00749700019185], [-122.21044800019907, 38.00749600005669], [-122.21043499978028, 38.00749499992156], [-122.21042200025981, 38.00749499992156], [-122.21040999966594, 38.00749499992156], [-122.21039700014546, 38.00749600005669], [-122.21038299990175, 38.00749800032699], [-122.21035600013757, 38.007499999889475], [-122.21030500008395, 38.0075070001271], [-122.21004599961786, 38.00754799998874], [-122.20965599963054, 38.007605999978324], [-122.20965700035374, 38.00746399997131], [-122.20961700017078, 38.001646000174794], [-122.20960899977486, 38.00061099973346], [-122.20961799999567, 37.9965929998933], [-122.20961799999567, 37.99616900006396], [-122.22231699987367, 37.99629999966516], [-122.22328000014646, 37.996309999711535], [-122.22379800018031, 37.99631499973426], [-122.22715099970753, 37.9963639996554], [-122.22958799971595, 37.99637499997996], [-122.23020899968196, 37.99637800013254], [-122.23035000014725, 37.99637899971142], [-122.23085599958725, 37.99638699988166], [-122.23105300012905, 37.996390000033735], [-122.23112199972603, 37.99618400015986], [-122.2315550002694, 37.99494999999793], [-122.2319100000966, 37.993951000119345], [-122.23155400044448, 37.99383600005232], [-122.23008599965831, 37.9933639997108], [-122.22890599965055, 37.99329900031377], [-122.228232999806, 37.99262800032937], [-122.22845700011196, 37.99218700005251], [-122.22861799977048, 37.99186800007477], [-122.22913699962922, 37.99084000010938], [-122.22937600000382, 37.99036699994457], [-122.22963899976955, 37.989847999986125], [-122.22987599959602, 37.989378999910315], [-122.2299640003579, 37.989204999741574], [-122.23007300013782, 37.98899000027332], [-122.2301979998113, 37.98874200002502], [-122.23057399955493, 37.987995000126865], [-122.23075000018036, 37.987651999797095], [-122.23163200026228, 37.98712099974835], [-122.23224200035766, 37.986756000299465], [-122.2338850001477, 37.98576299974755], [-122.23440400000645, 37.984847000164315], [-122.234535000426, 37.98471599993471], [-122.2345699996878, 37.98468000016034], [-122.23483800037472, 37.98439799978259], [-122.23497300009394, 37.984353999786585], [-122.23560499993059, 37.98411499999111], [-122.23599900011591, 37.98340600035211], [-122.23664400037137, 37.983232000178724], [-122.23718999999431, 37.98283099981941], [-122.23778300037125, 37.98265299992705], [-122.23832499979623, 37.98312000028833], [-122.23883699998233, 37.98345300018166], [-122.23943100018415, 37.98352299999252], [-122.24000799976925, 37.98355199993511], [-122.2412360003559, 37.982973999845804], [-122.24218200001194, 37.98312400003445], [-122.24310199972871, 37.983049000332464], [-122.24310699975156, 37.98295299989402], [-122.24315399960722, 37.982949999900434], [-122.24350199976178, 37.98207900034821], [-122.24353400044714, 37.98199999977097], [-122.2446230002183, 37.98187800023611], [-122.24535899981204, 37.981723000023784], [-122.24561200043034, 37.9815819999528], [-122.24620400008408, 37.9816119997345], [-122.24786699996557, 37.98199399970572], [-122.24781599991195, 37.98214200022777], [-122.24735700032763, 37.98349000031253], [-122.24780099984332, 37.98353400011862], [-122.24887000042132, 37.98331400011649], [-122.25002500031472, 37.983168000059955], [-122.25056900028787, 37.982211000101195], [-122.25075800043378, 37.98187200016088], [-122.25077500015217, 37.98184100000044], [-122.25079400041875, 37.981651000352834], [-122.2508139996119, 37.98152600018596], [-122.25082399965767, 37.98145500010396], [-122.25088999977991, 37.981451000266816], [-122.2517059997396, 37.981406999919855], [-122.25265999979155, 37.98151099992504], [-122.25298100018193, 37.981546999837995], [-122.25415299979376, 37.98167400023574], [-122.25416700003747, 37.98172900011116], [-122.25476600026217, 37.98158400022189], [-122.25484200043014, 37.98156399965308], [-122.25491799969981, 37.981543000005914], [-122.25499499969271, 37.981523000134], [-122.25507500005867, 37.981500000203766], [-122.25515500042462, 37.981475999776315], [-122.25523499989224, 37.98145400032173], [-122.25541200034256, 37.981413999815906], [-122.25557300000105, 37.98137600027106], [-122.25579200028415, 37.981324000191215], [-122.25585300038351, 37.98130999967326], [-122.25608799966184, 37.981261000317524], [-122.25620099963974, 37.98122600004956], [-122.25623900017291, 37.98113799976748], [-122.25628400037873, 37.98102499972525], [-122.25639800018155, 37.98074000008656], [-122.25655100034243, 37.980355999657846], [-122.25658200030456, 37.98029199986311], [-122.2568169995829, 37.979697999857486], [-122.25719499987467, 37.97874400012927], [-122.25728799976109, 37.97849199994754], [-122.25694399980452, 37.978376999723174], [-122.25670100013026, 37.97794000020127], [-122.25650100011372, 37.977945999889876], [-122.25598200025497, 37.97796299983101], [-122.25580800017767, 37.97790200027382], [-122.25614499956325, 37.97721000020306], [-122.25616399982982, 37.977184000108], [-122.2565909996271, 37.977330000032126], [-122.25683000000168, 37.97741200019197], [-122.25702499999537, 37.977478999883196], [-122.25724400027849, 37.97754300000675], [-122.25744699976974, 37.97758699983807], [-122.25761400017433, 37.97761799967116], [-122.25763699974057, 37.977621999717215], [-122.257837999582, 37.97711999967141], [-122.2579070000773, 37.97693600031817], [-122.25706600000323, 37.97693899984954], [-122.25608099998914, 37.97695400033685], [-122.25609199985979, 37.9763230000374], [-122.25609600005777, 37.97514300002159], [-122.25659999984791, 37.97492900029215], [-122.25761800037228, 37.9743690002118], [-122.2579020000544, 37.97420500008256], [-122.26028200016141, 37.97287900001857], [-122.26068899986721, 37.97294600030694], [-122.26012999982545, 37.9720889997333], [-122.2587160003643, 37.97099700014425], [-122.25738099964752, 37.96996800030649], [-122.25696999974376, 37.969639999845654], [-122.25633700008218, 37.96943299998372], [-122.25521300015092, 37.96939399995471], [-122.25342399987271, 37.969890000087915], [-122.25011200035335, 37.96729200009796], [-122.25006399977448, 37.96725400032368], [-122.24633899980327, 37.96603799999518], [-122.24699699957921, 37.964248999868104], [-122.24708899964072, 37.96400799971951], [-122.24708500034109, 37.96394799991807], [-122.24707500029535, 37.96379700017717], [-122.24344900005832, 37.95766200016766], [-122.24756900003975, 37.95481700031087], [-122.24842400035747, 37.955592000260275], [-122.24907899976039, 37.95618599983342], [-122.25185899990049, 37.96017399972526], [-122.25270400017247, 37.95999700020709], [-122.25294099999896, 37.9603090001274], [-122.25477999960756, 37.96334599985766], [-122.2550700000358, 37.96323400007602], [-122.25522700039463, 37.96318199989166], [-122.25547000006888, 37.96310500028655], [-122.25552500032046, 37.96309399993167], [-122.25631600016578, 37.96293400024931], [-122.25874099958033, 37.962450999695605], [-122.25901699976485, 37.962414000290536], [-122.25917300029879, 37.96235900010683], [-122.25929200012445, 37.962305999968066], [-122.25939500005661, 37.962234999708905], [-122.2594700003997, 37.96215599972883], [-122.2599149997403, 37.961521000209025], [-122.26003199991617, 37.96136500015605], [-122.26016800035859, 37.961219999700674], [-122.26032300016931, 37.96108699967603], [-122.26049499969844, 37.960967000208576], [-122.26068100036957, 37.960862000071074], [-122.26082100011166, 37.96079800027785], [-122.2609640002268, 37.96074399965644], [-122.26268300018482, 37.96009799987238], [-122.26278799976681, 37.960048999813665], [-122.2628780001785, 37.95998299987086], [-122.26291599981334, 37.959944999855374], [-122.26297600008779, 37.959859999786936], [-122.26299700000419, 37.95981499987751], [-122.26301799992059, 37.959739999731134], [-122.26303700018717, 37.9595590002617], [-122.26304999970765, 37.95950400006455], [-122.26307800019504, 37.959453000154014], [-122.26311800037801, 37.95940699991267], [-122.26317000025655, 37.95936900030744], [-122.26322999963269, 37.95934000001772], [-122.26326999981566, 37.95933200005787], [-122.26336699990003, 37.9593150000518], [-122.26354799965, 37.95934400035145], [-122.26388400010899, 37.9593740000143], [-122.26401499963023, 37.95938199996957], [-122.26557100027996, 37.95932700034815], [-122.26567699968683, 37.95932899980709], [-122.26578200016714, 37.959321999929806], [-122.26598600038164, 37.959283000196365], [-122.26617600035244, 37.95921199984763], [-122.2663429998587, 37.95911000029383], [-122.2664550000117, 37.95901100015399], [-122.26684599982394, 37.95857999994317], [-122.26709100004634, 37.95830800013034], [-122.26726699977343, 37.958129000164845], [-122.26742699960701, 37.957995000106905], [-122.26725900027584, 37.957997000310456], [-122.26721300024505, 37.95798300030126], [-122.26712600020645, 37.95796299967635], [-122.26699999980974, 37.95794700016411], [-122.26685500004479, 37.95794299975434], [-122.2667350003942, 37.95795300007017], [-122.2666159996702, 37.9579540001725], [-122.26645099981373, 37.9579359997449], [-122.26640599960788, 37.95794299975434], [-122.26634399968363, 37.95794199965186], [-122.2662859999573, 37.95792899973485], [-122.26609099996362, 37.95792899973485], [-122.26597799998572, 37.957955000274815], [-122.26594299982564, 37.95796900028935], [-122.26585400013717, 37.958030000119194], [-122.26565900014349, 37.957936999847455], [-122.26273300041355, 37.956549000198436], [-122.26210999989937, 37.95676200026229], [-122.26152200044363, 37.956962000328595], [-122.25969800000532, 37.955171999945385], [-122.26008399979469, 37.954874000056556], [-122.26031099957542, 37.95469900010033], [-122.26173900017861, 37.95491800001642], [-122.26207999976215, 37.95500999971847], [-122.26275199978181, 37.95540099982288], [-122.26309099971552, 37.95549899973478], [-122.26417100016417, 37.956055000156795], [-122.26670699990677, 37.95518400021034], [-122.26866900043734, 37.957087999942004], [-122.26939699963519, 37.956088000129796], [-122.26880400015656, 37.95572199992163], [-122.2689480000966, 37.95507200002238], [-122.26816700029701, 37.954456000186084], [-122.26771799986011, 37.95460400027329], [-122.26737100042882, 37.95420400021299], [-122.26566300034146, 37.95299500030998], [-122.26485200040462, 37.95280099968569], [-122.26414299967675, 37.952515000087445], [-122.26441800003634, 37.951637000056266], [-122.26479399978001, 37.95114600014955], [-122.2655040003328, 37.951488000176056], [-122.26641499982873, 37.95106600008759], [-122.26653100017968, 37.950541000086886], [-122.26472199980998, 37.95052999997522], [-122.26470699974136, 37.95019899990199], [-122.2644470003487, 37.9502329998798], [-122.2642590000277, 37.94971899982793], [-122.26417399963891, 37.94962200021277], [-122.26412900033138, 37.94957099981603], [-122.26696499964964, 37.94812799983663], [-122.26748199985857, 37.947859999823336], [-122.26694899975611, 37.94745699985047], [-122.26640700033113, 37.947047000162016], [-122.26567300038721, 37.94676700023494], [-122.26541700029416, 37.94649000001611], [-122.26518899979023, 37.946395999750635], [-122.26476899966563, 37.94622299995742], [-122.26450699972483, 37.946116000176346], [-122.26427999994412, 37.946022999697114], [-122.26089399990661, 37.94570499981993], [-122.2619219995784, 37.94505199971393], [-122.26408099975248, 37.94361600020193], [-122.26411900028562, 37.9435909998435], [-122.26446999991491, 37.94335800020273], [-122.26504499985016, 37.94297599968274], [-122.26537100026341, 37.94277900001268], [-122.26571600004492, 37.94256500018267], [-122.26605199960558, 37.94237199996037], [-122.2662990003761, 37.94226700016246], [-122.27106100023991, 37.939807000121746], [-122.2707509997202, 37.93947599991782], [-122.268271999879, 37.93690399972139], [-122.26609199978853, 37.934267999977614], [-122.26567000001415, 37.933715000350894], [-122.26512000019324, 37.93309300019304], [-122.26497799990302, 37.93293799972981], [-122.26486300027527, 37.93276000003803], [-122.26328200040953, 37.93090099967338], [-122.26266599956809, 37.9301600000855], [-122.26192900014944, 37.929273999667416], [-122.2605559997978, 37.92762099986536], [-122.25550199985591, 37.92153900031561], [-122.25487199966908, 37.920860999932685], [-122.25461099955317, 37.920578999651156], [-122.25470400033791, 37.920610000162206], [-122.2548230001636, 37.92060599984551], [-122.25508599992932, 37.920568999917855], [-122.25521099960278, 37.920560999988496], [-122.25539600044901, 37.9205479998357], [-122.25592000033068, 37.92052200023187], [-122.25627900035586, 37.92057300023655], [-122.2564299999686, 37.92059500021372], [-122.25672799989445, 37.92061800008623], [-122.25823400031543, 37.92069500028486], [-122.25862900032567, 37.920711000113535], [-122.25912300007006, 37.920750999670034], [-122.25917699959841, 37.92075499997879], [-122.25945600015599, 37.92078700031526], [-122.26011700030499, 37.920864000336955], [-122.26052300018586, 37.92081700013078], [-122.26054499992715, 37.92079500022002], [-122.26373400032116, 37.920930999885286], [-122.26346300015949, 37.921207000162816], [-122.26343200019735, 37.92124399976951], [-122.26318899962482, 37.921488000272156], [-122.26344399989294, 37.92148200022305], [-122.26417799983686, 37.921471000013625], [-122.27060599995525, 37.921384000296314], [-122.27067200007751, 37.923920000183436], [-122.2707630003141, 37.92387399966214], [-122.27664999993411, 37.92095600015589], [-122.27785699970605, 37.92035599981888], [-122.27813600026361, 37.92021899989167], [-122.27856300006088, 37.92000600019638], [-122.27936499977686, 37.91960900005611], [-122.2777260001848, 37.91777099972498], [-122.27646099978823, 37.91795200008493], [-122.27634299978746, 37.917968999739564], [-122.27605300025753, 37.91766700016239], [-122.27600399985371, 37.91748699975426], [-122.27606499995309, 37.91731200005718], [-122.27613899957294, 37.91710300024603], [-122.27595000032538, 37.91684899983882], [-122.2758740001574, 37.91674600034447], [-122.2756220002623, 37.91659000018887], [-122.27552699982776, 37.916178999857635], [-122.27515500028208, 37.916134000126725], [-122.27508300031208, 37.91598000002046], [-122.27480799995244, 37.915844999671314], [-122.27445300012519, 37.91583899987056], [-122.27443999970642, 37.915832000102355], [-122.27366399992971, 37.915507000209224], [-122.27340799983666, 37.91540200030758], [-122.27304499961348, 37.91541300000735], [-122.2729659999708, 37.91531999965917], [-122.27281299980991, 37.9152390003118], [-122.27259600007491, 37.91520399976121], [-122.27245499960962, 37.91510499999689], [-122.27222399963094, 37.915076999932026], [-122.27216500007971, 37.91491699986296], [-122.27213199956944, 37.91490200017081], [-122.2718610003061, 37.9146549998399], [-122.2717769997422, 37.914535999648415], [-122.27175699965072, 37.914507000090666], [-122.27136199964049, 37.91411100002529], [-122.27129600041658, 37.914057999810055], [-122.27127499960187, 37.91376499972295], [-122.27096099978252, 37.91368200008843], [-122.27084699997968, 37.913647000214475], [-122.27252499992983, 37.91191799988612], [-122.26943199979529, 37.909647999945], [-122.26639499973723, 37.90747400013195], [-122.26739700036806, 37.90695499973434], [-122.26802300035698, 37.906535000018444], [-122.26789600013537, 37.905772000000546], [-122.2676430004154, 37.90424600032917], [-122.2678059997237, 37.9041449997434], [-122.26797899997605, 37.90403999992794], [-122.2680860001062, 37.903984999998514], [-122.26817200031991, 37.903972999879606], [-122.26821699962741, 37.903975000135844], [-122.26828100009985, 37.90397899993934], [-122.26832399975756, 37.9039829997426], [-122.2684330004358, 37.904013000032144], [-122.26857800020076, 37.9040470001093], [-122.26883799959343, 37.90411099971158], [-122.26901400021885, 37.90414699999497], [-122.26905699987655, 37.90415599970866], [-122.26912100034897, 37.90416600025559], [-122.26916200035686, 37.90417600009231], [-122.26919400014391, 37.904182000135485], [-122.26923199977875, 37.904196999886835], [-122.26928399965728, 37.90422599996453], [-122.26938099974166, 37.90427099989128], [-122.26940500003109, 37.90428000029863], [-122.26944600003898, 37.90429600015377], [-122.26946899960522, 37.90430200018716], [-122.26952800005475, 37.90432699973026], [-122.26958400013125, 37.9043480001905], [-122.2696169997432, 37.90435800000249], [-122.26981799958463, 37.90441999979902], [-122.26986000031577, 37.90442800006622], [-122.26993399993562, 37.904430999723154], [-122.27001099992852, 37.90442499970029], [-122.27008500044668, 37.90440999999541], [-122.27015400004363, 37.90439599970107], [-122.27023699988433, 37.90436299990802], [-122.27034900003731, 37.904390999797826], [-122.27147899981637, 37.90491800006514], [-122.27154099974064, 37.9049409998779], [-122.27107999960818, 37.90582399970302], [-122.27136800038659, 37.90574500003144], [-122.27165100024379, 37.90566799977651], [-122.27214699963804, 37.90553300035006], [-122.27248200027212, 37.905369000351364], [-122.2735950003327, 37.90507199993776], [-122.27376799968677, 37.904902000345274], [-122.27446300017095, 37.904213999884874], [-122.2748110003255, 37.903872000336804], [-122.27574199991291, 37.90365199987033], [-122.27787000012484, 37.90314999969412], [-122.27781499987324, 37.9028739997113], [-122.27780700037565, 37.90283099992639], [-122.27779499978178, 37.902776999946575], [-122.27779200030703, 37.90275500031102], [-122.27777999971316, 37.902701000275485], [-122.27754700008465, 37.90224499989173], [-122.27728199977079, 37.90172100009672], [-122.27765400021478, 37.90147199984549], [-122.27877899997095, 37.90073899999175], [-122.27961800039517, 37.9007629998647], [-122.28002199972791, 37.90077800031293], [-122.28020699967581, 37.90074500031515], [-122.28057499992187, 37.90065999982317], [-122.28074499980117, 37.9006250001341], [-122.28076300024283, 37.9006250001341], [-122.28144399958501, 37.900475000164285], [-122.28201299967247, 37.90034799971925], [-122.28224500037439, 37.900295999691465], [-122.28257199971422, 37.90022599995052], [-122.28284200005096, 37.90017600019604], [-122.2831190000604, 37.90011499983997], [-122.28364299994205, 37.89999799988706], [-122.283795000278, 37.899658999736694], [-122.28415799960284, 37.8992999998658], [-122.28584999979668, 37.898814000113816], [-122.28589500000253, 37.898800999662164], [-122.28636600018073, 37.898676999764376], [-122.28669300041886, 37.89851300008175], [-122.28674799977216, 37.898486000284834], [-122.28697000042831, 37.89837700008508], [-122.28701999975871, 37.89835199993847], [-122.28715100017827, 37.89836799966468], [-122.28751400040143, 37.89841300033797], [-122.28763499987694, 37.89830999984314], [-122.28810000020734, 37.89789699975614], [-122.28816899980431, 37.897835000135196], [-122.28843699959292, 37.8975969997332], [-122.2890190000992, 37.897539000013005], [-122.28922699961335, 37.897518999952226], [-122.28956800009522, 37.89749000006713], [-122.2898839995644, 37.897553000194094], [-122.29010500039564, 37.89759600022727], [-122.29060199961478, 37.89769299973181], [-122.29073300003435, 37.89774699989751], [-122.29076300017158, 37.89775599968496], [-122.29146799980319, 37.898054000060554], [-122.29160500007052, 37.898099999716045], [-122.29164400042859, 37.89811300029151], [-122.29181500013281, 37.89817000006128], [-122.2919110003923, 37.89820200029821], [-122.29197900016436, 37.8982250000833], [-122.29234599968714, 37.89828599987923], [-122.29252599961221, 37.898315999655686], [-122.29265500038196, 37.89833799990936], [-122.29270999973522, 37.89834700033342], [-122.292827999736, 37.89836700016922], [-122.29329100041659, 37.89841799993853], [-122.29333099970124, 37.8985000002858], [-122.29342000028802, 37.89854500016956], [-122.29345000042525, 37.8985599996521], [-122.29367499965782, 37.89846500027843], [-122.29390800018466, 37.89836799966468], [-122.29447999974686, 37.89872500013831], [-122.29455400026502, 37.89873500000554], [-122.29488399997791, 37.89877900025576], [-122.29517600005596, 37.89881800019781], [-122.29587400001488, 37.89891100013979], [-122.2959800003201, 37.89892500005991], [-122.2962070001008, 37.89892500005991], [-122.29633799962207, 37.89892500005991], [-122.2964049995692, 37.89892500005991], [-122.29654100001164, 37.89892500005991], [-122.29676399959442, 37.89883200013562], [-122.29718399971898, 37.8988559999215], [-122.29736899966689, 37.89886599977092], [-122.29742499974338, 37.89886899965462], [-122.29784400004304, 37.89859400012192], [-122.29798899980801, 37.898562000055456], [-122.2986990003608, 37.89841799993853], [-122.29881200033873, 37.89834499992422], [-122.29884499995067, 37.89832399987758], [-122.29891299972273, 37.89824000033993], [-122.2996480003899, 37.898098000009], [-122.30016999972338, 37.897940999798486], [-122.30049000028885, 37.89799000015295], [-122.3010019995766, 37.89794799985111], [-122.30143699976979, 37.89816000011729], [-122.30157900005997, 37.8982290001993], [-122.30217999993452, 37.898524999673256], [-122.30245000027128, 37.89849099988039], [-122.30321099997938, 37.8984069998245], [-122.30336800033821, 37.89838999990275], [-122.30469899995873, 37.89824200004311], [-122.30540699996337, 37.89816300002977], [-122.30603799997515, 37.89809200017868], [-122.30675199982757, 37.898011000294936], [-122.30683800004131, 37.89800100032936], [-122.30877899975717, 37.89778299974971], [-122.30885900012312, 37.89777299975315], [-122.30907800040623, 37.89774800011021], [-122.30924999993536, 37.89772900031925], [-122.30926099980601, 37.89772800010629], [-122.30927800042275, 37.897725999680254], [-122.30947699971608, 37.89770299973919], [-122.3107169999983, 37.89756300022054], [-122.31135899988072, 37.89749000006713], [-122.31166799967721, 37.897455000288375], [-122.31177700035546, 37.897432999770786], [-122.31199200044061, 37.897390999859994], [-122.31209199999972, 37.89736799981424], [-122.31284199983718, 37.89734799970701], [-122.31298099975434, 37.89732499964788], [-122.31711300032967, 37.89640799987938], [-122.32941399982438, 37.893676999778684], [-122.33103900007107, 37.893317000232905], [-122.33339800026167, 37.892794000249246], [-122.33568100028431, 37.89228800001181], [-122.33826100040784, 37.89171499997667], [-122.34600000005527, 37.889996999662095], [-122.34858100000372, 37.88942499984576], [-122.35065999981185, 37.88898499979894], [-122.35689999960928, 37.88766399983857], [-122.35898099996555, 37.88722500025857], [-122.36128099970662, 37.886684999748255], [-122.36818099982813, 37.885064000304475], [-122.3704820002924, 37.88452499993701], [-122.37114199971816, 37.88436399968816], [-122.3731209999672, 37.88388400016003], [-122.37378200011617, 37.88372500002528], [-122.37398200013271, 37.88388400016003], [-122.37458200018236, 37.88436399968816], [-122.37478200019889, 37.88452499993701], [-122.38174000004672, 37.8899549997623], [-122.39938200043682, 37.903725000291345], [-122.4025929996738, 37.90627400000989], [-122.40950700003903, 37.911763000144894], [-122.41214200041415, 37.91385499992949], [-122.42004699974294, 37.920131000202154], [-122.42268299994296, 37.922223999986265], [-122.42460199991753, 37.92374400034405], [-122.42644399989919, 37.9252019998082], [-122.4302049998554, 37.92817899968807], [-122.43036200021425, 37.92830399997321], [-122.43221599989148, 37.92977099983961], [-122.43228299983862, 37.929824000068926], [-122.43261000007678, 37.9307400002546], [-122.43359199971782, 37.933489000079824], [-122.43378300041184, 37.9340240000799], [-122.43388299997095, 37.93422399969587], [-122.43396499998674, 37.9343870001247], [-122.4339830004284, 37.934424999898845], [-122.43399799959866, 37.93445999980401], [-122.43416900020122, 37.934873000118436], [-122.43477900029659, 37.936335999807625], [-122.43498299961276, 37.93682399973963], [-122.436182999712, 37.94094300000596], [-122.43978300000974, 37.953303000270665], [-122.4409839999339, 37.95742299986972], [-122.44108299966813, 37.958061999812315], [-122.4413830001421, 37.95998299987086], [-122.44148400042442, 37.960623000270814], [-122.44148400042442, 37.961797999704366], [-122.44148400042442, 37.96532499993916], [-122.44148400042442, 37.966500999901555], [-122.44148400042442, 37.966804999954704], [-122.44148400042442, 37.967718000321625]]]]}}]}