{"type": "FeatureCollection", "features": [{"type": "Feature", "properties": {"kind": "library", "name": "Rodeo Library - Contra Costa County Library"}, "geometry": {"type": "Point", "coordinates": [-122.26858, 38.03548]}}, {"type": "Feature", "properties": {"kind": "library", "name": "San Pablo Branch Contra Costa County Library"}, "geometry": {"type": "Point", "coordinates": [-122.3399, 37.95791]}}, {"type": "Feature", "properties": {"kind": "library", "name": "Albany Branch Alameda County Library"}, "geometry": {"type": "Point", "coordinates": [-122.29341, 37.88792]}}, {"type": "Feature", "properties": {"kind": "community_centre", "name": "Booker T Anderson Community Center"}, "geometry": {"type": "Point", "coordinates": [-122.32664, 37.91845]}}, {"type": "Feature", "properties": {"kind": "library", "name": "Contra Costa County Law Library"}, "geometry": {"type": "Point", "coordinates": [-122.33395, 37.9326]}}, {"type": "Feature", "properties": {"kind": "shelter/senior", "name": "Ashby Village"}, "geometry": {"type": "Point", "coordinates": [-122.27361, 37.88729]}}, {"type": "Feature", "properties": {"kind": "community_centre", "name": "Albany Community Center"}, "geometry": {"type": "Point", "coordinates": [-122.29297, 37.88802]}}, {"type": "Feature", "properties": {"kind": "community_centre", "name": "Center for Creative Growth"}, "geometry": {"type": "Point", "coordinates": [-122.29427, 37.8878]}}, {"type": "Feature", "properties": {"kind": "community_centre", "name": "Point Richmond Community Center"}, "geometry": {"type": "Point", "coordinates": [-122.38538, 37.92647]}}, {"type": "Feature", "properties": {"kind": "library", "name": "Richmond Public Library - Auditorium Branch"}, "geometry": {"type": "Point", "coordinates": [-122.34412, 37.93668]}}, {"type": "Feature", "properties": {"kind": "library", "name": "Reading Room"}, "geometry": {"type": "Point", "coordinates": [-122.33472, 37.91766]}}, {"type": "Feature", "properties": {"kind": "library", "name": "Berkeley Public Library North Branch"}, "geometry": {"type": "Point", "coordinates": [-122.27544, 37.88545]}}, {"type": "Feature", "properties": {"kind": "library", "name": "El Sobrante Library - Contra Costa County Library"}, "geometry": {"type": "Point", "coordinates": [-122.30969, 37.96742]}}, {"type": "Feature", "properties": {"kind": "library", "name": "Systemwide Library Facility - North (SLF-North)"}, "geometry": {"type": "Point", "coordinates": [-122.33532, 37.9175]}}, {"type": "Feature", "properties": {"kind": "shelter/senior", "name": "Raksha Care Home"}, "geometry": {"type": "Point", "coordinates": [-122.29641, 37.8901]}}, {"type": "Feature", "properties": {"kind": "community_centre", "name": "El Cerrito Community Center"}, "geometry": {"type": "Point", "coordinates": [-122.30277, 37.91466]}}, {"type": "Feature", "properties": {"kind": "library", "name": "Richmond Public Library - Westside Branch"}, "geometry": {"type": "Point", "coordinates": [-122.38533, 37.92651]}}, {"type": "Feature", "properties": {"kind": "library", "name": "Richmond Public Liibrary - Main Library"}, "geometry": {"type": "Point", "coordinates": [-122.34408, 37.93588]}}, {"type": "Feature", "properties": {"kind": "library", "name": "California Maritime Academy Library"}, "geometry": {"type": "Point", "coordinates": [-122.23081, 38.06837]}}, {"type": "Feature", "properties": {"kind": "community_centre", "name": "Nevin Community Center"}, "geometry": {"type": "Point", "coordinates": [-122.3641, 37.93655]}}, {"type": "Feature", "properties": {"kind": "library", "name": "Richmond Public Library - Bayview Branch"}, "geometry": {"type": "Point", "coordinates": [-122.32386, 37.91516]}}, {"type": "Feature", "properties": {"kind": "community_centre", "name": "Unnamed cooling site"}, "geometry": {"type": "Point", "coordinates": [-122.29929, 37.88376]}}, {"type": "Feature", "properties": {"kind": "shelter/senior", "name": "Albany Senior Center"}, "geometry": {"type": "Point", "coordinates": [-122.29408, 37.8912]}}, {"type": "Feature", "properties": {"kind": "community_centre", "name": "Unnamed cooling site"}, "geometry": {"type": "Point", "coordinates": [-122.31327, 37.91905]}}, {"type": "Feature", "properties": {"kind": "pool", "name": "Kid Swimming Pool"}, "geometry": {"type": "Point", "coordinates": [-122.21968, 38.0526]}}, {"type": "Feature", "properties": {"kind": "community_centre", "name": "Crockett Community Center"}, "geometry": {"type": "Point", "coordinates": [-122.21863, 38.0527]}}, {"type": "Feature", "properties": {"kind": "shelter/senior", "name": "Belmont Village Senior Living"}, "geometry": {"type": "Point", "coordinates": [-122.29759, 37.88386]}}, {"type": "Feature", "properties": {"kind": "library", "name": "Crockett Branch Contra Costa County Library"}, "geometry": {"type": "Point", "coordinates": [-122.22076, 38.05541]}}, {"type": "Feature", "properties": {"kind": "library", "name": "Pinole Library - Contra Costa County Library"}, "geometry": {"type": "Point", "coordinates": [-122.28494, 37.99243]}}, {"type": "Feature", "properties": {"kind": "community_centre", "name": "Hurcules Swim Center"}, "geometry": {"type": "Point", "coordinates": [-122.24839, 37.99958]}}, {"type": "Feature", "properties": {"kind": "shelter/senior", "name": "Granada Home 2"}, "geometry": {"type": "Point", "coordinates": [-122.28316, 37.98868]}}, {"type": "Feature", "properties": {"kind": "shelter/senior", "name": "Granada Care Homes"}, "geometry": {"type": "Point", "coordinates": [-122.28323, 37.9889]}}, {"type": "Feature", "properties": {"kind": "library", "name": "Wagner Ranch Elementary School Library"}, "geometry": {"type": "Point", "coordinates": [-122.20679, 37.89777]}}, {"type": "Feature", "properties": {"kind": "pool", "name": "Unnamed cooling site"}, "geometry": {"type": "Point", "coordinates": [-122.29198, 37.89546]}}, {"type": "Feature", "properties": {"kind": "library", "name": "Unnamed cooling site"}, "geometry": {"type": "Point", "coordinates": [-122.30138, 37.88683]}}, {"type": "Feature", "properties": {"kind": "community_centre", "name": "St. Joseph's Parish Hall"}, "geometry": {"type": "Point", "coordinates": [-122.28989, 38.00497]}}, {"type": "Feature", "properties": {"kind": "community_centre", "name": "Unnamed cooling site"}, "geometry": {"type": "Point", "coordinates": [-122.2913, 38.00654]}}, {"type": "Feature", "properties": {"kind": "library", "name": "Hercules Library - Contra Costa County Library"}, "geometry": {"type": "Point", "coordinates": [-122.26524, 38.0096]}}, {"type": "Feature", "properties": {"kind": "shelter/senior", "name": "The Lodge at Glen Cove"}, "geometry": {"type": "Point", "coordinates": [-122.2122, 38.06936]}}]}