{"type": "FeatureCollection", "properties": {"source": "TIGERweb Places_CouSub_ConCity_SubMCD layers 4 (Pittsburg city, GEOID 0657456) and 5 (Bay Point CDP, GEOID 0604415), union", "fetched": "2026-09-13"}, "features": [{"type": "Feature", "properties": {"NAME": "Pittsburg and Bay Point", "GEOIDS": "0657456,0604415"}, "geometry": {"type": "Polygon", "coordinates": [[[-121.92845999992792, 38.04705399991519], [-121.92809699970475, 38.0469830003177], [-121.92802700028285, 38.046969000309275], [-121.9258139996821, 38.046474000310525], [-121.92452800026749, 38.0462830001522], [-121.92442500033532, 38.0462679996964], [-121.9233259996201, 38.04612300008416], [-121.92212100039626, 38.045900999755546], [-121.92079400007542, 38.04572599970074], [-121.91890100004015, 38.04558200004539], [-121.91733000022012, 38.045429000012795], [-121.91554400031497, 38.04521599982342], [-121.91362199996738, 38.045124000024956], [-121.91257400020406, 38.04507599977664], [-121.91194300019231, 38.04504799973515], [-121.91160900028146, 38.04503000015763], [-121.91014300004343, 38.04495599972557], [-121.9085699996753, 38.04501999968299], [-121.90778499967774, 38.04501199986823], [-121.90680100038688, 38.04500200009854], [-121.90544599957862, 38.04520400013311], [-121.90466999980188, 38.04531999988703], [-121.90315400023349, 38.04533000032069], [-121.90117099978649, 38.04536099981709], [-121.89888199991609, 38.045574000292035], [-121.8962420004164, 38.04584900015486], [-121.89332699965878, 38.046184999807124], [-121.8918010000446, 38.046414000040386], [-121.89071200027344, 38.046531999911814], [-121.88957300027357, 38.046657000335536], [-121.88725799956556, 38.047113999660816], [-121.88669400039927, 38.04722400024583], [-121.8866740003078, 38.04722900033281], [-121.88517700010762, 38.047590999921574], [-121.88501999974879, 38.04762899981761], [-121.8844630002552, 38.047765000177414], [-121.88356299973158, 38.047984000350716], [-121.8827600001907, 38.04815599980459], [-121.88018400026509, 38.0487089997483], [-121.87823500015332, 38.0493180001452], [-121.87770799989862, 38.049514000097844], [-121.87607199978129, 38.05012499997867], [-121.87504800030746, 38.05055400023404], [-121.87474299981062, 38.05067600010479], [-121.87460600044159, 38.05075800030951], [-121.87458999964974, 38.05076800000035], [-121.87270800038341, 38.05184400006749], [-121.8711009996801, 38.05302700027347], [-121.87064799994356, 38.053439999881945], [-121.86958199973861, 38.05441400024801], [-121.8589299998817, 38.046728999848916], [-121.85328500011103, 38.04290799985038], [-121.85243499981615, 38.04154100025927], [-121.85111800043934, 38.039741999882466], [-121.8508969996081, 38.03771400004216], [-121.85014199974778, 38.036561999709136], [-121.84946399988036, 38.03562800023563], [-121.8493750001919, 38.035295000227784], [-121.84945700020765, 38.03500900016409], [-121.84947800012404, 38.034567000313224], [-121.85217399970024, 38.03225999988468], [-121.85098299982181, 38.03161799987251], [-121.84933699965875, 38.03073100028641], [-121.84758199971571, 38.02978599978372], [-121.84753400003514, 38.029759000095645], [-121.84615999985861, 38.029011999826494], [-121.84608399969063, 38.02897800025158], [-121.84302200041654, 38.02837500031966], [-121.84275000043, 38.02839400030292], [-121.8425119998803, 38.02841199972381], [-121.84229400032041, 38.028340999741495], [-121.84054900042312, 38.02854799968718], [-121.83826800005032, 38.02908100018486], [-121.83830499986026, 38.02744200033251], [-121.83830999988312, 38.02724600003094], [-121.83830400003534, 38.02703399989421], [-121.8382880001418, 38.02644900014011], [-121.8382730000732, 38.02588700013227], [-121.83826800005032, 38.025692999690236], [-121.83826600040051, 38.025613000204594], [-121.8382449995858, 38.024858000226075], [-121.83822899969228, 38.0242749998936], [-121.8423830000089, 38.020466999729116], [-121.8423830000089, 38.020435000352194], [-121.84238600038192, 38.01966299991499], [-121.84238899985665, 38.01904800002068], [-121.84240099955221, 38.01774000001077], [-121.8424189999939, 38.01588900000426], [-121.84243800026047, 38.01381600004831], [-121.84244499993316, 38.0131119997216], [-121.84289000017209, 38.01251100028859], [-121.8429770002107, 38.01241999982012], [-121.84377499972872, 38.0112920000877], [-121.84412500043143, 38.010797000317915], [-121.84473999965135, 38.010391000112115], [-121.84480699959849, 38.010231000201365], [-121.84490100020813, 38.010006999881114], [-121.84466299965845, 38.00994600007031], [-121.842602000292, 38.00946700002383], [-121.84244699958298, 38.009433999982235], [-121.84206499999158, 38.00935300033191], [-121.84118600028268, 38.0091720000471], [-121.84038799986632, 38.00900199986922], [-121.83871300028926, 38.00865300008824], [-121.8370339996159, 38.00830099968892], [-121.83535700038898, 38.00794700017275], [-121.8346250000949, 38.00779199983056], [-121.8332119995603, 38.00749499992156], [-121.83328199988048, 38.00742400019885], [-121.833337999957, 38.007368999768225], [-121.83351299985917, 38.007192000097156], [-121.83355999971485, 38.007146000044735], [-121.83380199956419, 38.00691800034348], [-121.83407199990091, 38.00669499995601], [-121.83426500024477, 38.006537000061314], [-121.83448000032995, 38.00635999979731], [-121.83499199961767, 38.005940999884686], [-121.83512200021234, 38.005826999664706], [-121.83533300009954, 38.00564499971608], [-121.83554099961368, 38.005463000023525], [-121.83582400036923, 38.0052140000934], [-121.83625299981628, 38.00486799978157], [-121.83645200000794, 38.0050800003382], [-121.8370770001719, 38.005245000287104], [-121.8378150003138, 38.005448999865074], [-121.83791599969783, 38.005469000292834], [-121.8379919998658, 38.00547999995947], [-121.8380689998587, 38.00548799984469], [-121.83811999991232, 38.005491999786976], [-121.83824999960864, 38.005495000274415], [-121.83835300043914, 38.0054910003323], [-121.83844299995252, 38.00548200028478], [-121.83853199964095, 38.005469999747795], [-121.83868200032713, 38.005438000193784], [-121.83875599994694, 38.005417999757626], [-121.83887399994774, 38.0053770001205], [-121.83903200013148, 38.00532200027779], [-121.83917799972137, 38.005258000318825], [-121.83932199966138, 38.005180000094164], [-121.83963399983092, 38.00506700027496], [-121.8398089997331, 38.0050179997981], [-121.8399910002063, 38.00498799967776], [-121.84017699997912, 38.004978000106824], [-121.84031599989632, 38.004983999707974], [-121.84060600032456, 38.00505199987246], [-121.84147900018561, 38.00529500006962], [-121.84409799976893, 38.006025000231354], [-121.84497200035327, 38.00626900018706], [-121.84695599972683, 38.006820999852025], [-121.85290799964416, 38.00847999975731], [-121.85489299974095, 38.009032999876915], [-121.85495399984033, 38.00905199992081], [-121.85513999961316, 38.009110000136175], [-121.85520200043577, 38.009130000273], [-121.85537999981268, 38.00918899983087], [-121.85555100041522, 38.0092449997152], [-121.85556399993573, 38.00921800024396], [-121.85566299966989, 38.008963999750584], [-121.85572700014231, 38.00880300014701], [-121.85584299959497, 38.00850999986441], [-121.85595999977083, 38.00820699998806], [-121.8560369997637, 38.00801099990796], [-121.85609100019039, 38.007864000034864], [-121.85613100037337, 38.007758000319036], [-121.85619699959729, 38.00758200030546], [-121.85632899984175, 38.00718300025844], [-121.8564359999719, 38.00686099995345], [-121.85651299996476, 38.0064819996731], [-121.85658699958464, 38.006059999993525], [-121.85663000014064, 38.005249999700666], [-121.85660500002626, 38.004789999849876], [-121.85656300019347, 38.004292999706806], [-121.85634200026054, 38.001775000184715], [-121.85632600036702, 38.00158400027038], [-121.85607000027399, 37.99848500006009], [-121.85604799963436, 37.998257999880906], [-121.85602900026612, 37.998067000009186], [-121.85603199974086, 37.99800000000301], [-121.8558869999759, 37.99800100026769], [-121.85483699966446, 37.998006000175096], [-121.85476800006751, 37.99800699973183], [-121.85301399994938, 37.99800000000301], [-121.85238499958743, 37.99800400035375], [-121.85168800035176, 37.99800000000301], [-121.85149199963485, 37.99799899973831], [-121.85089499995827, 37.99798700010042], [-121.85089400013335, 37.99785299988074], [-121.8505860001618, 37.997073999650624], [-121.84978699992054, 37.996537999833414], [-121.8478960004334, 37.995064999734296], [-121.84874099980706, 37.99433500019438], [-121.84876400027161, 37.99435199987837], [-121.84879500023375, 37.99432499987868], [-121.8487719997692, 37.994308999795514], [-121.84913099979441, 37.994000000203975], [-121.84994400027936, 37.99329699965613], [-121.85002600029513, 37.993283000006805], [-121.85016699986211, 37.99316100011777], [-121.85017799973278, 37.99309500020933], [-121.85051699966651, 37.99280299979436], [-121.8506229999717, 37.992707999711826], [-121.85073199975166, 37.992604000002046], [-121.85083600040706, 37.99249699983362], [-121.85093599996614, 37.99238800024263], [-121.85103100040071, 37.99227600016943], [-121.85112199973901, 37.992161000308215], [-121.85120700012783, 37.99204400028287], [-121.85131500008286, 37.9918879999588], [-121.85140499959623, 37.99181100002146], [-121.85141600036518, 37.991781000161865], [-121.85194100007175, 37.990441000294325], [-121.85201399986667, 37.990439999926544], [-121.85228900022629, 37.99043799989892], [-121.85239399980826, 37.99043799989892], [-121.85253100007563, 37.990437000239076], [-121.85266800034299, 37.99043599987124], [-121.85286900018441, 37.99043500021131], [-121.85306199962996, 37.99043399984345], [-121.8547759995651, 37.99042300004388], [-121.85489199991603, 37.99042300004388], [-121.85655700034572, 37.990412999902894], [-121.85747299986448, 37.990406999817594], [-121.85747399968942, 37.99052799967246], [-121.85752700029119, 37.99052799967246], [-121.85782000019415, 37.99052700001384], [-121.85782000019415, 37.990491000258764], [-121.85782100001904, 37.990404999789064], [-121.8588229997516, 37.99039899970317], [-121.85924500042428, 37.99046099985942], [-121.85967600041953, 37.99049899965523], [-121.86003600026963, 37.99051499986145], [-121.86037000018047, 37.990522999963275], [-121.86050599972458, 37.990524000329934], [-121.86059299976324, 37.990525999647225], [-121.86058799974035, 37.990387999898346], [-121.86058799974035, 37.99031600023407], [-121.86058899956527, 37.989986999708854], [-121.86056900037208, 37.98910599982758], [-121.86053199966388, 37.98640599971419], [-121.86049499985393, 37.98396699990824], [-121.86048200033345, 37.983156000120005], [-121.86444499995602, 37.98307300024545], [-121.8647870002628, 37.98306599979964], [-121.86533799990862, 37.983053000082506], [-121.86597999979105, 37.9830460003428], [-121.8675459995882, 37.98302999992376], [-121.86896999999341, 37.98300899998805], [-121.86969700026465, 37.98299900025257], [-121.86969899991446, 37.98310999985993], [-121.86974699959504, 37.98601699989019], [-121.86977500008244, 37.987731999649945], [-121.86981500026542, 37.990241000095715], [-121.86981500026542, 37.99042799975992], [-121.87004799989393, 37.99042799975992], [-121.87024299988761, 37.99042900012787], [-121.8786910002629, 37.99049300028495], [-121.87869299991272, 37.99053100006423], [-121.87917400013666, 37.99053900016427], [-121.88126499964035, 37.99058299999106], [-121.88541099956106, 37.99067700033713], [-121.8880409999133, 37.99073999991416], [-121.8892519998832, 37.99076200012457], [-121.89180600006749, 37.99081999993967], [-121.89181000026544, 37.99075699972336], [-121.8917729995572, 37.98955499971812], [-121.89113099967479, 37.98956499997607], [-121.89111899997923, 37.989116999824624], [-121.89111800015431, 37.98904399994217], [-121.89164500040899, 37.989035000000115], [-121.89163700001309, 37.98866500032552], [-121.8916300003404, 37.988418000081985], [-121.89261899965413, 37.98840200012641], [-121.89263700009576, 37.98909899995736], [-121.89263999957053, 37.98922899976502], [-121.8926809995784, 37.99084000010938], [-121.89492699979111, 37.9907660001621], [-121.8956089998565, 37.99074399995289], [-121.89588099984306, 37.99074700033584], [-121.89587499999527, 37.990780000291785], [-121.89729500020255, 37.99078900001977], [-121.89719100044546, 37.98877900032086], [-121.89717700020178, 37.98851599982236], [-121.89715700011028, 37.988145999654336], [-121.89717100035399, 37.98812499976679], [-121.89733100018755, 37.9878829997187], [-121.89717200017891, 37.98780799992504], [-121.8970960000109, 37.987766999646695], [-121.89716100030826, 37.987667999916226], [-121.89709000016315, 37.984935000246715], [-121.8970809999423, 37.9846019999986], [-121.89705699965285, 37.98369100025743], [-121.89747900032555, 37.98368800029402], [-121.89823099981282, 37.983683000118724], [-121.89844599989797, 37.983680999906845], [-121.89870000034121, 37.98367499997909], [-121.89873999962587, 37.98367400022709], [-121.89892999959667, 37.983668000298714], [-121.90662800013452, 37.98360900003291], [-121.90672199984584, 37.983608000280014], [-121.90664999987584, 37.99087500003931], [-121.90660300002016, 37.99563600018725], [-121.9066270003096, 37.99928799973268], [-121.90662599958637, 37.99952300009128], [-121.90662399993654, 38.00407500003097], [-121.90662599958637, 38.00514499991193], [-121.90661600043894, 38.00524800007682], [-121.90744499991911, 38.00525200003224], [-121.907674000248, 38.005250999866455], [-121.90801900002947, 38.00524599974513], [-121.90939200038109, 38.00524400012122], [-121.90936499971859, 38.00394100031776], [-121.90974399983527, 38.00392900023643], [-121.91054599955126, 38.003903999883654], [-121.91083900035254, 38.003468999884554], [-121.91140000004411, 38.002653999692555], [-121.916822000232, 38.00262100012366], [-121.91760200020668, 38.00125999971161], [-121.91834799984619, 37.99995999990668], [-121.91949500024197, 37.99795899975775], [-121.92403199997493, 37.99798099992673], [-121.92406999960977, 37.99837799997583], [-121.92402399957898, 38.00017000002554], [-121.92395499998202, 38.001204000099165], [-121.92386399974544, 38.00257399983253], [-121.92384200000411, 38.002624000020724], [-121.92391700034717, 38.00518400005325], [-121.92357699969025, 38.005631000300276], [-121.92330600042692, 38.00618100021545], [-121.92262600001135, 38.00730199976708], [-121.92178199956426, 38.00908799976702], [-121.92176099964786, 38.009302999777816], [-121.92175499980007, 38.00936600034299], [-121.92296599976997, 38.00922400020597], [-121.92307100025027, 38.00975899991627], [-121.92304000028811, 38.009815000073004], [-121.92256400008705, 38.01062799975409], [-121.92395199960897, 38.01113300010566], [-121.92424100021228, 38.01063599978538], [-121.92509200033209, 38.0109450000603], [-121.9247990004291, 38.011443999863836], [-121.92555500011434, 38.01172300007623], [-121.92700200008579, 38.00797900004737], [-121.92830000009434, 38.00508499976295], [-121.9308879997155, 38.00505599983852], [-121.9317899998889, 38.00504600027681], [-121.93196200031637, 38.00504399993961], [-121.9324719999543, 38.00503999997289], [-121.93272600039751, 38.00503499983722], [-121.93274300011595, 38.007188999679165], [-121.93276300020743, 38.00994600007031], [-121.93274200029106, 38.01051000007591], [-121.9327339998951, 38.01105800002116], [-121.93270100028316, 38.01214499971658], [-121.93577900034907, 38.01213599977811], [-121.93807499989218, 38.01210400030251], [-121.9417859996197, 38.01206799981414], [-121.94205199975848, 38.012087999851694], [-121.94212399972851, 38.011927000031285], [-121.94200800027586, 38.01177900014815], [-121.94204400026086, 38.01167399980121], [-121.94205400030661, 38.01152299987444], [-121.94204000006292, 38.01140699967726], [-121.94193899978058, 38.01116700017533], [-121.94220999994222, 38.01118799983578], [-121.942476000081, 38.01122999984641], [-121.94277599965666, 38.01124599977667], [-121.94314399990269, 38.01125699999215], [-121.943321000353, 38.0112440003164], [-121.94355999982929, 38.01122600021713], [-121.94379599983084, 38.01116999972274], [-121.94395099964153, 38.01111800023644], [-121.94407000036554, 38.01106800017837], [-121.9441640000769, 38.01097700004184], [-121.94424000024485, 38.01086999978346], [-121.94431499968961, 38.01076600034837], [-121.94449499961465, 38.01062999993895], [-121.9446589996462, 38.009828000002145], [-121.94459300042226, 38.00982200008958], [-121.94447200004844, 38.0098119997624], [-121.94438400018491, 38.009788000103896], [-121.94425899961311, 38.009754000102426], [-121.94408799990889, 38.00971199995394], [-121.94396599971016, 38.00966800027816], [-121.9438419998616, 38.00959400021693], [-121.94365299971572, 38.00948499984723], [-121.94333600042162, 38.009366999744834], [-121.94315599959823, 38.00932000023899], [-121.94298099969606, 38.009345000160614], [-121.94276200031126, 38.00937299969465], [-121.94255600044693, 38.0093989997074], [-121.94261499999814, 38.009289999755566], [-121.94275599956518, 38.0089990002331], [-121.94285400037278, 38.0087569996897], [-121.9429759996732, 38.00851200010704], [-121.94302699972681, 38.00832100004645], [-121.9430040001606, 38.0081219998913], [-121.94296700035068, 38.00791400015476], [-121.94296999982541, 38.00760700011198], [-121.9428140001898, 38.0074259997633], [-121.94275499974026, 38.007200999934774], [-121.94212100025375, 38.00696299968876], [-121.94194299997852, 38.006853000218044], [-121.94189600012285, 38.006767999967074], [-121.94196499971983, 38.00672299979435], [-121.94207600004792, 38.00659500014286], [-121.94228500028528, 38.00641400012707], [-121.94260400012752, 38.00625400003046], [-121.94285400037278, 38.00614499964962], [-121.94304799964323, 38.006117000298445], [-121.94372499968573, 38.005643000103056], [-121.94380300040184, 38.00558799975205], [-121.94387899967153, 38.00557800026295], [-121.94409999960446, 38.00542500019403], [-121.94415200038131, 38.0054210002481], [-121.94433499978109, 38.00546599980432], [-121.94441199977399, 38.005435999867274], [-121.94451999972902, 38.005440999975605], [-121.94459500007211, 38.005447000246704], [-121.94481699982994, 38.00540599991801], [-121.94480299958626, 38.005530000289575], [-121.94498300040961, 38.0054749998538], [-121.94513999987012, 38.0055219997011], [-121.94530599955148, 38.005572000002566], [-121.94532499981806, 38.00557800026295], [-121.9453490001075, 38.00590399975197], [-121.94590800014926, 38.00594200004105], [-121.94591099962399, 38.005780000012926], [-121.94591399999702, 38.00565300029113], [-121.9459199998448, 38.00544200013879], [-121.94635900023594, 38.00528800032864], [-121.94644100025171, 38.00536100032496], [-121.94652800029036, 38.00541299964773], [-121.94653199959001, 38.004858000194226], [-121.94653400013814, 38.00454400028411], [-121.94653499996303, 38.0043240002899], [-121.94647399986367, 38.00364899990424], [-121.9464119999394, 38.00295699986638], [-121.94641299976432, 38.002781999853326], [-121.94641799978719, 38.00225700013967], [-121.94642100016021, 38.002083000080745], [-121.94643899970359, 38.0013339996901], [-121.94644499955137, 38.00112700003132], [-121.9464529999473, 38.000800999831974], [-121.9464680000159, 38.000141000280884], [-121.94649200030535, 37.999190999765695], [-121.94652200044258, 37.997993999830435], [-121.94652800029036, 37.99771900012415], [-121.9477209998186, 37.99767299979199], [-121.94775099995583, 37.997616000002154], [-121.94780100018453, 37.997504000124614], [-121.94784499966715, 37.997390999803045], [-121.94788200037537, 37.99727600017411], [-121.94791099978937, 37.9971680001737], [-121.94799100015533, 37.99665900019387], [-121.94809999993528, 37.99577599985651], [-121.9481710000804, 37.99520699968321], [-121.9481939996466, 37.99502500027736], [-121.94828300023337, 37.99424100028806], [-121.9483049999747, 37.99406299975893], [-121.94835100000546, 37.993700000097434], [-121.94838100014267, 37.993526000266364], [-121.94842100032565, 37.99333399977843], [-121.94846800018131, 37.99314299982684], [-121.94852199970968, 37.992952999711434], [-121.94859899970255, 37.992743999794854], [-121.94864300008348, 37.99262599965344], [-121.94873199977197, 37.99240499966993], [-121.94883700025225, 37.99216599990575], [-121.94888599975774, 37.992040999953026], [-121.94892799959052, 37.991913999799856], [-121.94896399957553, 37.991785999785364], [-121.94899299988788, 37.99165699990425], [-121.94903200024594, 37.99143199983227], [-121.94904999978925, 37.99129799967229], [-121.94906200038314, 37.99116500033343], [-121.9490659996828, 37.99103099968574], [-121.94906400003299, 37.99089700020924], [-121.94905399998724, 37.990764000143365], [-121.94902700022304, 37.990549000288134], [-121.94900799995645, 37.99034199992435], [-121.948995000436, 37.990134999684415], [-121.94900799995645, 37.990015000262936], [-121.94902600039813, 37.98993700010888], [-121.94904999978925, 37.989860000247624], [-121.9490809997514, 37.98978500035107], [-121.94911799956134, 37.989711000047535], [-121.94921100034607, 37.98957100013023], [-121.9493469998902, 37.98940799966233], [-121.94965499986176, 37.989067000339716], [-121.94971900033418, 37.98899999990033], [-121.94977600023559, 37.988942999742534], [-121.9498969997111, 37.988811000064125], [-121.95001200023714, 37.98867499999683], [-121.95014100010856, 37.98850600012938], [-121.95037999958487, 37.98819399967811], [-121.9505729999287, 37.987949000068426], [-121.95060100041613, 37.98791299975631], [-121.95074899965579, 37.987730000256505], [-121.95085800033407, 37.98759700011309], [-121.95102400001542, 37.987401000170316], [-121.9511770001763, 37.98723299990378], [-121.95130199984975, 37.9870950003326], [-121.9528319996619, 37.98799700022115], [-121.95341199962004, 37.9883310003256], [-121.95372299996467, 37.98851099997607], [-121.95737099994295, 37.9906690002521], [-121.96019200009093, 37.99233699981329], [-121.96645399962968, 37.99602899972896], [-121.96870400004033, 37.997354999877025], [-121.96934500009783, 37.99797600001763], [-121.9741220000303, 38.00261000002808], [-121.97842699995965, 38.00677400012959], [-121.97961399964011, 38.00793600016841], [-121.97990300024343, 38.008217999951746], [-121.98126099962809, 38.009541000213254], [-121.98137500032924, 38.00964800028811], [-121.9814580001699, 38.009741000160155], [-121.98151099987335, 38.009794000019234], [-121.98255799981172, 38.010818000084356], [-121.98331299967204, 38.01155699976323], [-121.98352699993228, 38.01176699993411], [-121.98358300000879, 38.011821999896334], [-121.98490899960642, 38.0131119997216], [-121.98509399955432, 38.013283000333196], [-121.98546699982325, 38.013652000331], [-121.98607899956842, 38.01424600001603], [-121.98772100043186, 38.01584799985348], [-121.98787399969441, 38.015773999661306], [-121.99014300037166, 38.01483799977152], [-121.99134699977057, 38.01471699968306], [-121.99189900013961, 38.014507000178334], [-121.99287400010795, 38.013556000308924], [-121.99294899955271, 38.01333799986566], [-121.99346400011183, 38.013129000007176], [-121.99438200017876, 38.012754999890625], [-121.99504800035062, 38.01248000033615], [-121.99513700003908, 38.01243999976163], [-121.99528799965184, 38.01238300012618], [-121.99639599968957, 38.01218699988662], [-121.99668699994272, 38.011308000004476], [-121.99671100023217, 38.011159000201985], [-121.99671500043011, 38.01114400033809], [-121.99686799969268, 38.010647000092405], [-121.9971020000444, 38.01059600032799], [-121.99728500034253, 38.01057000003198], [-121.99730899973363, 38.010891000236725], [-121.99741599986375, 38.01121700016588], [-121.99767299978171, 38.01201099988939], [-121.997959000012, 38.01264099964975], [-121.99804000020285, 38.01277599980392], [-121.99882199982733, 38.01261400001372], [-121.99895700044486, 38.01256999995648], [-121.99983199995576, 38.01226300030171], [-122.00118199984284, 38.0119549999947], [-122.00164700017326, 38.01184999989985], [-122.00214500011565, 38.01176300033418], [-122.002571000088, 38.0124639999674], [-122.00267800021811, 38.01256300020229], [-122.00306200035766, 38.01292199967509], [-122.00347999993411, 38.013318000169114], [-122.00361700020146, 38.01343899973605], [-122.00369099982129, 38.01349599996588], [-122.00355199990412, 38.013510000003144], [-122.00352699978974, 38.0135400001751], [-122.00368999999638, 38.013528000249345], [-122.00385200037809, 38.01363800032087], [-122.00408900020454, 38.01388900004615], [-122.00430599993952, 38.01405500003234], [-122.00475899967607, 38.014416000064564], [-122.00508699973912, 38.01482099988232], [-122.00547000005376, 38.015224000233694], [-122.00584999999536, 38.01551499981574], [-122.00596200014834, 38.01576800023541], [-122.00584199959944, 38.01599499999449], [-122.0056690002454, 38.01626499973091], [-122.00589199982815, 38.01672699978799], [-122.00593500038418, 38.01677200018941], [-122.00638399992275, 38.01724199989949], [-122.00660300020587, 38.01750700000335], [-122.00657499971847, 38.017901999795], [-122.00634700011283, 38.01807399983803], [-122.00592100014048, 38.018163999666776], [-122.00583499992673, 38.018292000349405], [-122.00592299979031, 38.018525999968915], [-122.00595899977532, 38.01897700016432], [-122.00592799981315, 38.01913300018689], [-122.00578899989601, 38.01928499998019], [-122.00574299986522, 38.0193929999583], [-122.00579999976665, 38.01950600034168], [-122.00586400023907, 38.019665999822436], [-122.0059019998739, 38.01985899997862], [-122.00592000031556, 38.02003600020301], [-122.005901000049, 38.020444999937844], [-122.00591600011761, 38.02087999969953], [-122.00590000022407, 38.02107400014678], [-122.00580800016257, 38.021219999765215], [-122.00568099994095, 38.02134500022535], [-122.0054359997186, 38.021677000015856], [-122.00522599965629, 38.02200200015714], [-122.00517700015081, 38.02228199974353], [-122.00516700010508, 38.02247500008657], [-122.00521200031092, 38.022667999921275], [-122.00532899958846, 38.0227579997694], [-122.00541800017525, 38.022763000111574], [-122.00564800032897, 38.02270600001217], [-122.00574899971302, 38.022666999993106], [-122.00587199973668, 38.02272500005024], [-122.00590900044489, 38.022879999953176], [-122.00590799972166, 38.023814999832396], [-122.00588199978242, 38.02390499968704], [-122.00603300029346, 38.028835000056006], [-122.00344099957603, 38.02964199991717], [-122.00045399974671, 38.030490999673795], [-121.9968259998599, 38.03155500003766], [-121.99135900036444, 38.031599000017884], [-121.99134500012073, 38.03182499975702], [-121.99132599985417, 38.031878999723], [-121.9912930002422, 38.0318309999911], [-121.99126899995275, 38.031738999650464], [-121.99123399979264, 38.0316500000262], [-121.99121399970116, 38.03259899971071], [-121.99074000004823, 38.0327190001999], [-121.9879830003727, 38.033317999914104], [-121.98760000005804, 38.03322200018204], [-121.98758800036248, 38.03334199965059], [-121.98759099983721, 38.033376999812305], [-121.98064600040816, 38.03347900014782], [-121.98064999970781, 38.03365200019792], [-121.98025800007065, 38.033649999933814], [-121.98026399991845, 38.03366599992238], [-121.98028900003281, 38.03373200010339], [-121.98027399996418, 38.033748999850914], [-121.98025800007065, 38.03377000011631], [-121.9802320001314, 38.03379999977744], [-121.98021899971258, 38.03381799999275], [-121.98019500032146, 38.033846999858625], [-121.98016799965896, 38.033880000228784], [-121.98010599973469, 38.03391299987655], [-121.98007300012272, 38.03393199983853], [-121.98004600035853, 38.03394699999121], [-121.97988099960378, 38.03392400022751], [-121.97981899967952, 38.033925000002036], [-121.9794370000881, 38.03393600035123], [-121.9793530004225, 38.033937999899955], [-121.97904299990277, 38.03394499973516], [-121.97878500015995, 38.03395200027726], [-121.97876900026641, 38.034105000233765], [-121.97876000004557, 38.03438699980179], [-121.97879000018281, 38.0348250002749], [-121.97878900035789, 38.03488999965022], [-121.97878900035789, 38.035351999730985], [-121.97879699985549, 38.03647600021156], [-121.97881100009921, 38.03728000019547], [-121.97881100009921, 38.03731400016219], [-121.978816999947, 38.037711999889034], [-121.97882299979476, 38.0381389998645], [-121.97882799981765, 38.03840199996085], [-121.97882699999273, 38.03865299976378], [-121.97882600016781, 38.03891600013679], [-121.9788250003429, 38.03916800000351], [-121.97882399961965, 38.040715000288394], [-121.97882399961965, 38.04123099985152], [-121.97866999963388, 38.04123099985152], [-121.97819299960793, 38.0412289997944], [-121.97758099986272, 38.04122699973728], [-121.97676499990303, 38.041221000272934], [-121.97661299956707, 38.04121999989056], [-121.97629000042521, 38.041219000215605], [-121.97624199984631, 38.041217999833144], [-121.97610100027933, 38.041217000158156], [-121.97605400042364, 38.041217000158156], [-121.97521499999942, 38.041219000215605], [-121.97469799979046, 38.041221000272934], [-121.97446199978891, 38.04120800025279], [-121.9739749997172, 38.04115699982488], [-121.97374399973852, 38.04111299992656], [-121.97346199970623, 38.041047000029515], [-121.97273899963295, 38.04086299974523], [-121.97192699987123, 38.04065800000665], [-121.97065499980195, 38.040334999930614], [-121.97058399965684, 38.04031200005048], [-121.97039600023417, 38.04025399976696], [-121.96992500005598, 38.040107999874536], [-121.96983100034466, 38.04007899965774], [-121.96969900010018, 38.040038000307476], [-121.9697099999708, 38.0403020003464], [-121.96971900019167, 38.04053400034528], [-121.96973000006231, 38.04082699994307], [-121.96974599995583, 38.04083100007921], [-121.96975799965139, 38.045723000153], [-121.96975799965139, 38.04579100001249], [-121.96975500017668, 38.04614300002336], [-121.96974599995583, 38.04740499992261], [-121.96974400030602, 38.047826000339974], [-121.96965300006943, 38.056079000290644], [-121.96887599956948, 38.056102000169155], [-121.96629299997119, 38.055918000231195], [-121.95816400033644, 38.05533900031085], [-121.95757199978442, 38.0553190000546], [-121.95624399963867, 38.05501499973105], [-121.95375300010188, 38.05444600034371], [-121.952249000229, 38.05416599991632], [-121.95091100003751, 38.053918000159], [-121.95054899963925, 38.05385100027721], [-121.94989500006129, 38.05367799984478], [-121.94864200025859, 38.05334799980777], [-121.94685899982814, 38.052905000076905], [-121.94676500011681, 38.052881999901075], [-121.94585700009561, 38.05261300023009], [-121.94519299957358, 38.05241700008649], [-121.94383500018891, 38.05196700014595], [-121.94377099971646, 38.0519430001469], [-121.94232499956995, 38.05140199996598], [-121.94093600022313, 38.05091399985875], [-121.93957799994014, 38.050441000346396], [-121.93867800031487, 38.05018899966187], [-121.93776199989775, 38.049830000273495], [-121.93758000032285, 38.049745999912204], [-121.93634300041369, 38.0491739997734], [-121.93557900033255, 38.04885599974691], [-121.93542799982148, 38.048792999884725], [-121.93503199998635, 38.04869600035019], [-121.93429899986735, 38.048517999761565], [-121.93337099975466, 38.048288000164334], [-121.9328179995607, 38.048152000068676], [-121.93280300039044, 38.04814700004469], [-121.93275800018456, 38.048133999839415], [-121.93274300011595, 38.04813000010225], [-121.93189600019413, 38.0478760000758], [-121.93100300024153, 38.04760999987206], [-121.92953799982843, 38.0472669997093], [-121.92932699994122, 38.047224999838804], [-121.92882499980091, 38.04712599974553], [-121.92845999992792, 38.04705399991519]]]}}]}