{"type": "FeatureCollection", "features": [{"type": "Feature", "properties": {"kind": "shelter/senior", "name": "Delta Landing"}, "geometry": {"type": "Point", "coordinates": [-121.86734, 38.01093]}}, {"type": "Feature", "properties": {"kind": "library", "name": "LMC Library"}, "geometry": {"type": "Point", "coordinates": [-121.86101, 38.00656]}}, {"type": "Feature", "properties": {"kind": "library", "name": "Pittsburg Library"}, "geometry": {"type": "Point", "coordinates": [-121.891, 38.01875]}}, {"type": "Feature", "properties": {"kind": "pool", "name": "Unnamed cooling site"}, "geometry": {"type": "Point", "coordinates": [-121.99386, 37.98529]}}, {"type": "Feature", "properties": {"kind": "pool", "name": "Unnamed cooling site"}, "geometry": {"type": "Point", "coordinates": [-121.99399, 37.9852]}}, {"type": "Feature", "properties": {"kind": "pool", "name": "Kirker Creek Main Swimming Pool"}, "geometry": {"type": "Point", "coordinates": [-121.89462, 37.99364]}}, {"type": "Feature", "properties": {"kind": "pool", "name": "Unnamed cooling site"}, "geometry": {"type": "Point", "coordinates": [-121.89475, 37.99152]}}, {"type": "Feature", "properties": {"kind": "community_centre", "name": "Pittsburg Youth Development Center"}, "geometry": {"type": "Point", "coordinates": [-121.87684, 38.00451]}}]}