{"type": "FeatureCollection", "properties": {"source": "Census TIGERweb Places_CouSub_ConCity_SubMCD layers 4 and 5", "fetched": "2026-09-13", "assignment": "cell centroid within polygon; cities before CDPs"}, "features": [{"type": "Feature", "properties": {"name": "Pittsburg", "kind": "city", "geoid": "0657456"}, "geometry": {"type": "Polygon", "coordinates": [[[-121.98605, 38.01711], [-121.98608, 38.01425], [-121.98547, 38.01365], [-121.98509, 38.01328], [-121.98491, 38.01311], [-121.98358, 38.01182], [-121.98353, 38.01177], [-121.98331, 38.01156], [-121.98256, 38.01082], [-121.98151, 38.00979], [-121.98146, 38.00974], [-121.98138, 38.00965], [-121.98126, 38.00954], [-121.9799, 38.00822], [-121.97961, 38.00794], [-121.97843, 38.00677], [-121.97412, 38.00261], [-121.96935, 37.99798], [-121.9687, 37.99735], [-121.96645, 37.99603], [-121.96019, 37.99234], [-121.95737, 37.99067], [-121.95372, 37.98851], [-121.95341, 37.98833], [-121.95283, 37.988], [-121.9513, 37.9871], [-121.95118, 37.98723], [-121.95102, 37.9874], [-121.95086, 37.9876], [-121.95075, 37.98773], [-121.9506, 37.98791], [-121.95057, 37.98795], [-121.95038, 37.98819], [-121.95014, 37.98851], [-121.95001, 37.98867], [-121.9499, 37.98881], [-121.94978, 37.98894], [-121.94972, 37.989], [-121.94965, 37.98907], [-121.94935, 37.98941], [-121.94921, 37.98957], [-121.94912, 37.98971], [-121.94908, 37.98979], [-121.94905, 37.98986], [-121.94903, 37.98994], [-121.94901, 37.99002], [-121.949, 37.99013], [-121.94901, 37.99034], [-121.94903, 37.99055], [-121.94905, 37.99076], [-121.94906, 37.9909], [-121.94907, 37.99103], [-121.94906, 37.99117], [-121.94905, 37.9913], [-121.94903, 37.99143], [-121.94899, 37.99166], [-121.94896, 37.99179], [-121.94893, 37.99191], [-121.94889, 37.99204], [-121.94884, 37.99217], [-121.94873, 37.9924], [-121.94864, 37.99263], [-121.9486, 37.99274], [-121.94852, 37.99295], [-121.94847, 37.99314], [-121.94842, 37.99333], [-121.94838, 37.99353], [-121.94835, 37.9937], [-121.9483, 37.99406], [-121.94828, 37.99424], [-121.94819, 37.99503], [-121.94817, 37.99521], [-121.9481, 37.99578], [-121.94799, 37.99666], [-121.94791, 37.99717], [-121.94788, 37.99728], [-121.94784, 37.99739], [-121.9478, 37.9975], [-121.94775, 37.99762], [-121.94772, 37.99767], [-121.94653, 37.99772], [-121.94652, 37.99799], [-121.94649, 37.99919], [-121.94647, 38.00014], [-121.94645, 38.0008], [-121.94644, 38.00113], [-121.94644, 38.00133], [-121.94642, 38.00208], [-121.94642, 38.00226], [-121.94641, 38.00278], [-121.94641, 38.00296], [-121.94647, 38.00365], [-121.94653, 38.00432], [-121.94653, 38.00454], [-121.94653, 38.00486], [-121.94653, 38.00541], [-121.94644, 38.00536], [-121.94636, 38.00529], [-121.94592, 38.00544], [-121.94591, 38.00565], [-121.94591, 38.00578], [-121.94591, 38.00594], [-121.94535, 38.0059], [-121.94532, 38.00558], [-121.94531, 38.00557], [-121.94514, 38.00552], [-121.94498, 38.00547], [-121.9448, 38.00553], [-121.94482, 38.00541], [-121.9446, 38.00545], [-121.94452, 38.00544], [-121.94441, 38.00544], [-121.94433, 38.00547], [-121.94415, 38.00542], [-121.9441, 38.00543], [-121.94388, 38.00558], [-121.9438, 38.00559], [-121.94372, 38.00564], [-121.94305, 38.00612], [-121.94285, 38.00614], [-121.9426, 38.00625], [-121.94229, 38.00641], [-121.94208, 38.0066], [-121.94196, 38.00672], [-121.9419, 38.00677], [-121.94194, 38.00685], [-121.94212, 38.00696], [-121.94275, 38.0072], [-121.94281, 38.00743], [-121.94297, 38.00761], [-121.94297, 38.00791], [-121.943, 38.00812], [-121.94303, 38.00832], [-121.94298, 38.00851], [-121.94285, 38.00876], [-121.94276, 38.009], [-121.94261, 38.00929], [-121.94256, 38.0094], [-121.94276, 38.00937], [-121.94298, 38.00935], [-121.94316, 38.00932], [-121.94334, 38.00937], [-121.94365, 38.00948], [-121.94384, 38.00959], [-121.94397, 38.00967], [-121.94409, 38.00971], [-121.94426, 38.00975], [-121.94438, 38.00979], [-121.94447, 38.00981], [-121.94459, 38.00982], [-121.94466, 38.00983], [-121.94449, 38.01063], [-121.94431, 38.01077], [-121.94424, 38.01087], [-121.94416, 38.01098], [-121.94407, 38.01107], [-121.94395, 38.01112], [-121.9438, 38.01117], [-121.94356, 38.01123], [-121.94332, 38.01124], [-121.94314, 38.01126], [-121.94278, 38.01125], [-121.94248, 38.01123], [-121.94221, 38.01119], [-121.94194, 38.01117], [-121.94204, 38.01141], [-121.94205, 38.01152], [-121.94204, 38.01167], [-121.94201, 38.01178], [-121.94212, 38.01193], [-121.94205, 38.01209], [-121.94179, 38.01207], [-121.93807, 38.0121], [-121.93578, 38.01214], [-121.9327, 38.01214], [-121.93273, 38.01106], [-121.93274, 38.01051], [-121.93276, 38.00995], [-121.93274, 38.00719], [-121.93273, 38.00503], [-121.93247, 38.00504], [-121.93196, 38.00504], [-121.93179, 38.00505], [-121.93089, 38.00506], [-121.9283, 38.00508], [-121.927, 38.00798], [-121.92556, 38.01172], [-121.9248, 38.01144], [-121.92509, 38.01095], [-121.92424, 38.01064], [-121.92395, 38.01113], [-121.92256, 38.01063], [-121.92304, 38.00982], [-121.92307, 38.00976], [-121.92297, 38.00922], [-121.92175, 38.00937], [-121.92176, 38.0093], [-121.92178, 38.00909], [-121.92263, 38.0073], [-121.92331, 38.00618], [-121.92358, 38.00563], [-121.92392, 38.00518], [-121.92384, 38.00262], [-121.92386, 38.00257], [-121.92395, 38.0012], [-121.92402, 38.00017], [-121.92407, 37.99838], [-121.92403, 37.99798], [-121.9195, 37.99796], [-121.91835, 37.99996], [-121.9176, 38.00126], [-121.91682, 38.00262], [-121.9114, 38.00265], [-121.91084, 38.00347], [-121.91055, 38.0039], [-121.90974, 38.00393], [-121.90936, 38.00394], [-121.90939, 38.00524], [-121.90802, 38.00525], [-121.90767, 38.00525], [-121.90744, 38.00525], [-121.90662, 38.00525], [-121.90663, 38.00514], [-121.90662, 38.00408], [-121.90663, 37.99952], [-121.90663, 37.99929], [-121.9066, 37.99564], [-121.90665, 37.99088], [-121.90672, 37.98361], [-121.90663, 37.98361], [-121.89893, 37.98367], [-121.89874, 37.98367], [-121.8987, 37.98367], [-121.89845, 37.98368], [-121.89823, 37.98368], [-121.89748, 37.98369], [-121.89706, 37.98369], [-121.89708, 37.9846], [-121.89709, 37.98494], [-121.89716, 37.98767], [-121.8971, 37.98777], [-121.89717, 37.98781], [-121.89733, 37.98788], [-121.89717, 37.98812], [-121.89716, 37.98815], [-121.89718, 37.98852], [-121.89719, 37.98878], [-121.8973, 37.99079], [-121.89587, 37.99078], [-121.89588, 37.99075], [-121.89561, 37.99074], [-121.89493, 37.99077], [-121.89268, 37.99084], [-121.89264, 37.98923], [-121.89264, 37.9891], [-121.89262, 37.9884], [-121.89163, 37.98842], [-121.89164, 37.98867], [-121.89165, 37.98904], [-121.89112, 37.98904], [-121.89112, 37.98912], [-121.89113, 37.98956], [-121.89177, 37.98955], [-121.89181, 37.99076], [-121.89181, 37.99082], [-121.88925, 37.99076], [-121.88804, 37.99074], [-121.88541, 37.99068], [-121.88126, 37.99058], [-121.87917, 37.99054], [-121.87869, 37.99053], [-121.87869, 37.99049], [-121.87024, 37.99043], [-121.87005, 37.99043], [-121.86982, 37.99043], [-121.86982, 37.99024], [-121.86978, 37.98773], [-121.86975, 37.98602], [-121.8697, 37.98311], [-121.8697, 37.983], [-121.86897, 37.98301], [-121.86755, 37.98303], [-121.86598, 37.98305], [-121.86534, 37.98305], [-121.86479, 37.98307], [-121.86444, 37.98307], [-121.86048, 37.98316], [-121.86049, 37.98397], [-121.86053, 37.98641], [-121.86057, 37.98911], [-121.86059, 37.98999], [-121.86059, 37.99032], [-121.86059, 37.99039], [-121.86059, 37.99053], [-121.86051, 37.99052], [-121.86037, 37.99052], [-121.86004, 37.99051], [-121.85968, 37.9905], [-121.85925, 37.99046], [-121.85882, 37.9904], [-121.85782, 37.9904], [-121.85782, 37.99049], [-121.85782, 37.99053], [-121.85753, 37.99053], [-121.85747, 37.99053], [-121.85747, 37.99041], [-121.85656, 37.99041], [-121.85489, 37.99042], [-121.85478, 37.99042], [-121.85306, 37.99043], [-121.85287, 37.99044], [-121.85267, 37.99044], [-121.85253, 37.99044], [-121.85239, 37.99044], [-121.85229, 37.99044], [-121.85201, 37.99044], [-121.85194, 37.99044], [-121.85142, 37.99178], [-121.8514, 37.99181], [-121.85132, 37.99189], [-121.85121, 37.99204], [-121.85112, 37.99216], [-121.85103, 37.99228], [-121.85094, 37.99239], [-121.85084, 37.9925], [-121.85073, 37.9926], [-121.85062, 37.99271], [-121.85052, 37.9928], [-121.85018, 37.9931], [-121.85017, 37.99316], [-121.85003, 37.99328], [-121.84994, 37.9933], [-121.84913, 37.994], [-121.84877, 37.99431], [-121.8488, 37.99432], [-121.84876, 37.99435], [-121.84874, 37.99434], [-121.8479, 37.99506], [-121.84979, 37.99654], [-121.85059, 37.99707], [-121.85089, 37.99785], [-121.85089, 37.99799], [-121.85149, 37.998], [-121.85169, 37.998], [-121.85238, 37.998], [-121.85301, 37.998], [-121.85477, 37.99801], [-121.85484, 37.99801], [-121.85589, 37.998], [-121.85603, 37.998], [-121.85603, 37.99807], [-121.85605, 37.99826], [-121.85607, 37.99849], [-121.85633, 38.00158], [-121.85634, 38.00178], [-121.85656, 38.00429], [-121.85661, 38.00479], [-121.85663, 38.00525], [-121.85659, 38.00606], [-121.85651, 38.00648], [-121.85644, 38.00686], [-121.85633, 38.00718], [-121.8562, 38.00758], [-121.85613, 38.00776], [-121.85609, 38.00786], [-121.85604, 38.00801], [-121.85596, 38.00821], [-121.85584, 38.00851], [-121.85573, 38.0088], [-121.85566, 38.00896], [-121.85556, 38.00922], [-121.85555, 38.00924], [-121.85538, 38.00919], [-121.8552, 38.00913], [-121.85514, 38.00911], [-121.85495, 38.00905], [-121.85489, 38.00903], [-121.85291, 38.00848], [-121.84696, 38.00682], [-121.84497, 38.00627], [-121.8441, 38.00603], [-121.84148, 38.0053], [-121.84061, 38.00505], [-121.84032, 38.00498], [-121.84018, 38.00498], [-121.83999, 38.00499], [-121.83981, 38.00502], [-121.83963, 38.00507], [-121.83932, 38.00518], [-121.83918, 38.00526], [-121.83903, 38.00532], [-121.83887, 38.00538], [-121.83876, 38.00542], [-121.83868, 38.00544], [-121.83853, 38.00547], [-121.83844, 38.00548], [-121.83835, 38.00549], [-121.83825, 38.0055], [-121.83812, 38.00549], [-121.83807, 38.00549], [-121.83799, 38.00548], [-121.83792, 38.00547], [-121.83782, 38.00545], [-121.83708, 38.00525], [-121.83645, 38.00508], [-121.83625, 38.00487], [-121.83582, 38.00521], [-121.83554, 38.00546], [-121.83533, 38.00564], [-121.83512, 38.00583], [-121.83499, 38.00594], [-121.83448, 38.00636], [-121.83427, 38.00654], [-121.83407, 38.00669], [-121.8338, 38.00692], [-121.83356, 38.00715], [-121.83351, 38.00719], [-121.83334, 38.00737], [-121.83328, 38.00742], [-121.83321, 38.00749], [-121.83463, 38.00779], [-121.83536, 38.00795], [-121.83703, 38.0083], [-121.83871, 38.00865], [-121.84039, 38.009], [-121.84119, 38.00917], [-121.84206, 38.00935], [-121.84245, 38.00943], [-121.8426, 38.00947], [-121.84466, 38.00995], [-121.8449, 38.01001], [-121.84481, 38.01023], [-121.84474, 38.01039], [-121.84413, 38.0108], [-121.84377, 38.01129], [-121.84298, 38.01242], [-121.84289, 38.01251], [-121.84244, 38.01311], [-121.84244, 38.01382], [-121.84242, 38.01589], [-121.8424, 38.01774], [-121.84239, 38.01905], [-121.84239, 38.01966], [-121.84238, 38.02044], [-121.84238, 38.02047], [-121.83823, 38.02427], [-121.83824, 38.02486], [-121.83827, 38.02561], [-121.83827, 38.02569], [-121.83827, 38.02589], [-121.83829, 38.02645], [-121.8383, 38.02703], [-121.83831, 38.02725], [-121.8383, 38.02744], [-121.83827, 38.02908], [-121.84055, 38.02855], [-121.84229, 38.02834], [-121.84251, 38.02841], [-121.84275, 38.02839], [-121.84302, 38.02838], [-121.84608, 38.02898], [-121.84616, 38.02901], [-121.84753, 38.02976], [-121.84758, 38.02979], [-121.84934, 38.03073], [-121.85098, 38.03162], [-121.85217, 38.03226], [-121.84948, 38.03457], [-121.84946, 38.03501], [-121.84938, 38.0353], [-121.84946, 38.03563], [-121.85014, 38.03656], [-121.8509, 38.03771], [-121.85112, 38.03974], [-121.85243, 38.04154], [-121.85329, 38.04291], [-121.85893, 38.04673], [-121.86958, 38.05441], [-121.87065, 38.05344], [-121.8711, 38.05303], [-121.87271, 38.05184], [-121.87459, 38.05077], [-121.87461, 38.05076], [-121.87474, 38.05068], [-121.87505, 38.05055], [-121.87607, 38.05012], [-121.87771, 38.04951], [-121.87824, 38.04932], [-121.88018, 38.04871], [-121.88276, 38.04816], [-121.88356, 38.04798], [-121.88446, 38.04777], [-121.88502, 38.04763], [-121.88518, 38.04759], [-121.88667, 38.04723], [-121.88669, 38.04722], [-121.88726, 38.04711], [-121.88957, 38.04666], [-121.89071, 38.04653], [-121.8918, 38.04641], [-121.89333, 38.04618], [-121.89624, 38.04585], [-121.89888, 38.04557], [-121.90117, 38.04536], [-121.90315, 38.04533], [-121.90467, 38.04532], [-121.90545, 38.0452], [-121.9068, 38.045], [-121.90778, 38.04501], [-121.90857, 38.04502], [-121.91014, 38.04496], [-121.91161, 38.04503], [-121.91194, 38.04505], [-121.91257, 38.04508], [-121.91362, 38.04512], [-121.91554, 38.04522], [-121.91733, 38.04543], [-121.9189, 38.04558], [-121.92079, 38.04573], [-121.92212, 38.0459], [-121.92333, 38.04612], [-121.92443, 38.04627], [-121.92453, 38.04628], [-121.92581, 38.04647], [-121.92803, 38.04697], [-121.9281, 38.04698], [-121.92846, 38.04705], [-121.92882, 38.04713], [-121.92877, 38.04403], [-121.92877, 38.04377], [-121.92876, 38.04352], [-121.92876, 38.04343], [-121.92871, 38.04094], [-121.92871, 38.04081], [-121.92871, 38.04066], [-121.9287, 38.04036], [-121.92861, 38.03517], [-121.9286, 38.03447], [-121.9286, 38.0344], [-121.92859, 38.03388], [-121.92858, 38.0338], [-121.92858, 38.03353], [-121.92853, 38.03051], [-121.92852, 38.03037], [-121.92852, 38.03006], [-121.92852, 38.02993], [-121.92858, 38.02994], [-121.92997, 38.03031], [-121.93121, 38.03062], [-121.93134, 38.03061], [-121.93143, 38.0306], [-121.93148, 38.0306], [-121.93151, 38.03059], [-121.93161, 38.03057], [-121.93173, 38.03053], [-121.93175, 38.03052], [-121.9318, 38.0305], [-121.93186, 38.03048], [-121.93198, 38.03042], [-121.93215, 38.03031], [-121.9323, 38.03022], [-121.93247, 38.03012], [-121.93266, 38.03003], [-121.93277, 38.02997], [-121.93278, 38.0297], [-121.93279, 38.02902], [-121.93282, 38.0281], [-121.93286, 38.02678], [-121.93286, 38.02664], [-121.93262, 38.02666], [-121.93247, 38.02668], [-121.93224, 38.02668], [-121.93213, 38.02668], [-121.93197, 38.02668], [-121.9316, 38.02668], [-121.93109, 38.02668], [-121.93082, 38.02668], [-121.93071, 38.02668], [-121.93021, 38.02668], [-121.9301, 38.02668], [-121.92975, 38.02668], [-121.92871, 38.02667], [-121.92836, 38.02667], [-121.92809, 38.02666], [-121.92728, 38.02663], [-121.92701, 38.02662], [-121.927, 38.02662], [-121.92695, 38.02662], [-121.92693, 38.02662], [-121.92693, 38.0266], [-121.92693, 38.02659], [-121.92693, 38.02656], [-121.92693, 38.02655], [-121.92688, 38.02639], [-121.92687, 38.0262], [-121.92681, 38.02534], [-121.92711, 38.02534], [-121.92774, 38.02533], [-121.92775, 38.02513], [-121.92771, 38.0231], [-121.92765, 38.01954], [-121.92764, 38.0192], [-121.92764, 38.01904], [-121.92764, 38.01892], [-121.92763, 38.01872], [-121.92785, 38.0187], [-121.92898, 38.01862], [-121.92994, 38.01858], [-121.93153, 38.01858], [-121.93278, 38.01858], [-121.93276, 38.01766], [-121.93275, 38.01746], [-121.93275, 38.01738], [-121.93275, 38.01728], [-121.93275, 38.01721], [-121.93276, 38.01676], [-121.93308, 38.01676], [-121.9332, 38.01663], [-121.93341, 38.01647], [-121.93377, 38.01634], [-121.93478, 38.016], [-121.93584, 38.01674], [-121.93594, 38.01674], [-121.9373, 38.01768], [-121.93733, 38.01771], [-121.93748, 38.01782], [-121.93772, 38.01799], [-121.93783, 38.01808], [-121.93793, 38.01815], [-121.93802, 38.01818], [-121.93821, 38.01825], [-121.93821, 38.01832], [-121.93835, 38.01835], [-121.93842, 38.01836], [-121.93854, 38.0184], [-121.93858, 38.01841], [-121.93876, 38.01847], [-121.93899, 38.01844], [-121.93905, 38.01843], [-121.93914, 38.01842], [-121.93923, 38.0184], [-121.93931, 38.01838], [-121.93936, 38.01837], [-121.93941, 38.01835], [-121.93945, 38.01833], [-121.93951, 38.01831], [-121.93953, 38.0183], [-121.93964, 38.01826], [-121.93976, 38.01819], [-121.93983, 38.01814], [-121.93993, 38.01809], [-121.9399, 38.01806], [-121.93983, 38.01799], [-121.93985, 38.01798], [-121.93986, 38.01797], [-121.93987, 38.01796], [-121.93986, 38.01794], [-121.93984, 38.01791], [-121.93982, 38.01789], [-121.93981, 38.01787], [-121.93979, 38.01785], [-121.93979, 38.01783], [-121.93979, 38.01768], [-121.93974, 38.01768], [-121.93948, 38.01769], [-121.93948, 38.01767], [-121.93947, 38.01746], [-121.93947, 38.01738], [-121.9397, 38.01738], [-121.93978, 38.01738], [-121.93977, 38.01658], [-121.94011, 38.01658], [-121.94024, 38.01658], [-121.94024, 38.01646], [-121.94024, 38.01618], [-121.94023, 38.01603], [-121.94023, 38.0158], [-121.94097, 38.0158], [-121.94108, 38.0158], [-121.94107, 38.01564], [-121.94107, 38.01554], [-121.94107, 38.01548], [-121.94114, 38.01548], [-121.94142, 38.01548], [-121.9417, 38.01547], [-121.94194, 38.01547], [-121.94194, 38.01561], [-121.94194, 38.01567], [-121.94194, 38.01587], [-121.94194, 38.0164], [-121.94194, 38.01647], [-121.94194, 38.01667], [-121.94193, 38.01682], [-121.94193, 38.01709], [-121.94193, 38.0173], [-121.94193, 38.01744], [-121.94193, 38.01746], [-121.94194, 38.0178], [-121.94194, 38.01784], [-121.94193, 38.01809], [-121.94192, 38.0185], [-121.94198, 38.0185], [-121.94239, 38.0185], [-121.94353, 38.01863], [-121.94419, 38.0187], [-121.94532, 38.01883], [-121.94598, 38.01874], [-121.94638, 38.0187], [-121.94744, 38.01875], [-121.94759, 38.01878], [-121.94804, 38.01887], [-121.94826, 38.01891], [-121.94848, 38.01896], [-121.94949, 38.01915], [-121.95141, 38.01971], [-121.95166, 38.01978], [-121.95339, 38.02029], [-121.95491, 38.02074], [-121.95629, 38.02102], [-121.95988, 38.02167], [-121.96151, 38.02197], [-121.96253, 38.02217], [-121.96322, 38.02229], [-121.96469, 38.02255], [-121.96498, 38.02261], [-121.96573, 38.02277], [-121.96574, 38.02278], [-121.9658, 38.02279], [-121.96591, 38.02281], [-121.96661, 38.02295], [-121.96681, 38.02299], [-121.96825, 38.02326], [-121.96904, 38.02338], [-121.96986, 38.0235], [-121.97005, 38.02356], [-121.97038, 38.02358], [-121.9708, 38.02362], [-121.97111, 38.02364], [-121.97142, 38.02366], [-121.97174, 38.02367], [-121.97205, 38.02368], [-121.97211, 38.02368], [-121.97366, 38.02338], [-121.97591, 38.02303], [-121.97658, 38.02282], [-121.97719, 38.0226], [-121.97742, 38.02249], [-121.97756, 38.02242], [-121.97789, 38.02229], [-121.97796, 38.02227], [-121.97801, 38.02225], [-121.97846, 38.02204], [-121.97861, 38.02196], [-121.97861, 38.0219], [-121.97866, 38.02192], [-121.97925, 38.02174], [-121.9796, 38.021], [-121.98005, 38.02004], [-121.98193, 38.01932], [-121.98335, 38.01966], [-121.98388, 38.01927], [-121.98378, 38.01861], [-121.98595, 38.01749], [-121.98592, 38.01723], [-121.98591, 38.01714], [-121.98605, 38.01711]]]}}, {"type": "Feature", "properties": {"name": "Concord", "kind": "city", "geoid": "0616000"}, "geometry": {"type": "Polygon", "coordinates": [[[-122.06457, 37.9758], [-122.06454, 37.9757], [-122.06442, 37.97533], [-122.06438, 37.97517], [-122.0643, 37.97498], [-122.06422, 37.9748], [-122.06404, 37.97428], [-122.0641, 37.97427], [-122.06405, 37.97411], [-122.06404, 37.97405], [-122.06399, 37.97402], [-122.06395, 37.97402], [-122.06393, 37.97393], [-122.06313, 37.97403], [-122.06295, 37.97383], [-122.06285, 37.97372], [-122.06282, 37.97372], [-122.06275, 37.97362], [-122.06274, 37.97361], [-122.06192, 37.97271], [-122.06169, 37.97246], [-122.06161, 37.97237], [-122.06131, 37.972], [-122.06091, 37.97152], [-122.06071, 37.97066], [-122.0625, 37.97039], [-122.06268, 37.97036], [-122.06318, 37.97034], [-122.06311, 37.97001], [-122.0629, 37.96901], [-122.06283, 37.96868], [-122.0628, 37.96853], [-122.06271, 37.96807], [-122.06268, 37.96791], [-122.06265, 37.96775], [-122.06254, 37.96726], [-122.06251, 37.9671], [-122.06238, 37.96641], [-122.06224, 37.96563], [-122.06216, 37.96503], [-122.06207, 37.96434], [-122.06198, 37.96365], [-122.06192, 37.9634], [-122.06176, 37.96266], [-122.06171, 37.96242], [-122.06169, 37.96232], [-122.0616, 37.96189], [-122.06129, 37.9603], [-122.06118, 37.95978], [-122.06116, 37.95976], [-122.06113, 37.95966], [-122.06067, 37.95948], [-122.06062, 37.95946], [-122.06048, 37.95955], [-122.06032, 37.95966], [-122.06028, 37.9597], [-122.06078, 37.96057], [-122.06098, 37.96165], [-122.0607, 37.96168], [-122.06067, 37.96167], [-122.06065, 37.96167], [-122.06063, 37.96165], [-122.06062, 37.96163], [-122.06063, 37.96166], [-122.06064, 37.96172], [-122.06065, 37.96185], [-122.06066, 37.96184], [-122.06069, 37.96182], [-122.06071, 37.96181], [-122.061, 37.96178], [-122.06104, 37.96198], [-122.06105, 37.96202], [-122.06108, 37.96219], [-122.0609, 37.96231], [-122.06077, 37.96243], [-122.06071, 37.96248], [-122.06058, 37.96264], [-122.06052, 37.96274], [-122.0605, 37.96277], [-122.06048, 37.9628], [-122.06042, 37.96288], [-122.06037, 37.96294], [-122.06038, 37.96296], [-122.06038, 37.96298], [-122.06037, 37.963], [-122.06031, 37.96309], [-122.0602, 37.96322], [-122.06015, 37.96327], [-122.06003, 37.96336], [-122.05998, 37.9634], [-122.05985, 37.96348], [-122.05966, 37.9636], [-122.05951, 37.9637], [-122.05916, 37.96393], [-122.05885, 37.96414], [-122.0585, 37.96436], [-122.05816, 37.96459], [-122.05785, 37.96479], [-122.05751, 37.96501], [-122.05705, 37.96532], [-122.05689, 37.96542], [-122.05683, 37.96546], [-122.05679, 37.96548], [-122.05672, 37.9655], [-122.05667, 37.96551], [-122.05662, 37.96552], [-122.0566, 37.96553], [-122.05657, 37.96553], [-122.05652, 37.96553], [-122.05642, 37.96551], [-122.05634, 37.96548], [-122.05627, 37.96543], [-122.05622, 37.96538], [-122.05608, 37.9652], [-122.0561, 37.96514], [-122.05585, 37.96477], [-122.05551, 37.96427], [-122.05514, 37.96371], [-122.05483, 37.96325], [-122.05465, 37.96292], [-122.0546, 37.96289], [-122.05449, 37.96282], [-122.05406, 37.9623], [-122.05393, 37.96208], [-122.05371, 37.9617], [-122.05347, 37.96124], [-122.05305, 37.96062], [-122.05282, 37.9603], [-122.05253, 37.95955], [-122.05237, 37.95922], [-122.0524, 37.95906], [-122.05228, 37.95849], [-122.05237, 37.95836], [-122.05259, 37.95801], [-122.05266, 37.95775], [-122.05281, 37.9572], [-122.05314, 37.95647], [-122.0535, 37.9558], [-122.05328, 37.95573], [-122.05304, 37.95567], [-122.05286, 37.95562], [-122.0539, 37.95307], [-122.05393, 37.95299], [-122.05385, 37.95285], [-122.05387, 37.95269], [-122.05388, 37.95243], [-122.05388, 37.95227], [-122.05388, 37.95205], [-122.05385, 37.95184], [-122.0538, 37.95162], [-122.05374, 37.95141], [-122.05367, 37.95119], [-122.05354, 37.9509], [-122.05348, 37.95078], [-122.05335, 37.95058], [-122.05308, 37.95022], [-122.05294, 37.95003], [-122.05279, 37.94976], [-122.05273, 37.94964], [-122.05267, 37.94935], [-122.05241, 37.94844], [-122.05235, 37.94837], [-122.05226, 37.94832], [-122.05216, 37.94829], [-122.05214, 37.9482], [-122.05208, 37.94809], [-122.05201, 37.94794], [-122.05192, 37.94778], [-122.05177, 37.94765], [-122.05175, 37.94764], [-122.0517, 37.94759], [-122.05165, 37.94755], [-122.05164, 37.94755], [-122.05152, 37.94748], [-122.05129, 37.94738], [-122.05119, 37.94734], [-122.05113, 37.94732], [-122.05096, 37.94725], [-122.05082, 37.94716], [-122.05067, 37.94702], [-122.05058, 37.94687], [-122.05048, 37.94651], [-122.05039, 37.94619], [-122.05016, 37.94585], [-122.04986, 37.94561], [-122.04978, 37.94558], [-122.04978, 37.94547], [-122.04977, 37.94524], [-122.04977, 37.94517], [-122.04977, 37.94496], [-122.04978, 37.94454], [-122.04978, 37.94427], [-122.04978, 37.94386], [-122.04979, 37.94363], [-122.04979, 37.94347], [-122.04979, 37.94316], [-122.04979, 37.94289], [-122.04979, 37.94268], [-122.05, 37.94268], [-122.05024, 37.94268], [-122.05058, 37.94268], [-122.05064, 37.94268], [-122.05066, 37.94269], [-122.05069, 37.94269], [-122.0508, 37.9427], [-122.05133, 37.94276], [-122.05139, 37.94277], [-122.05142, 37.94257], [-122.05164, 37.9413], [-122.05177, 37.94056], [-122.0518, 37.94042], [-122.05181, 37.94033], [-122.05191, 37.93977], [-122.05195, 37.93949], [-122.05181, 37.93934], [-122.05147, 37.93897], [-122.05149, 37.93888], [-122.05139, 37.93877], [-122.05068, 37.938], [-122.05056, 37.93787], [-122.05051, 37.93781], [-122.05046, 37.93776], [-122.05032, 37.9376], [-122.05023, 37.93751], [-122.05018, 37.93754], [-122.04944, 37.93673], [-122.04931, 37.93673], [-122.04926, 37.93668], [-122.04912, 37.93652], [-122.04907, 37.93646], [-122.04896, 37.93635], [-122.04865, 37.936], [-122.04854, 37.93589], [-122.04842, 37.93575], [-122.04804, 37.93533], [-122.048, 37.93529], [-122.04792, 37.93519], [-122.04788, 37.93515], [-122.04737, 37.9346], [-122.047, 37.93419], [-122.04688, 37.93407], [-122.04686, 37.93404], [-122.04667, 37.93384], [-122.04535, 37.93452], [-122.04516, 37.93462], [-122.04461, 37.9349], [-122.04443, 37.93499], [-122.0435, 37.93547], [-122.04061, 37.93696], [-122.04028, 37.93713], [-122.03929, 37.93763], [-122.03896, 37.9378], [-122.03891, 37.93783], [-122.03875, 37.93791], [-122.03869, 37.93794], [-122.03855, 37.93801], [-122.03812, 37.93823], [-122.03798, 37.93831], [-122.03785, 37.93838], [-122.03744, 37.93859], [-122.03731, 37.93866], [-122.03719, 37.93871], [-122.03685, 37.93889], [-122.03674, 37.93894], [-122.03671, 37.93896], [-122.0366, 37.93902], [-122.03656, 37.93904], [-122.03587, 37.93939], [-122.03562, 37.9391], [-122.03502, 37.93841], [-122.03486, 37.93824], [-122.03461, 37.93795], [-122.0341, 37.9374], [-122.03348, 37.93671], [-122.0332, 37.93642], [-122.03454, 37.93573], [-122.03489, 37.93555], [-122.03475, 37.93539], [-122.03408, 37.93465], [-122.0337, 37.9342], [-122.03401, 37.93404], [-122.03414, 37.93398], [-122.03452, 37.93378], [-122.03464, 37.93372], [-122.03492, 37.93357], [-122.03502, 37.93353], [-122.03513, 37.93347], [-122.03504, 37.93336], [-122.035, 37.93331], [-122.03484, 37.93314], [-122.03471, 37.933], [-122.03455, 37.93282], [-122.03439, 37.93265], [-122.03424, 37.93249], [-122.03423, 37.93248], [-122.03407, 37.93231], [-122.03391, 37.93213], [-122.03378, 37.932], [-122.03355, 37.93211], [-122.033, 37.9324], [-122.03272, 37.93254], [-122.03182, 37.93301], [-122.0297, 37.9341], [-122.02925, 37.93433], [-122.02912, 37.9344], [-122.02908, 37.93442], [-122.02902, 37.93445], [-122.02638, 37.93156], [-122.02633, 37.9315], [-122.02631, 37.93147], [-122.02619, 37.93153], [-122.0256, 37.93183], [-122.02211, 37.93363], [-122.02107, 37.93417], [-122.02095, 37.93426], [-122.02082, 37.93435], [-122.02041, 37.93464], [-122.02028, 37.93474], [-122.02012, 37.93485], [-122.01966, 37.93519], [-122.01951, 37.9353], [-122.01915, 37.93556], [-122.01912, 37.93559], [-122.01908, 37.9356], [-122.01866, 37.93559], [-122.01764, 37.93556], [-122.01753, 37.93558], [-122.01745, 37.93561], [-122.01613, 37.93651], [-122.01536, 37.93704], [-122.0152, 37.93714], [-122.01473, 37.93746], [-122.01458, 37.93757], [-122.01443, 37.93766], [-122.014, 37.93796], [-122.01386, 37.93806], [-122.01371, 37.93815], [-122.01328, 37.93845], [-122.01313, 37.93855], [-122.013, 37.93864], [-122.0126, 37.93892], [-122.01246, 37.93901], [-122.01233, 37.9391], [-122.01195, 37.93936], [-122.01182, 37.93945], [-122.01165, 37.93956], [-122.01116, 37.9399], [-122.01099, 37.94001], [-122.01091, 37.94006], [-122.01067, 37.94022], [-122.0106, 37.94028], [-122.01054, 37.94032], [-122.01039, 37.94042], [-122.01036, 37.94043], [-122.0103, 37.94047], [-122.0102, 37.94054], [-122.01004, 37.94036], [-122.0093, 37.9409], [-122.00853, 37.94151], [-122.00709, 37.94249], [-122.00516, 37.944], [-122.00472, 37.94433], [-122.00338, 37.94532], [-122.00331, 37.94538], [-122.00293, 37.94565], [-122.00278, 37.94576], [-122.00234, 37.94608], [-122.00219, 37.94618], [-122.00215, 37.94621], [-122.00204, 37.94629], [-122.002, 37.94632], [-122.00185, 37.94621], [-122.00153, 37.94598], [-122.0008, 37.94545], [-122.00059, 37.9453], [-122.00048, 37.94523], [-121.99782, 37.94335], [-121.99719, 37.9429], [-121.9969, 37.94269], [-121.99671, 37.94255], [-121.99641, 37.94233], [-121.99577, 37.94188], [-121.99555, 37.94172], [-121.99521, 37.94148], [-121.99403, 37.94063], [-121.98996, 37.93769], [-121.98894, 37.93696], [-121.9885, 37.93664], [-121.98838, 37.93656], [-121.98818, 37.93641], [-121.98692, 37.9355], [-121.98633, 37.93508], [-121.98624, 37.93502], [-121.98544, 37.93443], [-121.98533, 37.93436], [-121.98531, 37.93434], [-121.98566, 37.93404], [-121.98573, 37.93398], [-121.98578, 37.93388], [-121.98608, 37.93326], [-121.98611, 37.93321], [-121.98585, 37.93289], [-121.98522, 37.93179], [-121.98503, 37.93147], [-121.98432, 37.93131], [-121.98423, 37.93048], [-121.9842, 37.93011], [-121.98367, 37.92978], [-121.98383, 37.92908], [-121.98391, 37.92871], [-121.98432, 37.92877], [-121.98454, 37.92882], [-121.98456, 37.9288], [-121.98479, 37.92882], [-121.98512, 37.92833], [-121.98512, 37.9279], [-121.98512, 37.92776], [-121.98478, 37.92717], [-121.98427, 37.92584], [-121.98339, 37.92517], [-121.98298, 37.92486], [-121.98285, 37.92476], [-121.98276, 37.92471], [-121.98266, 37.92468], [-121.98256, 37.92463], [-121.98171, 37.92423], [-121.98124, 37.92408], [-121.98092, 37.92398], [-121.98061, 37.92386], [-121.98056, 37.92678], [-121.98056, 37.92697], [-121.97453, 37.92691], [-121.97437, 37.92691], [-121.97336, 37.92693], [-121.973, 37.92692], [-121.97223, 37.9269], [-121.96981, 37.92682], [-121.96981, 37.92597], [-121.96981, 37.92581], [-121.96857, 37.92579], [-121.9679, 37.92578], [-121.96772, 37.92578], [-121.96766, 37.92578], [-121.96751, 37.92578], [-121.96751, 37.92541], [-121.96752, 37.92527], [-121.96751, 37.92523], [-121.9675, 37.92509], [-121.9675, 37.92505], [-121.96748, 37.92505], [-121.96685, 37.92505], [-121.96514, 37.92506], [-121.96497, 37.92508], [-121.96495, 37.926], [-121.96494, 37.92688], [-121.96376, 37.92689], [-121.96234, 37.92689], [-121.96213, 37.92689], [-121.96038, 37.9269], [-121.96035, 37.92925], [-121.96035, 37.92988], [-121.96035, 37.93405], [-121.96034, 37.93564], [-121.96034, 37.93645], [-121.96033, 37.93668], [-121.96032, 37.93736], [-121.96032, 37.93764], [-121.96025, 37.93764], [-121.95915, 37.93761], [-121.95847, 37.93757], [-121.95799, 37.93755], [-121.95796, 37.93753], [-121.95782, 37.93757], [-121.95775, 37.9376], [-121.95766, 37.9376], [-121.95766, 37.93755], [-121.95766, 37.93751], [-121.95766, 37.93748], [-121.95765, 37.93744], [-121.95764, 37.9374], [-121.95762, 37.93735], [-121.95761, 37.93732], [-121.95759, 37.93728], [-121.95756, 37.93724], [-121.95753, 37.93721], [-121.9575, 37.93717], [-121.95749, 37.93716], [-121.95748, 37.93715], [-121.95745, 37.93713], [-121.95738, 37.93706], [-121.95734, 37.93703], [-121.95732, 37.937], [-121.9573, 37.93697], [-121.95728, 37.93695], [-121.95727, 37.93693], [-121.95724, 37.93689], [-121.95723, 37.93686], [-121.95722, 37.93683], [-121.9572, 37.93677], [-121.95719, 37.93673], [-121.95719, 37.9367], [-121.95713, 37.9361], [-121.95713, 37.93574], [-121.95718, 37.93574], [-121.95714, 37.93538], [-121.95712, 37.93513], [-121.95705, 37.93431], [-121.95703, 37.93407], [-121.9569, 37.93407], [-121.95587, 37.93404], [-121.95566, 37.93404], [-121.95213, 37.93401], [-121.95105, 37.93401], [-121.94972, 37.93401], [-121.94564, 37.93399], [-121.94486, 37.93398], [-121.94508, 37.93452], [-121.9452, 37.93481], [-121.94515, 37.93491], [-121.945, 37.93521], [-121.94525, 37.93553], [-121.94544, 37.93579], [-121.94549, 37.93586], [-121.94562, 37.93603], [-121.94571, 37.93615], [-121.94557, 37.93645], [-121.94551, 37.93658], [-121.9456, 37.93671], [-121.94566, 37.93682], [-121.94583, 37.93709], [-121.94589, 37.93718], [-121.94599, 37.93733], [-121.94601, 37.93736], [-121.94575, 37.93736], [-121.94559, 37.93735], [-121.94523, 37.93735], [-121.94489, 37.93735], [-121.94476, 37.93735], [-121.94426, 37.93734], [-121.94427, 37.93744], [-121.94426, 37.93793], [-121.94426, 37.93876], [-121.94426, 37.93883], [-121.94426, 37.9392], [-121.94427, 37.93963], [-121.94427, 37.94027], [-121.94427, 37.94123], [-121.94482, 37.94123], [-121.94493, 37.94123], [-121.94523, 37.94123], [-121.94568, 37.94123], [-121.94663, 37.94123], [-121.94678, 37.94122], [-121.94707, 37.94122], [-121.94715, 37.94122], [-121.94753, 37.94122], [-121.9476, 37.94122], [-121.94782, 37.94122], [-121.94789, 37.94122], [-121.94806, 37.94122], [-121.9482, 37.94122], [-121.94835, 37.94123], [-121.9489, 37.94123], [-121.94912, 37.94123], [-121.94943, 37.94124], [-121.94947, 37.94124], [-121.94958, 37.94124], [-121.94962, 37.94123], [-121.94989, 37.94123], [-121.95049, 37.94124], [-121.95068, 37.94124], [-121.95094, 37.94124], [-121.95094, 37.94131], [-121.95094, 37.94135], [-121.95103, 37.94135], [-121.95103, 37.94169], [-121.95103, 37.94177], [-121.95103, 37.94191], [-121.95103, 37.94212], [-121.95103, 37.94213], [-121.95103, 37.94233], [-121.95103, 37.94263], [-121.95103, 37.94272], [-121.95103, 37.94319], [-121.95102, 37.94356], [-121.95102, 37.94396], [-121.95102, 37.94415], [-121.95102, 37.94457], [-121.95102, 37.94478], [-121.95101, 37.94498], [-121.95101, 37.94524], [-121.95101, 37.94582], [-121.95101, 37.94614], [-121.95101, 37.94644], [-121.95101, 37.94671], [-121.951, 37.94699], [-121.951, 37.94726], [-121.951, 37.94756], [-121.951, 37.94784], [-121.951, 37.94815], [-121.951, 37.94841], [-121.95096, 37.94845], [-121.95092, 37.9485], [-121.951, 37.94854], [-121.951, 37.94857], [-121.951, 37.9486], [-121.951, 37.94863], [-121.95113, 37.94871], [-121.95184, 37.94909], [-121.95187, 37.94906], [-121.95228, 37.94928], [-121.95241, 37.94936], [-121.95257, 37.94945], [-121.95277, 37.94956], [-121.95297, 37.94967], [-121.95317, 37.94978], [-121.95336, 37.94989], [-121.95357, 37.95], [-121.95376, 37.95011], [-121.95397, 37.95023], [-121.95416, 37.95033], [-121.95436, 37.95044], [-121.95456, 37.95055], [-121.95476, 37.95066], [-121.95489, 37.95073], [-121.95503, 37.95081], [-121.95517, 37.95089], [-121.95546, 37.95105], [-121.95584, 37.95126], [-121.95602, 37.95135], [-121.95608, 37.95138], [-121.95629, 37.95149], [-121.95658, 37.95163], [-121.95647, 37.95176], [-121.95637, 37.95186], [-121.95636, 37.95191], [-121.95624, 37.9523], [-121.95642, 37.95244], [-121.95652, 37.95253], [-121.95634, 37.95267], [-121.9559, 37.95302], [-121.95536, 37.9534], [-121.95529, 37.95344], [-121.95522, 37.95349], [-121.95484, 37.95373], [-121.95467, 37.95385], [-121.9547, 37.95387], [-121.9545, 37.95401], [-121.95442, 37.95407], [-121.95403, 37.95435], [-121.95379, 37.95433], [-121.95378, 37.95444], [-121.95385, 37.9545], [-121.95376, 37.95457], [-121.95347, 37.9548], [-121.95329, 37.95494], [-121.95291, 37.95524], [-121.95287, 37.95528], [-121.9524, 37.95565], [-121.95234, 37.95563], [-121.9522, 37.95552], [-121.95169, 37.95511], [-121.95169, 37.95457], [-121.95169, 37.95425], [-121.95242, 37.95366], [-121.95247, 37.95362], [-121.95217, 37.95345], [-121.95135, 37.953], [-121.95121, 37.9528], [-121.95116, 37.95271], [-121.951, 37.95247], [-121.951, 37.95215], [-121.951, 37.95193], [-121.95053, 37.95177], [-121.95024, 37.95173], [-121.9501, 37.95171], [-121.94978, 37.95166], [-121.94964, 37.95164], [-121.9494, 37.95162], [-121.94923, 37.9516], [-121.94905, 37.95151], [-121.94876, 37.95137], [-121.94846, 37.95122], [-121.94834, 37.95121], [-121.94814, 37.95119], [-121.94805, 37.95114], [-121.94776, 37.95097], [-121.94749, 37.95082], [-121.9474, 37.95082], [-121.94695, 37.95083], [-121.94693, 37.95087], [-121.94688, 37.95094], [-121.94685, 37.95105], [-121.94685, 37.95106], [-121.94681, 37.95119], [-121.94672, 37.95147], [-121.94669, 37.95156], [-121.94662, 37.95166], [-121.9466, 37.95168], [-121.94643, 37.9519], [-121.94641, 37.95192], [-121.94626, 37.9521], [-121.94619, 37.9522], [-121.94608, 37.95234], [-121.94591, 37.95255], [-121.94574, 37.95276], [-121.94562, 37.95293], [-121.94556, 37.953], [-121.94536, 37.95325], [-121.94509, 37.95359], [-121.9449, 37.95382], [-121.94483, 37.95393], [-121.94466, 37.95413], [-121.94437, 37.95425], [-121.9441, 37.95435], [-121.94392, 37.95437], [-121.94362, 37.95441], [-121.9435, 37.95442], [-121.94344, 37.95441], [-121.94303, 37.95438], [-121.94274, 37.95443], [-121.94243, 37.95449], [-121.94234, 37.9545], [-121.94218, 37.95453], [-121.94206, 37.95456], [-121.94206, 37.95463], [-121.94168, 37.95473], [-121.94135, 37.95482], [-121.94094, 37.95493], [-121.94073, 37.95498], [-121.94048, 37.95505], [-121.94023, 37.95511], [-121.94015, 37.95514], [-121.93992, 37.95523], [-121.93972, 37.95536], [-121.93969, 37.95541], [-121.93948, 37.95567], [-121.93933, 37.95586], [-121.93683, 37.95583], [-121.93307, 37.95579], [-121.93307, 37.9558], [-121.93283, 37.95579], [-121.93286, 37.95786], [-121.93286, 37.95801], [-121.93288, 37.95959], [-121.9329, 37.96139], [-121.93292, 37.96168], [-121.93292, 37.96177], [-121.93296, 37.96491], [-121.93299, 37.96767], [-121.93299, 37.96776], [-121.93302, 37.96835], [-121.93538, 37.9683], [-121.93532, 37.96651], [-121.93761, 37.96652], [-121.9382, 37.96647], [-121.93825, 37.96647], [-121.9385, 37.96647], [-121.93853, 37.96647], [-121.94031, 37.96648], [-121.94044, 37.96648], [-121.94048, 37.96768], [-121.94046, 37.96774], [-121.94036, 37.96804], [-121.93997, 37.96916], [-121.93943, 37.97075], [-121.93914, 37.9716], [-121.93914, 37.97347], [-121.93914, 37.97626], [-121.93915, 37.97654], [-121.93914, 37.97987], [-121.94215, 37.98166], [-121.94316, 37.98225], [-121.94419, 37.98287], [-121.94464, 37.98313], [-121.94475, 37.9832], [-121.94569, 37.98376], [-121.95109, 37.98696], [-121.9513, 37.9871], [-121.95283, 37.988], [-121.95341, 37.98833], [-121.95372, 37.98851], [-121.95737, 37.99067], [-121.96019, 37.99234], [-121.96645, 37.99603], [-121.9687, 37.99735], [-121.96935, 37.99798], [-121.97412, 38.00261], [-121.97843, 38.00677], [-121.97961, 38.00794], [-121.9799, 38.00822], [-121.98126, 38.00954], [-121.98138, 38.00965], [-121.98146, 38.00974], [-121.98151, 38.00979], [-121.98256, 38.01082], [-121.98331, 38.01156], [-121.98353, 38.01177], [-121.98358, 38.01182], [-121.98491, 38.01311], [-121.98509, 38.01328], [-121.98547, 38.01365], [-121.98608, 38.01425], [-121.98772, 38.01585], [-121.98787, 38.01577], [-121.99014, 38.01484], [-121.99135, 38.01472], [-121.9919, 38.01451], [-121.99287, 38.01356], [-121.99295, 38.01334], [-121.99346, 38.01313], [-121.99438, 38.01275], [-121.99505, 38.01248], [-121.99514, 38.01244], [-121.99529, 38.01238], [-121.9964, 38.01219], [-121.99669, 38.01131], [-121.99671, 38.01116], [-121.99672, 38.01114], [-121.99687, 38.01065], [-121.9971, 38.0106], [-121.99729, 38.01057], [-121.99731, 38.01089], [-121.99742, 38.01122], [-121.99767, 38.01201], [-121.99796, 38.01264], [-121.99804, 38.01278], [-121.99882, 38.01261], [-121.99896, 38.01257], [-121.99983, 38.01226], [-122.00118, 38.01195], [-122.00165, 38.01185], [-122.00215, 38.01176], [-122.00257, 38.01246], [-122.00268, 38.01256], [-122.00306, 38.01292], [-122.00348, 38.01332], [-122.00362, 38.01344], [-122.00369, 38.0135], [-122.00383, 38.0136], [-122.00492, 38.01437], [-122.00534, 38.01472], [-122.00545, 38.01482], [-122.00878, 38.01687], [-122.01052, 38.01678], [-122.01133, 38.01715], [-122.01167, 38.01731], [-122.01178, 38.01758], [-122.01185, 38.01766], [-122.01241, 38.01852], [-122.01247, 38.01865], [-122.01327, 38.01884], [-122.01419, 38.01906], [-122.01514, 38.01929], [-122.01525, 38.0195], [-122.01592, 38.02019], [-122.01717, 38.02056], [-122.01872, 38.02075], [-122.01896, 38.02102], [-122.01911, 38.02114], [-122.01939, 38.02146], [-122.01955, 38.02163], [-122.01972, 38.02182], [-122.01987, 38.0219], [-122.02142, 38.02248], [-122.02283, 38.02274], [-122.02306, 38.02254], [-122.02355, 38.02213], [-122.02396, 38.02179], [-122.02403, 38.02173], [-122.02439, 38.02142], [-122.02461, 38.02155], [-122.0247, 38.02152], [-122.02477, 38.02143], [-122.02534, 38.02105], [-122.02536, 38.02103], [-122.02548, 38.02094], [-122.0257, 38.02079], [-122.02591, 38.02066], [-122.02599, 38.02059], [-122.02618, 38.02045], [-122.02621, 38.02043], [-122.02677, 38.02065], [-122.02742, 38.02095], [-122.02778, 38.02123], [-122.02772, 38.0211], [-122.02777, 38.02098], [-122.02772, 38.02087], [-122.02763, 38.02065], [-122.02746, 38.02035], [-122.02816, 38.02039], [-122.02991, 38.02049], [-122.0305, 38.02052], [-122.03125, 38.02057], [-122.03396, 38.02017], [-122.03403, 38.0198], [-122.03409, 38.01979], [-122.03412, 38.0196], [-122.03421, 38.01904], [-122.03424, 38.01889], [-122.03344, 38.01878], [-122.03332, 38.01877], [-122.03263, 38.01867], [-122.03281, 38.01787], [-122.03285, 38.01767], [-122.03283, 38.01732], [-122.03274, 38.01698], [-122.03274, 38.0169], [-122.03271, 38.01682], [-122.03214, 38.01434], [-122.03198, 38.01437], [-122.03195, 38.01429], [-122.03191, 38.01413], [-122.03237, 38.01406], [-122.03253, 38.01404], [-122.03264, 38.01402], [-122.03297, 38.01397], [-122.03308, 38.01396], [-122.03348, 38.0139], [-122.03467, 38.01373], [-122.03507, 38.01367], [-122.03516, 38.01366], [-122.03543, 38.01362], [-122.03552, 38.01361], [-122.03562, 38.01359], [-122.03619, 38.01351], [-122.03642, 38.01348], [-122.03717, 38.01336], [-122.03789, 38.01323], [-122.03817, 38.01319], [-122.03833, 38.01317], [-122.0388, 38.01311], [-122.03884, 38.0131], [-122.03928, 38.01314], [-122.04236, 38.01269], [-122.04231, 38.01253], [-122.04215, 38.0118], [-122.04331, 38.01163], [-122.04606, 38.01123], [-122.04601, 38.01106], [-122.04573, 38.00984], [-122.04541, 38.00853], [-122.04647, 38.00699], [-122.04839, 38.00622], [-122.04836, 38.00613], [-122.04835, 38.0061], [-122.04812, 38.00556], [-122.04791, 38.00497], [-122.0478, 38.00469], [-122.04804, 38.00308], [-122.04803, 38.00298], [-122.04813, 38.00298], [-122.04842, 38.00301], [-122.04857, 38.00304], [-122.04876, 38.00309], [-122.04926, 38.00322], [-122.04952, 38.00326], [-122.04978, 38.00328], [-122.05003, 38.00327], [-122.05016, 38.00326], [-122.05034, 38.00324], [-122.05059, 38.00319], [-122.05069, 38.00316], [-122.05092, 38.00308], [-122.05185, 38.0028], [-122.05222, 38.00268], [-122.05258, 38.00257], [-122.05292, 38.00247], [-122.05319, 38.00241], [-122.05334, 38.00238], [-122.05372, 38.00233], [-122.05394, 38.0023], [-122.05386, 38.00221], [-122.0538, 38.00217], [-122.05347, 38.00136], [-122.05338, 38.00109], [-122.0533, 38.00079], [-122.05329, 38.00077], [-122.05318, 38.00042], [-122.05326, 38.00032], [-122.0561, 37.99966], [-122.05607, 37.99958], [-122.05595, 37.99942], [-122.05653, 37.99923], [-122.0564, 37.99902], [-122.05638, 37.99899], [-122.05633, 37.99892], [-122.05715, 37.99862], [-122.0568, 37.99847], [-122.05663, 37.99821], [-122.05558, 37.99655], [-122.05546, 37.9964], [-122.05423, 37.99479], [-122.05285, 37.99298], [-122.05178, 37.99142], [-122.0516, 37.99111], [-122.05109, 37.98986], [-122.05094, 37.9896], [-122.05078, 37.98917], [-122.05065, 37.98864], [-122.05057, 37.9879], [-122.0506, 37.98738], [-122.05237, 37.9811], [-122.05247, 37.98074], [-122.0525, 37.98062], [-122.05253, 37.98053], [-122.05285, 37.98058], [-122.05303, 37.98061], [-122.05356, 37.98069], [-122.05396, 37.9807], [-122.05453, 37.98064], [-122.05481, 37.98059], [-122.0559, 37.9802], [-122.05608, 37.98009], [-122.05649, 37.97992], [-122.05717, 37.97963], [-122.05785, 37.97934], [-122.05849, 37.97905], [-122.05885, 37.97891], [-122.05914, 37.97879], [-122.05992, 37.97846], [-122.06039, 37.97825], [-122.06064, 37.97814], [-122.06078, 37.97807], [-122.06119, 37.97788], [-122.06155, 37.9777], [-122.06192, 37.97746], [-122.06258, 37.97697], [-122.0628, 37.97681], [-122.06297, 37.97667], [-122.0632, 37.97648], [-122.06346, 37.97633], [-122.06389, 37.9761], [-122.06393, 37.97608], [-122.06395, 37.97606], [-122.06405, 37.97599], [-122.06373, 37.9755], [-122.06388, 37.97556], [-122.06453, 37.97582], [-122.06457, 37.9758]], [[-121.97157, 37.97046], [-121.97122, 37.97074], [-121.97115, 37.9708], [-121.97056, 37.9713], [-121.97021, 37.97159], [-121.97012, 37.97166], [-121.97002, 37.97174], [-121.96981, 37.97191], [-121.96904, 37.97254], [-121.9686, 37.97292], [-121.96833, 37.97248], [-121.9682, 37.97225], [-121.96806, 37.97201], [-121.96801, 37.97193], [-121.96787, 37.97166], [-121.96782, 37.97153], [-121.96772, 37.9712], [-121.96766, 37.97089], [-121.96765, 37.97054], [-121.96766, 37.97037], [-121.96767, 37.97024], [-121.96771, 37.96999], [-121.96778, 37.96975], [-121.96787, 37.96951], [-121.96796, 37.96925], [-121.96799, 37.96918], [-121.96807, 37.96896], [-121.96811, 37.96883], [-121.96815, 37.96874], [-121.96818, 37.96866], [-121.96827, 37.96841], [-121.96829, 37.96835], [-121.96836, 37.96815], [-121.96845, 37.96821], [-121.96846, 37.96822], [-121.96849, 37.96825], [-121.96878, 37.96845], [-121.96946, 37.96896], [-121.96988, 37.96922], [-121.97014, 37.96937], [-121.9705, 37.96959], [-121.97157, 37.97046]], [[-121.96826, 37.97312], [-121.96832, 37.97317], [-121.96756, 37.97308], [-121.96708, 37.97303], [-121.96629, 37.97294], [-121.96388, 37.97283], [-121.96207, 37.9712], [-121.962, 37.97117], [-121.96199, 37.97114], [-121.96195, 37.97104], [-121.96145, 37.97049], [-121.96141, 37.97045], [-121.96121, 37.97024], [-121.96114, 37.97017], [-121.9611, 37.97017], [-121.96097, 37.97017], [-121.9608, 37.96997], [-121.9602, 37.96958], [-121.95957, 37.96917], [-121.95972, 37.96915], [-121.96082, 37.96895], [-121.96089, 37.96894], [-121.96086, 37.9689], [-121.96068, 37.96864], [-121.96066, 37.96857], [-121.96066, 37.96855], [-121.96059, 37.96856], [-121.95988, 37.96869], [-121.9592, 37.96881], [-121.95906, 37.96884], [-121.95883, 37.96866], [-121.95866, 37.96851], [-121.95856, 37.96843], [-121.9585, 37.96838], [-121.95867, 37.96826], [-121.95882, 37.96816], [-121.95905, 37.96801], [-121.95912, 37.96796], [-121.95922, 37.96768], [-121.95936, 37.96766], [-121.95953, 37.96765], [-121.95969, 37.96763], [-121.95991, 37.96762], [-121.9604, 37.96759], [-121.96069, 37.96757], [-121.96099, 37.96756], [-121.96105, 37.96755], [-121.96113, 37.96754], [-121.96118, 37.96752], [-121.96124, 37.9675], [-121.9613, 37.96747], [-121.96162, 37.9673], [-121.96177, 37.96721], [-121.96191, 37.96712], [-121.96169, 37.96695], [-121.96159, 37.96696], [-121.96189, 37.96654], [-121.9621, 37.96629], [-121.96252, 37.96575], [-121.9626, 37.96564], [-121.96261, 37.96562], [-121.9625, 37.96559], [-121.9622, 37.96546], [-121.96186, 37.9653], [-121.96153, 37.96514], [-121.96136, 37.96506], [-121.96118, 37.96498], [-121.96125, 37.96489], [-121.96066, 37.96459], [-121.96106, 37.964], [-121.96083, 37.96389], [-121.96078, 37.96387], [-121.96035, 37.96444], [-121.96028, 37.96441], [-121.95993, 37.96485], [-121.95954, 37.96467], [-121.95947, 37.96463], [-121.95915, 37.96448], [-121.95921, 37.96441], [-121.95931, 37.96426], [-121.95948, 37.96403], [-121.95966, 37.96379], [-121.95985, 37.96353], [-121.95991, 37.96345], [-121.96014, 37.96356], [-121.96023, 37.9636], [-121.96027, 37.96354], [-121.96039, 37.96338], [-121.96047, 37.96333], [-121.96049, 37.96325], [-121.96054, 37.96318], [-121.96061, 37.96309], [-121.96066, 37.96302], [-121.9608, 37.96284], [-121.96068, 37.96276], [-121.96067, 37.96275], [-121.96062, 37.96273], [-121.96135, 37.96183], [-121.96162, 37.9615], [-121.9617, 37.96154], [-121.96195, 37.96165], [-121.96204, 37.96169], [-121.96207, 37.9617], [-121.96217, 37.96175], [-121.96221, 37.96177], [-121.9623, 37.96181], [-121.96257, 37.96194], [-121.96267, 37.96198], [-121.96284, 37.96206], [-121.96326, 37.96227], [-121.96335, 37.96231], [-121.96352, 37.96239], [-121.96338, 37.96257], [-121.96309, 37.96295], [-121.96293, 37.96315], [-121.96334, 37.96324], [-121.96354, 37.9633], [-121.96357, 37.96331], [-121.9637, 37.9634], [-121.96374, 37.96342], [-121.96387, 37.96346], [-121.964, 37.96356], [-121.96402, 37.96358], [-121.96407, 37.96363], [-121.96417, 37.9635], [-121.96422, 37.96344], [-121.96425, 37.96339], [-121.9645, 37.96308], [-121.96458, 37.96297], [-121.96471, 37.96306], [-121.96479, 37.96311], [-121.96505, 37.96328], [-121.96536, 37.96349], [-121.9654, 37.96352], [-121.96561, 37.96366], [-121.96571, 37.96374], [-121.96604, 37.96397], [-121.96615, 37.96405], [-121.96628, 37.96414], [-121.96642, 37.96424], [-121.96665, 37.96442], [-121.96678, 37.96452], [-121.9669, 37.9646], [-121.96722, 37.96485], [-121.96725, 37.96487], [-121.96737, 37.96496], [-121.96755, 37.96509], [-121.96808, 37.96548], [-121.96825, 37.96561], [-121.96812, 37.96576], [-121.96771, 37.9662], [-121.96758, 37.96635], [-121.96753, 37.9664], [-121.96738, 37.96654], [-121.96737, 37.96655], [-121.96827, 37.96721], [-121.96826, 37.96722], [-121.96814, 37.96737], [-121.96806, 37.96747], [-121.9674, 37.96803], [-121.96737, 37.96806], [-121.96735, 37.96808], [-121.96744, 37.96814], [-121.96754, 37.96821], [-121.96766, 37.9683], [-121.96804, 37.96858], [-121.96804, 37.96872], [-121.96757, 37.96838], [-121.96744, 37.9683], [-121.96731, 37.96841], [-121.96714, 37.96856], [-121.96712, 37.96857], [-121.96696, 37.96871], [-121.9666, 37.96902], [-121.96647, 37.96913], [-121.9666, 37.96922], [-121.96689, 37.96944], [-121.96711, 37.9696], [-121.96723, 37.96969], [-121.96744, 37.96985], [-121.96752, 37.9699], [-121.96737, 37.9703], [-121.96723, 37.9707], [-121.96712, 37.97101], [-121.967, 37.97133], [-121.96685, 37.97171], [-121.96707, 37.97193], [-121.96736, 37.97223], [-121.968, 37.97287], [-121.96803, 37.9729], [-121.9681, 37.97298], [-121.96826, 37.97312]]]}}, {"type": "Feature", "properties": {"name": "Antioch", "kind": "city", "geoid": "0602252"}, "geometry": {"type": "Polygon", "coordinates": [[[-121.86059, 37.99053], [-121.86059, 37.99039], [-121.86059, 37.99032], [-121.86059, 37.98999], [-121.86057, 37.98911], [-121.86053, 37.98641], [-121.86049, 37.98397], [-121.86048, 37.98316], [-121.85764, 37.98318], [-121.85465, 37.98322], [-121.85128, 37.98319], [-121.85127, 37.96872], [-121.85046, 37.96872], [-121.84513, 37.96872], [-121.84369, 37.96871], [-121.84239, 37.96871], [-121.83767, 37.96862], [-121.8376, 37.96862], [-121.8376, 37.9678], [-121.8376, 37.96778], [-121.83759, 37.96767], [-121.83626, 37.96696], [-121.83446, 37.96601], [-121.83382, 37.96588], [-121.83352, 37.96573], [-121.8331, 37.96572], [-121.8329, 37.96571], [-121.83285, 37.96571], [-121.8326, 37.96572], [-121.83232, 37.96574], [-121.83208, 37.96573], [-121.83157, 37.9657], [-121.83153, 37.96569], [-121.83144, 37.9657], [-121.83111, 37.9657], [-121.82861, 37.96566], [-121.82795, 37.96565], [-121.82745, 37.96565], [-121.82486, 37.96561], [-121.82386, 37.9656], [-121.82386, 37.96572], [-121.82255, 37.96574], [-121.82243, 37.96541], [-121.82241, 37.96534], [-121.8224, 37.9653], [-121.82236, 37.96518], [-121.82234, 37.96513], [-121.82222, 37.96474], [-121.82186, 37.96366], [-121.82183, 37.96357], [-121.82174, 37.96333], [-121.82174, 37.96318], [-121.82174, 37.96309], [-121.82178, 37.96281], [-121.82193, 37.9624], [-121.82229, 37.96162], [-121.82259, 37.96106], [-121.8228, 37.96071], [-121.82281, 37.96069], [-121.82302, 37.96017], [-121.82312, 37.95985], [-121.82317, 37.95955], [-121.82328, 37.959], [-121.82341, 37.9585], [-121.82343, 37.95833], [-121.82345, 37.95788], [-121.82345, 37.95724], [-121.82348, 37.95705], [-121.82357, 37.95686], [-121.82368, 37.95664], [-121.82373, 37.9565], [-121.82374, 37.9561], [-121.82385, 37.9559], [-121.82404, 37.95577], [-121.82405, 37.95459], [-121.82332, 37.95425], [-121.8233, 37.95408], [-121.82322, 37.95406], [-121.82298, 37.95402], [-121.82291, 37.95401], [-121.82277, 37.95398], [-121.82252, 37.95385], [-121.82235, 37.95376], [-121.82219, 37.95361], [-121.82207, 37.95352], [-121.82139, 37.95321], [-121.82119, 37.95312], [-121.82098, 37.953], [-121.82096, 37.95294], [-121.82095, 37.95288], [-121.82098, 37.95277], [-121.82106, 37.95261], [-121.8213, 37.95233], [-121.82155, 37.9522], [-121.82187, 37.95207], [-121.82249, 37.95178], [-121.82309, 37.95157], [-121.82344, 37.95144], [-121.82394, 37.95123], [-121.82395, 37.9502], [-121.82398, 37.94935], [-121.82397, 37.94897], [-121.82397, 37.94889], [-121.82395, 37.9485], [-121.82394, 37.9482], [-121.82405, 37.94479], [-121.82405, 37.94443], [-121.82405, 37.93935], [-121.82398, 37.93933], [-121.81822, 37.93934], [-121.81193, 37.93938], [-121.81134, 37.93938], [-121.80972, 37.93935], [-121.80838, 37.93935], [-121.80787, 37.93938], [-121.80708, 37.9394], [-121.80652, 37.9394], [-121.80597, 37.93941], [-121.8054, 37.93941], [-121.8054, 37.93939], [-121.8054, 37.939], [-121.80834, 37.93898], [-121.8182, 37.93893], [-121.82404, 37.9389], [-121.82404, 37.93836], [-121.82404, 37.93752], [-121.824, 37.93537], [-121.82063, 37.93404], [-121.81699, 37.9335], [-121.81338, 37.93216], [-121.8084, 37.93222], [-121.80545, 37.93224], [-121.80541, 37.92938], [-121.79642, 37.92619], [-121.78839, 37.92319], [-121.78782, 37.92298], [-121.78496, 37.9219], [-121.77872, 37.92086], [-121.77862, 37.92085], [-121.77858, 37.92103], [-121.77858, 37.92104], [-121.77855, 37.92122], [-121.77852, 37.92137], [-121.77847, 37.92172], [-121.77846, 37.92174], [-121.77843, 37.92192], [-121.77842, 37.92202], [-121.77833, 37.92252], [-121.77832, 37.92258], [-121.77828, 37.92276], [-121.77816, 37.92326], [-121.77813, 37.92345], [-121.77811, 37.9236], [-121.7781, 37.92376], [-121.7781, 37.92392], [-121.7781, 37.92408], [-121.77812, 37.92454], [-121.77812, 37.92459], [-121.77812, 37.92479], [-121.77811, 37.92527], [-121.77808, 37.92634], [-121.77808, 37.92691], [-121.77808, 37.92694], [-121.77808, 37.92705], [-121.77807, 37.92722], [-121.77806, 37.92738], [-121.77803, 37.92764], [-121.77799, 37.92786], [-121.77795, 37.92799], [-121.77791, 37.92807], [-121.77787, 37.92816], [-121.77782, 37.92824], [-121.77759, 37.92856], [-121.77744, 37.92878], [-121.77729, 37.929], [-121.77723, 37.92911], [-121.77715, 37.92929], [-121.77712, 37.92938], [-121.7771, 37.92947], [-121.77708, 37.92956], [-121.77706, 37.92977], [-121.77705, 37.93008], [-121.77704, 37.93074], [-121.77704, 37.93106], [-121.77706, 37.93119], [-121.77708, 37.93132], [-121.7771, 37.93144], [-121.77714, 37.93157], [-121.77718, 37.93167], [-121.77718, 37.93168], [-121.77722, 37.93176], [-121.77727, 37.93185], [-121.77751, 37.93223], [-121.77773, 37.93254], [-121.77784, 37.93272], [-121.77789, 37.93281], [-121.77794, 37.9329], [-121.77797, 37.93299], [-121.77799, 37.93307], [-121.778, 37.93313], [-121.77908, 37.93315], [-121.77923, 37.93315], [-121.77938, 37.93314], [-121.77952, 37.93313], [-121.77964, 37.93311], [-121.77967, 37.93311], [-121.77991, 37.93307], [-121.78144, 37.93279], [-121.78165, 37.93276], [-121.78187, 37.93271], [-121.78208, 37.93267], [-121.7823, 37.93261], [-121.78251, 37.93255], [-121.78291, 37.93253], [-121.78321, 37.93251], [-121.78351, 37.93251], [-121.7838, 37.93251], [-121.7841, 37.93251], [-121.78439, 37.93252], [-121.78452, 37.93252], [-121.78617, 37.9325], [-121.78692, 37.93249], [-121.78722, 37.93249], [-121.78722, 37.93746], [-121.78722, 37.93762], [-121.78722, 37.93898], [-121.78724, 37.93968], [-121.78609, 37.93968], [-121.77356, 37.93975], [-121.77278, 37.93972], [-121.7602, 37.93975], [-121.75991, 37.93976], [-121.75636, 37.93975], [-121.75358, 37.93979], [-121.7514, 37.93982], [-121.7509, 37.93982], [-121.75082, 37.93982], [-121.75078, 37.94308], [-121.75078, 37.9441], [-121.75078, 37.9443], [-121.75077, 37.94569], [-121.75077, 37.94652], [-121.75077, 37.94712], [-121.75077, 37.94723], [-121.75079, 37.94729], [-121.75078, 37.94748], [-121.75078, 37.94768], [-121.75078, 37.94831], [-121.75078, 37.95005], [-121.75077, 37.95101], [-121.75076, 37.95189], [-121.75076, 37.95194], [-121.75076, 37.95308], [-121.75076, 37.95386], [-121.75076, 37.95438], [-121.75076, 37.95447], [-121.75077, 37.95476], [-121.75077, 37.95502], [-121.75076, 37.95595], [-121.75077, 37.95622], [-121.75077, 37.95679], [-121.75077, 37.95688], [-121.75077, 37.957], [-121.75077, 37.95729], [-121.75077, 37.95737], [-121.75077, 37.95754], [-121.75076, 37.95807], [-121.75076, 37.95816], [-121.75076, 37.95845], [-121.75076, 37.95898], [-121.75076, 37.95909], [-121.75076, 37.95988], [-121.75078, 37.96103], [-121.75078, 37.96152], [-121.75059, 37.96152], [-121.75039, 37.96152], [-121.75003, 37.96152], [-121.74808, 37.96152], [-121.74799, 37.96152], [-121.74795, 37.96152], [-121.74785, 37.96152], [-121.74754, 37.96152], [-121.74737, 37.96152], [-121.747, 37.96152], [-121.74652, 37.96151], [-121.74599, 37.96151], [-121.74439, 37.96151], [-121.74438, 37.96151], [-121.74335, 37.96151], [-121.74288, 37.96151], [-121.74278, 37.96151], [-121.74274, 37.96151], [-121.74163, 37.9615], [-121.74158, 37.9615], [-121.74146, 37.9615], [-121.74122, 37.9615], [-121.74069, 37.9615], [-121.73696, 37.96148], [-121.73608, 37.96148], [-121.73395, 37.96147], [-121.73272, 37.96146], [-121.73259, 37.96146], [-121.73249, 37.96146], [-121.73242, 37.96146], [-121.73242, 37.96164], [-121.73242, 37.96178], [-121.73242, 37.96242], [-121.73242, 37.96315], [-121.73242, 37.96388], [-121.73241, 37.96459], [-121.73238, 37.96459], [-121.73238, 37.96511], [-121.73239, 37.96589], [-121.7324, 37.96681], [-121.73241, 37.96722], [-121.7324, 37.96738], [-121.7324, 37.96878], [-121.7324, 37.9688], [-121.7324, 37.96894], [-121.73239, 37.97045], [-121.73239, 37.9711], [-121.73239, 37.97125], [-121.73245, 37.97131], [-121.73248, 37.97135], [-121.73258, 37.97147], [-121.73352, 37.97251], [-121.73401, 37.97305], [-121.7363, 37.97558], [-121.73718, 37.97655], [-121.73779, 37.97722], [-121.7395, 37.97908], [-121.74021, 37.97985], [-121.74108, 37.98075], [-121.74122, 37.98089], [-121.74142, 37.98111], [-121.7415, 37.98118], [-121.74234, 37.98197], [-121.74274, 37.98234], [-121.74338, 37.9829], [-121.74344, 37.98295], [-121.74359, 37.98308], [-121.74362, 37.9831], [-121.74376, 37.98322], [-121.74518, 37.98445], [-121.7453, 37.98436], [-121.75019, 37.98807], [-121.75004, 37.9882], [-121.7504, 37.98848], [-121.7505, 37.98855], [-121.75064, 37.98866], [-121.75144, 37.98921], [-121.7516, 37.98932], [-121.75328, 37.99038], [-121.75341, 37.99046], [-121.75402, 37.99085], [-121.75421, 37.99096], [-121.7564, 37.99205], [-121.75622, 37.99221], [-121.75586, 37.99273], [-121.75587, 37.99283], [-121.75587, 37.99299], [-121.75588, 37.99356], [-121.75589, 37.99408], [-121.7558, 37.99448], [-121.7557, 37.99505], [-121.75558, 37.9956], [-121.75527, 37.9972], [-121.75525, 37.99725], [-121.7551, 37.99779], [-121.75497, 37.99825], [-121.75492, 37.99834], [-121.75461, 37.99939], [-121.75442, 38.00003], [-121.75416, 38.00091], [-121.75411, 38.00107], [-121.75369, 38.00252], [-121.7535, 38.00314], [-121.75324, 38.00351], [-121.75297, 38.00377], [-121.75289, 38.00385], [-121.75259, 38.00413], [-121.75249, 38.00422], [-121.75234, 38.00436], [-121.75235, 38.00469], [-121.75235, 38.00484], [-121.75229, 38.00487], [-121.75216, 38.00492], [-121.75216, 38.00502], [-121.75217, 38.00515], [-121.75217, 38.00525], [-121.75223, 38.00525], [-121.75306, 38.00524], [-121.75296, 38.00582], [-121.75291, 38.00613], [-121.75274, 38.00685], [-121.75252, 38.00784], [-121.75229, 38.00883], [-121.75228, 38.00895], [-121.75231, 38.00904], [-121.75241, 38.00912], [-121.75238, 38.00926], [-121.75237, 38.00933], [-121.75076, 38.00908], [-121.75078, 38.00971], [-121.75078, 38.00975], [-121.75077, 38.01103], [-121.75077, 38.01161], [-121.75077, 38.01181], [-121.75078, 38.01224], [-121.75089, 38.01224], [-121.75088, 38.01231], [-121.75088, 38.01233], [-121.75123, 38.01233], [-121.75145, 38.01233], [-121.75137, 38.01228], [-121.75134, 38.01226], [-121.7513, 38.01223], [-121.75146, 38.01224], [-121.75149, 38.01224], [-121.75195, 38.01225], [-121.75204, 38.01225], [-121.75222, 38.01225], [-121.7529, 38.01225], [-121.75296, 38.01225], [-121.7532, 38.01225], [-121.75393, 38.01225], [-121.75418, 38.01226], [-121.7543, 38.01226], [-121.75467, 38.01226], [-121.75479, 38.01226], [-121.75493, 38.01226], [-121.755, 38.01227], [-121.75563, 38.01227], [-121.75576, 38.01227], [-121.75712, 38.01227], [-121.75715, 38.01228], [-121.75715, 38.01334], [-121.75714, 38.0152], [-121.75715, 38.01781], [-121.75714, 38.01905], [-121.75715, 38.01954], [-121.75714, 38.01956], [-121.75714, 38.01959], [-121.75715, 38.01967], [-121.75717, 38.01983], [-121.75722, 38.01983], [-121.75724, 38.01982], [-121.7573, 38.01981], [-121.75786, 38.01994], [-121.7579, 38.01995], [-121.75833, 38.01998], [-121.7591, 38.02011], [-121.75967, 38.02017], [-121.76052, 38.02021], [-121.76064, 38.0202], [-121.76189, 38.01988], [-121.76201, 38.01986], [-121.7622, 38.01986], [-121.7623, 38.01987], [-121.7626, 38.01995], [-121.76287, 38.01996], [-121.76295, 38.01996], [-121.76301, 38.01994], [-121.7632, 38.01979], [-121.76326, 38.01971], [-121.76336, 38.01966], [-121.76345, 38.01964], [-121.76353, 38.01969], [-121.76362, 38.01972], [-121.7637, 38.01981], [-121.76377, 38.0198], [-121.76385, 38.01973], [-121.76396, 38.0197], [-121.76406, 38.01971], [-121.76414, 38.01975], [-121.76424, 38.01974], [-121.76431, 38.0197], [-121.76438, 38.01964], [-121.76443, 38.01962], [-121.7645, 38.0196], [-121.76458, 38.01957], [-121.76468, 38.01953], [-121.76475, 38.01953], [-121.7648, 38.01952], [-121.76488, 38.01949], [-121.76503, 38.01942], [-121.76515, 38.01935], [-121.76532, 38.01932], [-121.76537, 38.01923], [-121.7654, 38.01914], [-121.76534, 38.01899], [-121.7653, 38.01884], [-121.7653, 38.01874], [-121.76533, 38.01869], [-121.76549, 38.01871], [-121.76572, 38.01871], [-121.76587, 38.01876], [-121.76598, 38.01877], [-121.76609, 38.0188], [-121.76626, 38.01877], [-121.76636, 38.01874], [-121.76641, 38.01869], [-121.7665, 38.01868], [-121.7666, 38.01874], [-121.76667, 38.01877], [-121.76678, 38.01873], [-121.76688, 38.0187], [-121.767, 38.01866], [-121.76712, 38.01867], [-121.76717, 38.0187], [-121.7673, 38.0187], [-121.76736, 38.01875], [-121.76749, 38.01873], [-121.76758, 38.01866], [-121.76762, 38.01861], [-121.76762, 38.01854], [-121.76758, 38.01846], [-121.7677, 38.01839], [-121.76786, 38.01833], [-121.76803, 38.01828], [-121.76879, 38.01811], [-121.76929, 38.01796], [-121.76952, 38.01788], [-121.76966, 38.01778], [-121.76988, 38.0177], [-121.77088, 38.01724], [-121.77093, 38.01732], [-121.771, 38.01733], [-121.77108, 38.01724], [-121.77109, 38.01716], [-121.7712, 38.01703], [-121.77126, 38.01697], [-121.77132, 38.01693], [-121.77141, 38.01696], [-121.77146, 38.01701], [-121.77151, 38.01705], [-121.77158, 38.01704], [-121.77163, 38.01704], [-121.77166, 38.017], [-121.77163, 38.01696], [-121.77157, 38.01693], [-121.77157, 38.01688], [-121.7716, 38.01681], [-121.77166, 38.01673], [-121.77177, 38.0167], [-121.77186, 38.01662], [-121.77201, 38.01659], [-121.77209, 38.01655], [-121.77217, 38.01648], [-121.77232, 38.01648], [-121.77242, 38.01651], [-121.77261, 38.0165], [-121.77273, 38.01648], [-121.77286, 38.0164], [-121.77294, 38.01638], [-121.77313, 38.0163], [-121.77324, 38.01626], [-121.77333, 38.01625], [-121.77341, 38.01624], [-121.77349, 38.01625], [-121.77371, 38.01629], [-121.77377, 38.01629], [-121.77383, 38.01627], [-121.77448, 38.0162], [-121.77536, 38.01597], [-121.77608, 38.0158], [-121.77675, 38.01563], [-121.7772, 38.01548], [-121.77757, 38.01541], [-121.77767, 38.01538], [-121.77775, 38.01534], [-121.77791, 38.0152], [-121.77811, 38.01513], [-121.77825, 38.01506], [-121.7783, 38.01504], [-121.77893, 38.01495], [-121.77957, 38.0148], [-121.77968, 38.0148], [-121.77995, 38.01482], [-121.78004, 38.01484], [-121.78027, 38.01494], [-121.78038, 38.01497], [-121.78054, 38.01497], [-121.78069, 38.01496], [-121.78138, 38.01486], [-121.7815, 38.01486], [-121.78168, 38.01488], [-121.78215, 38.01502], [-121.7823, 38.01506], [-121.78247, 38.01508], [-121.78255, 38.01507], [-121.78293, 38.01487], [-121.78303, 38.01486], [-121.78331, 38.01494], [-121.78361, 38.01496], [-121.78369, 38.01498], [-121.78389, 38.01506], [-121.78395, 38.01506], [-121.7842, 38.01499], [-121.78435, 38.01496], [-121.78449, 38.01495], [-121.78456, 38.01497], [-121.78477, 38.01505], [-121.78499, 38.01508], [-121.78511, 38.01511], [-121.78524, 38.01517], [-121.78563, 38.01543], [-121.78577, 38.01547], [-121.78591, 38.01548], [-121.78608, 38.01548], [-121.78656, 38.01544], [-121.78686, 38.01543], [-121.78819, 38.01545], [-121.78874, 38.01546], [-121.78882, 38.01546], [-121.78906, 38.01548], [-121.78993, 38.01555], [-121.79053, 38.01568], [-121.79095, 38.01574], [-121.79138, 38.01578], [-121.79179, 38.01579], [-121.79212, 38.01583], [-121.79222, 38.01586], [-121.79279, 38.01608], [-121.79297, 38.0162], [-121.79303, 38.01622], [-121.79308, 38.01623], [-121.79338, 38.01623], [-121.79353, 38.01625], [-121.79405, 38.01642], [-121.79431, 38.01647], [-121.7946, 38.01649], [-121.79485, 38.01658], [-121.79527, 38.01664], [-121.79574, 38.01678], [-121.79597, 38.01687], [-121.79608, 38.01689], [-121.79622, 38.0169], [-121.79656, 38.01688], [-121.79671, 38.01687], [-121.79683, 38.01687], [-121.79693, 38.0169], [-121.79722, 38.01702], [-121.79774, 38.01713], [-121.79804, 38.01716], [-121.79818, 38.01715], [-121.79839, 38.01712], [-121.79853, 38.01708], [-121.79874, 38.01707], [-121.79882, 38.01705], [-121.79888, 38.017], [-121.79895, 38.01697], [-121.79901, 38.01696], [-121.79903, 38.01697], [-121.79907, 38.01702], [-121.7991, 38.01709], [-121.79914, 38.01719], [-121.79917, 38.01731], [-121.79935, 38.01734], [-121.79955, 38.01736], [-121.7996, 38.01739], [-121.79965, 38.0174], [-121.79988, 38.01741], [-121.80013, 38.01744], [-121.80026, 38.01746], [-121.80016, 38.02003], [-121.80013, 38.02093], [-121.80125, 38.02112], [-121.80127, 38.02162], [-121.80147, 38.02142], [-121.80245, 38.02137], [-121.80337, 38.02132], [-121.80487, 38.02112], [-121.80504, 38.02105], [-121.80681, 38.02076], [-121.80833, 38.02047], [-121.8088, 38.0204], [-121.80931, 38.02032], [-121.81065, 38.02029], [-121.8119, 38.02036], [-121.81331, 38.02053], [-121.81451, 38.02076], [-121.81567, 38.02104], [-121.81591, 38.02113], [-121.81695, 38.02152], [-121.81818, 38.02219], [-121.81902, 38.02288], [-121.81916, 38.02299], [-121.81975, 38.02338], [-121.82018, 38.02366], [-121.82125, 38.02443], [-121.82227, 38.02502], [-121.82267, 38.02532], [-121.82307, 38.02532], [-121.82349, 38.02552], [-121.82387, 38.02569], [-121.8249, 38.02628], [-121.82537, 38.02662], [-121.82568, 38.02675], [-121.82587, 38.02682], [-121.82684, 38.02739], [-121.82756, 38.0278], [-121.82767, 38.02792], [-121.82807, 38.02802], [-121.82837, 38.02822], [-121.82872, 38.02851], [-121.83021, 38.02965], [-121.83032, 38.02972], [-121.83078, 38.02955], [-121.8313, 38.03006], [-121.83534, 38.02977], [-121.83827, 38.02908], [-121.8383, 38.02744], [-121.83831, 38.02725], [-121.8383, 38.02703], [-121.83829, 38.02645], [-121.83827, 38.02589], [-121.83827, 38.02569], [-121.83827, 38.02561], [-121.83824, 38.02486], [-121.83823, 38.02427], [-121.84238, 38.02047], [-121.84238, 38.02044], [-121.84239, 38.01966], [-121.84239, 38.01905], [-121.8424, 38.01774], [-121.84242, 38.01589], [-121.84244, 38.01382], [-121.84244, 38.01311], [-121.84289, 38.01251], [-121.84298, 38.01242], [-121.84377, 38.01129], [-121.84413, 38.0108], [-121.84474, 38.01039], [-121.84481, 38.01023], [-121.8449, 38.01001], [-121.84466, 38.00995], [-121.8426, 38.00947], [-121.84245, 38.00943], [-121.84206, 38.00935], [-121.84119, 38.00917], [-121.84039, 38.009], [-121.83871, 38.00865], [-121.83703, 38.0083], [-121.83536, 38.00795], [-121.83463, 38.00779], [-121.83321, 38.00749], [-121.83328, 38.00742], [-121.83334, 38.00737], [-121.83351, 38.00719], [-121.83356, 38.00715], [-121.8338, 38.00692], [-121.83407, 38.00669], [-121.83427, 38.00654], [-121.83448, 38.00636], [-121.83499, 38.00594], [-121.83512, 38.00583], [-121.83533, 38.00564], [-121.83554, 38.00546], [-121.83582, 38.00521], [-121.83625, 38.00487], [-121.83645, 38.00508], [-121.83708, 38.00525], [-121.83782, 38.00545], [-121.83792, 38.00547], [-121.83799, 38.00548], [-121.83807, 38.00549], [-121.83812, 38.00549], [-121.83825, 38.0055], [-121.83835, 38.00549], [-121.83844, 38.00548], [-121.83853, 38.00547], [-121.83868, 38.00544], [-121.83876, 38.00542], [-121.83887, 38.00538], [-121.83903, 38.00532], [-121.83918, 38.00526], [-121.83932, 38.00518], [-121.83963, 38.00507], [-121.83981, 38.00502], [-121.83999, 38.00499], [-121.84018, 38.00498], [-121.84032, 38.00498], [-121.84061, 38.00505], [-121.84148, 38.0053], [-121.8441, 38.00603], [-121.84497, 38.00627], [-121.84696, 38.00682], [-121.85291, 38.00848], [-121.85489, 38.00903], [-121.85495, 38.00905], [-121.85514, 38.00911], [-121.8552, 38.00913], [-121.85538, 38.00919], [-121.85555, 38.00924], [-121.85556, 38.00922], [-121.85566, 38.00896], [-121.85573, 38.0088], [-121.85584, 38.00851], [-121.85596, 38.00821], [-121.85604, 38.00801], [-121.85609, 38.00786], [-121.85613, 38.00776], [-121.8562, 38.00758], [-121.85633, 38.00718], [-121.85644, 38.00686], [-121.85651, 38.00648], [-121.85659, 38.00606], [-121.85663, 38.00525], [-121.85661, 38.00479], [-121.85656, 38.00429], [-121.85634, 38.00178], [-121.85633, 38.00158], [-121.85607, 37.99849], [-121.85605, 37.99826], [-121.85603, 37.99807], [-121.85603, 37.998], [-121.85589, 37.998], [-121.85484, 37.99801], [-121.85477, 37.99801], [-121.85301, 37.998], [-121.85238, 37.998], [-121.85169, 37.998], [-121.85149, 37.998], [-121.85089, 37.99799], [-121.85089, 37.99785], [-121.85059, 37.99707], [-121.84979, 37.99654], [-121.8479, 37.99506], [-121.84874, 37.99434], [-121.84876, 37.99435], [-121.8488, 37.99432], [-121.84877, 37.99431], [-121.84913, 37.994], [-121.84994, 37.9933], [-121.85003, 37.99328], [-121.85017, 37.99316], [-121.85018, 37.9931], [-121.85052, 37.9928], [-121.85062, 37.99271], [-121.85073, 37.9926], [-121.85084, 37.9925], [-121.85094, 37.99239], [-121.85103, 37.99228], [-121.85112, 37.99216], [-121.85121, 37.99204], [-121.85132, 37.99189], [-121.8514, 37.99181], [-121.85142, 37.99178], [-121.85194, 37.99044], [-121.85201, 37.99044], [-121.85229, 37.99044], [-121.85239, 37.99044], [-121.85253, 37.99044], [-121.85267, 37.99044], [-121.85287, 37.99044], [-121.85306, 37.99043], [-121.85478, 37.99042], [-121.85489, 37.99042], [-121.85656, 37.99041], [-121.85747, 37.99041], [-121.85747, 37.99053], [-121.85753, 37.99053], [-121.85782, 37.99053], [-121.85782, 37.99049], [-121.85782, 37.9904], [-121.85882, 37.9904], [-121.85925, 37.99046], [-121.85968, 37.9905], [-121.86004, 37.99051], [-121.86037, 37.99052], [-121.86051, 37.99052], [-121.86059, 37.99053]], [[-121.85152, 37.98694], [-121.85156, 37.98928], [-121.85142, 37.98954], [-121.85123, 37.98955], [-121.85002, 37.98961], [-121.84975, 37.98975], [-121.84941, 37.99005], [-121.84943, 37.99015], [-121.84955, 37.99023], [-121.84989, 37.99045], [-121.84626, 37.99048], [-121.84477, 37.98933], [-121.84232, 37.98934], [-121.84231, 37.98862], [-121.84224, 37.98554], [-121.84472, 37.98616], [-121.84475, 37.98618], [-121.8453, 37.98637], [-121.84535, 37.98639], [-121.84573, 37.98646], [-121.84615, 37.98646], [-121.84697, 37.98646], [-121.8482, 37.98645], [-121.84916, 37.98645], [-121.84937, 37.98644], [-121.85, 37.98644], [-121.85021, 37.98644], [-121.8504, 37.98644], [-121.85063, 37.98644], [-121.85152, 37.98694]], [[-121.82505, 38.00597], [-121.82507, 38.0111], [-121.82342, 38.01108], [-121.82229, 38.01106], [-121.82206, 38.01106], [-121.82167, 38.01105], [-121.82065, 38.01104], [-121.82047, 38.01104], [-121.82047, 38.01084], [-121.82028, 38.01084], [-121.81968, 38.01084], [-121.81968, 38.01073], [-121.81968, 38.01069], [-121.81968, 38.01059], [-121.81968, 38.01029], [-121.81968, 38.01019], [-121.81968, 38.01011], [-121.81968, 38.00983], [-121.81969, 38.00926], [-121.81968, 38.00874], [-121.81967, 38.00838], [-121.81967, 38.00709], [-121.81968, 38.00657], [-121.81971, 38.00611], [-121.81977, 38.00551], [-121.81982, 38.005], [-121.8199, 38.00471], [-121.82011, 38.00474], [-121.82346, 38.00545], [-121.82505, 38.00578], [-121.82505, 38.00597]]]}}, {"type": "Feature", "properties": {"name": "Bay Point", "kind": "cdp", "geoid": "0604415"}, "geometry": {"type": "Polygon", "coordinates": [[[-122.00657, 38.0179], [-122.0066, 38.01751], [-122.00638, 38.01724], [-122.00594, 38.01677], [-122.00589, 38.01673], [-122.00567, 38.01626], [-122.00584, 38.01599], [-122.00596, 38.01577], [-122.00585, 38.01551], [-122.00547, 38.01522], [-122.00509, 38.01482], [-122.00476, 38.01442], [-122.00431, 38.01406], [-122.00409, 38.01389], [-122.00385, 38.01364], [-122.00369, 38.01353], [-122.00353, 38.01354], [-122.00355, 38.01351], [-122.00369, 38.0135], [-122.00362, 38.01344], [-122.00348, 38.01332], [-122.00306, 38.01292], [-122.00268, 38.01256], [-122.00257, 38.01246], [-122.00215, 38.01176], [-122.00165, 38.01185], [-122.00118, 38.01195], [-121.99983, 38.01226], [-121.99896, 38.01257], [-121.99882, 38.01261], [-121.99804, 38.01278], [-121.99796, 38.01264], [-121.99767, 38.01201], [-121.99742, 38.01122], [-121.99731, 38.01089], [-121.99729, 38.01057], [-121.9971, 38.0106], [-121.99687, 38.01065], [-121.99672, 38.01114], [-121.99671, 38.01116], [-121.99669, 38.01131], [-121.9964, 38.01219], [-121.99529, 38.01238], [-121.99514, 38.01244], [-121.99505, 38.01248], [-121.99438, 38.01275], [-121.99346, 38.01313], [-121.99295, 38.01334], [-121.99287, 38.01356], [-121.9919, 38.01451], [-121.99135, 38.01472], [-121.99014, 38.01484], [-121.98787, 38.01577], [-121.98772, 38.01585], [-121.98608, 38.01425], [-121.98605, 38.01711], [-121.98591, 38.01714], [-121.98592, 38.01723], [-121.98595, 38.01749], [-121.98378, 38.01861], [-121.98388, 38.01927], [-121.98335, 38.01966], [-121.98193, 38.01932], [-121.98005, 38.02004], [-121.9796, 38.021], [-121.97925, 38.02174], [-121.97866, 38.02192], [-121.97861, 38.0219], [-121.97861, 38.02196], [-121.97846, 38.02204], [-121.97801, 38.02225], [-121.97796, 38.02227], [-121.97789, 38.02229], [-121.97756, 38.02242], [-121.97742, 38.02249], [-121.97719, 38.0226], [-121.97658, 38.02282], [-121.97591, 38.02303], [-121.97366, 38.02338], [-121.97211, 38.02368], [-121.97205, 38.02368], [-121.97174, 38.02367], [-121.97142, 38.02366], [-121.97111, 38.02364], [-121.9708, 38.02362], [-121.97038, 38.02358], [-121.97005, 38.02356], [-121.96986, 38.0235], [-121.96904, 38.02338], [-121.96825, 38.02326], [-121.96681, 38.02299], [-121.96661, 38.02295], [-121.96591, 38.02281], [-121.9658, 38.02279], [-121.96574, 38.02278], [-121.96573, 38.02277], [-121.96498, 38.02261], [-121.96469, 38.02255], [-121.96322, 38.02229], [-121.96253, 38.02217], [-121.96151, 38.02197], [-121.95988, 38.02167], [-121.95629, 38.02102], [-121.95491, 38.02074], [-121.95339, 38.02029], [-121.95166, 38.01978], [-121.95141, 38.01971], [-121.94949, 38.01915], [-121.94848, 38.01896], [-121.94826, 38.01891], [-121.94804, 38.01887], [-121.94759, 38.01878], [-121.94744, 38.01875], [-121.94638, 38.0187], [-121.94598, 38.01874], [-121.94532, 38.01883], [-121.94419, 38.0187], [-121.94353, 38.01863], [-121.94239, 38.0185], [-121.94198, 38.0185], [-121.94192, 38.0185], [-121.94193, 38.01809], [-121.94194, 38.01784], [-121.94194, 38.0178], [-121.94193, 38.01746], [-121.94193, 38.01744], [-121.94193, 38.0173], [-121.94193, 38.01709], [-121.94193, 38.01682], [-121.94194, 38.01667], [-121.94194, 38.01647], [-121.94194, 38.0164], [-121.94194, 38.01587], [-121.94194, 38.01567], [-121.94194, 38.01561], [-121.94194, 38.01547], [-121.9417, 38.01547], [-121.94142, 38.01548], [-121.94114, 38.01548], [-121.94107, 38.01548], [-121.94107, 38.01554], [-121.94107, 38.01564], [-121.94108, 38.0158], [-121.94097, 38.0158], [-121.94023, 38.0158], [-121.94023, 38.01603], [-121.94024, 38.01618], [-121.94024, 38.01646], [-121.94024, 38.01658], [-121.94011, 38.01658], [-121.93977, 38.01658], [-121.93978, 38.01738], [-121.9397, 38.01738], [-121.93947, 38.01738], [-121.93947, 38.01746], [-121.93948, 38.01767], [-121.93948, 38.01769], [-121.93974, 38.01768], [-121.93979, 38.01768], [-121.93979, 38.01783], [-121.93979, 38.01785], [-121.93981, 38.01787], [-121.93982, 38.01789], [-121.93984, 38.01791], [-121.93986, 38.01794], [-121.93987, 38.01796], [-121.93986, 38.01797], [-121.93985, 38.01798], [-121.93983, 38.01799], [-121.9399, 38.01806], [-121.93993, 38.01809], [-121.93983, 38.01814], [-121.93976, 38.01819], [-121.93964, 38.01826], [-121.93953, 38.0183], [-121.93951, 38.01831], [-121.93945, 38.01833], [-121.93941, 38.01835], [-121.93936, 38.01837], [-121.93931, 38.01838], [-121.93923, 38.0184], [-121.93914, 38.01842], [-121.93905, 38.01843], [-121.93899, 38.01844], [-121.93876, 38.01847], [-121.93858, 38.01841], [-121.93854, 38.0184], [-121.93842, 38.01836], [-121.93835, 38.01835], [-121.93821, 38.01832], [-121.93821, 38.01825], [-121.93802, 38.01818], [-121.93793, 38.01815], [-121.93783, 38.01808], [-121.93772, 38.01799], [-121.93748, 38.01782], [-121.93733, 38.01771], [-121.9373, 38.01768], [-121.93594, 38.01674], [-121.93584, 38.01674], [-121.93478, 38.016], [-121.93377, 38.01634], [-121.93341, 38.01647], [-121.9332, 38.01663], [-121.93308, 38.01676], [-121.93276, 38.01676], [-121.93275, 38.01721], [-121.93275, 38.01728], [-121.93275, 38.01738], [-121.93275, 38.01746], [-121.93276, 38.01766], [-121.93278, 38.01858], [-121.93153, 38.01858], [-121.92994, 38.01858], [-121.92898, 38.01862], [-121.92785, 38.0187], [-121.92763, 38.01872], [-121.92764, 38.01892], [-121.92764, 38.01904], [-121.92764, 38.0192], [-121.92765, 38.01954], [-121.92771, 38.0231], [-121.92775, 38.02513], [-121.92774, 38.02533], [-121.92711, 38.02534], [-121.92681, 38.02534], [-121.92687, 38.0262], [-121.92688, 38.02639], [-121.92693, 38.02655], [-121.92693, 38.02656], [-121.92693, 38.02659], [-121.92693, 38.0266], [-121.92693, 38.02662], [-121.92695, 38.02662], [-121.927, 38.02662], [-121.92701, 38.02662], [-121.92728, 38.02663], [-121.92809, 38.02666], [-121.92836, 38.02667], [-121.92871, 38.02667], [-121.92975, 38.02668], [-121.9301, 38.02668], [-121.93021, 38.02668], [-121.93071, 38.02668], [-121.93082, 38.02668], [-121.93109, 38.02668], [-121.9316, 38.02668], [-121.93197, 38.02668], [-121.93213, 38.02668], [-121.93224, 38.02668], [-121.93247, 38.02668], [-121.93262, 38.02666], [-121.93286, 38.02664], [-121.93286, 38.02678], [-121.93282, 38.0281], [-121.93279, 38.02902], [-121.93278, 38.0297], [-121.93277, 38.02997], [-121.93266, 38.03003], [-121.93247, 38.03012], [-121.9323, 38.03022], [-121.93215, 38.03031], [-121.93198, 38.03042], [-121.93186, 38.03048], [-121.9318, 38.0305], [-121.93175, 38.03052], [-121.93173, 38.03053], [-121.93161, 38.03057], [-121.93151, 38.03059], [-121.93148, 38.0306], [-121.93143, 38.0306], [-121.93134, 38.03061], [-121.93121, 38.03062], [-121.92997, 38.03031], [-121.92858, 38.02994], [-121.92852, 38.02993], [-121.92852, 38.03006], [-121.92852, 38.03037], [-121.92853, 38.03051], [-121.92858, 38.03353], [-121.92858, 38.0338], [-121.92859, 38.03388], [-121.9286, 38.0344], [-121.9286, 38.03447], [-121.92861, 38.03517], [-121.9287, 38.04036], [-121.92871, 38.04066], [-121.92871, 38.04081], [-121.92871, 38.04094], [-121.92876, 38.04343], [-121.92876, 38.04352], [-121.92877, 38.04377], [-121.92877, 38.04403], [-121.92882, 38.04713], [-121.92933, 38.04722], [-121.92954, 38.04727], [-121.931, 38.04761], [-121.9319, 38.04788], [-121.93274, 38.04813], [-121.93276, 38.04813], [-121.9328, 38.04815], [-121.93282, 38.04815], [-121.93337, 38.04829], [-121.9343, 38.04852], [-121.93503, 38.0487], [-121.93543, 38.04879], [-121.93558, 38.04886], [-121.93634, 38.04917], [-121.93758, 38.04975], [-121.93776, 38.04983], [-121.93868, 38.05019], [-121.93958, 38.05044], [-121.94094, 38.05091], [-121.94232, 38.0514], [-121.94377, 38.05194], [-121.94384, 38.05197], [-121.94519, 38.05242], [-121.94586, 38.05261], [-121.94677, 38.05288], [-121.94686, 38.05291], [-121.94864, 38.05335], [-121.9499, 38.05368], [-121.95055, 38.05385], [-121.95091, 38.05392], [-121.95225, 38.05417], [-121.95375, 38.05445], [-121.95624, 38.05501], [-121.95757, 38.05532], [-121.95816, 38.05534], [-121.96629, 38.05592], [-121.96888, 38.0561], [-121.96965, 38.05608], [-121.96974, 38.04783], [-121.96975, 38.0474], [-121.96976, 38.04614], [-121.96976, 38.04579], [-121.96976, 38.04572], [-121.96975, 38.04083], [-121.96973, 38.04083], [-121.96972, 38.04053], [-121.96971, 38.0403], [-121.9697, 38.04004], [-121.96983, 38.04008], [-121.96993, 38.04011], [-121.9704, 38.04025], [-121.97058, 38.04031], [-121.97065, 38.04033], [-121.97193, 38.04066], [-121.97274, 38.04086], [-121.97346, 38.04105], [-121.97374, 38.04111], [-121.97397, 38.04116], [-121.97446, 38.04121], [-121.9747, 38.04122], [-121.97521, 38.04122], [-121.97605, 38.04122], [-121.9761, 38.04122], [-121.97624, 38.04122], [-121.97629, 38.04122], [-121.97661, 38.04122], [-121.97676, 38.04122], [-121.97758, 38.04123], [-121.97819, 38.04123], [-121.97867, 38.04123], [-121.97882, 38.04123], [-121.97882, 38.04072], [-121.97883, 38.03917], [-121.97883, 38.03892], [-121.97883, 38.03865], [-121.97883, 38.0384], [-121.97882, 38.03814], [-121.97882, 38.03771], [-121.97881, 38.03731], [-121.97881, 38.03728], [-121.9788, 38.03648], [-121.97879, 38.03535], [-121.97879, 38.03489], [-121.97879, 38.03483], [-121.97876, 38.03439], [-121.97877, 38.03411], [-121.97879, 38.03395], [-121.97904, 38.03394], [-121.97935, 38.03394], [-121.97944, 38.03394], [-121.97982, 38.03393], [-121.97988, 38.03392], [-121.98005, 38.03395], [-121.98007, 38.03393], [-121.98011, 38.03391], [-121.98017, 38.03388], [-121.9802, 38.03385], [-121.98022, 38.03382], [-121.98023, 38.0338], [-121.98026, 38.03377], [-121.98027, 38.03375], [-121.98029, 38.03373], [-121.98026, 38.03367], [-121.98026, 38.03365], [-121.98065, 38.03365], [-121.98065, 38.03348], [-121.98759, 38.03338], [-121.98759, 38.03334], [-121.9876, 38.03322], [-121.98798, 38.03332], [-121.99074, 38.03272], [-121.99121, 38.0326], [-121.99123, 38.03165], [-121.99127, 38.03174], [-121.99129, 38.03183], [-121.99133, 38.03188], [-121.99135, 38.03182], [-121.99136, 38.0316], [-121.99683, 38.03156], [-122.00045, 38.03049], [-122.00344, 38.02964], [-122.00603, 38.02884], [-122.00588, 38.0239], [-122.00591, 38.02381], [-122.00591, 38.02288], [-122.00587, 38.02273], [-122.00575, 38.02267], [-122.00565, 38.02271], [-122.00542, 38.02276], [-122.00533, 38.02276], [-122.00521, 38.02267], [-122.00517, 38.02248], [-122.00518, 38.02228], [-122.00523, 38.022], [-122.00544, 38.02168], [-122.00568, 38.02135], [-122.00581, 38.02122], [-122.0059, 38.02107], [-122.00592, 38.02088], [-122.0059, 38.02044], [-122.00592, 38.02004], [-122.0059, 38.01986], [-122.00586, 38.01967], [-122.0058, 38.01951], [-122.00574, 38.01939], [-122.00579, 38.01928], [-122.00593, 38.01913], [-122.00596, 38.01898], [-122.00592, 38.01853], [-122.00583, 38.01829], [-122.00592, 38.01816], [-122.00635, 38.01807], [-122.00657, 38.0179]]]}}]}