{"type": "FeatureCollection", "features": [{"type": "Feature", "geometry": {"type": "Point", "coordinates": [-121.95785, 38.02704]}, "properties": {"name": "Bay Point", "place": "town", "kind": "place"}}, {"type": "Feature", "geometry": {"type": "Point", "coordinates": [-121.88539, 38.02677]}, "properties": {"name": "Pittsburg", "place": "town", "kind": "place"}}, {"type": "Feature", "geometry": {"type": "Polygon", "coordinates": [[[-121.89077, 38.00788], [-121.89015, 38.00952], [-121.88727, 38.00885], [-121.8871, 38.00882], [-121.88711, 38.00844], [-121.88709, 38.00831], [-121.88785, 38.00824], [-121.88841, 38.00814], [-121.88899, 38.00799], [-121.88987, 38.00776], [-121.89023, 38.00772], [-121.89053, 38.00772], [-121.89081, 38.00776], [-121.89077, 38.00788]]]}, "properties": {"name": "Cornerstone Apartments", "place": "", "kind": "subdivision"}}, {"type": "Feature", "geometry": {"type": "Polygon", "coordinates": [[[-121.88719, 37.99807], [-121.8889, 37.99805], [-121.89109, 37.99812], [-121.89238, 37.99816], [-121.89199, 37.99884], [-121.89132, 37.9992], [-121.89056, 37.9996], [-121.89017, 37.99997], [-121.88944, 38.00026], [-121.88851, 38.00085], [-121.88779, 38.00118], [-121.8875, 38.00135], [-121.88715, 38.00101], [-121.88719, 37.99807]]]}, "properties": {"name": "Buchanan Park", "place": "", "kind": "park"}}, {"type": "Feature", "geometry": {"type": "Polygon", "coordinates": [[[-121.97902, 38.02997], [-121.97897, 38.02981], [-121.97893, 38.02955], [-121.97893, 38.02912], [-121.97897, 38.02837], [-121.97914, 38.02792], [-121.97936, 38.02759], [-121.9796, 38.02738], [-121.97991, 38.02718], [-121.98053, 38.02682], [-121.98077, 38.02673], [-121.9819, 38.02642], [-121.98189, 38.02679], [-121.98193, 38.02686], [-121.98211, 38.02719], [-121.98185, 38.02733], [-121.98256, 38.02794], [-121.98265, 38.02817], [-121.98269, 38.02825], [-121.98264, 38.02852], [-121.98263, 38.02861], [-121.98248, 38.02884], [-121.98174, 38.02992], [-121.98204, 38.03062], [-121.98303, 38.03188], [-121.98316, 38.03239], [-121.98329, 38.03332], [-121.9828, 38.03331], [-121.98267, 38.03331], [-121.98053, 38.03333], [-121.98054, 38.03361], [-121.98176, 38.03357], [-121.98176, 38.03403], [-121.9808, 38.03403], [-121.97903, 38.03345], [-121.97922, 38.03309], [-121.97931, 38.03288], [-121.97939, 38.03273], [-121.97946, 38.03242], [-121.97941, 38.03169], [-121.97937, 38.03115], [-121.97931, 38.03077], [-121.97921, 38.03047], [-121.97905, 38.03011], [-121.97902, 38.02997]]]}, "properties": {"name": "California Skyline", "place": "", "kind": "subdivision"}}, {"type": "Feature", "geometry": {"type": "Polygon", "coordinates": [[[-121.89683, 37.99998], [-121.89694, 37.99967], [-121.89621, 37.99947], [-121.89676, 37.99806], [-121.89711, 37.99713], [-121.89741, 37.99622], [-121.89748, 37.99548], [-121.89741, 37.99472], [-121.89728, 37.99402], [-121.89662, 37.99279], [-121.89627, 37.99186], [-121.89633, 37.99099], [-121.89658, 37.99099], [-121.89719, 37.99106], [-121.89709, 37.99134], [-121.89791, 37.99142], [-121.89824, 37.99179], [-121.89849, 37.99188], [-121.89875, 37.99166], [-121.89937, 37.99173], [-121.89981, 37.99214], [-121.8998, 37.99286], [-121.89992, 37.99289], [-121.90048, 37.99221], [-121.90125, 37.99237], [-121.90204, 37.99347], [-121.90133, 37.99485], [-121.90144, 37.99518], [-121.90243, 37.99543], [-121.90352, 37.99538], [-121.90384, 37.99585], [-121.9041, 37.99566], [-121.90513, 37.99543], [-121.90551, 37.99596], [-121.9058, 37.99637], [-121.9053, 37.99687], [-121.90494, 37.99698], [-121.90582, 37.99858], [-121.90663, 37.9986], [-121.90665, 38.00022], [-121.90665, 38.00314], [-121.90661, 38.00528], [-121.90367, 38.00525], [-121.90367, 38.00727], [-121.90367, 38.00876], [-121.90268, 38.00866], [-121.90143, 38.00762], [-121.90126, 38.00753], [-121.90081, 38.00745], [-121.90064, 38.00748], [-121.90031, 38.00809], [-121.90017, 38.00825], [-121.8993, 38.00885], [-121.89911, 38.0089], [-121.89389, 38.00747], [-121.89357, 38.00738], [-121.89355, 38.00734], [-121.89373, 38.00692], [-121.89429, 38.0055], [-121.89422, 38.00544], [-121.89475, 38.00405], [-121.8949, 38.00364], [-121.8952, 38.00365], [-121.89544, 38.00358], [-121.89521, 38.00317], [-121.89509, 38.00318], [-121.89525, 38.00274], [-121.89597, 38.00083], [-121.89636, 37.99987], [-121.89683, 37.99998]]]}, "properties": {"name": "Woodland Hills Apartment Homes", "place": "", "kind": "subdivision"}}, {"type": "Feature", "geometry": {"type": "Polygon", "coordinates": [[[-121.89209, 37.99468], [-121.89213, 37.99443], [-121.89245, 37.99377], [-121.89245, 37.99286], [-121.89277, 37.99184], [-121.89335, 37.99086], [-121.89378, 37.99073], [-121.89529, 37.99091], [-121.89624, 37.99314], [-121.89683, 37.99421], [-121.89694, 37.99451], [-121.89573, 37.99498], [-121.89403, 37.99563], [-121.89386, 37.99529], [-121.89438, 37.99451], [-121.89393, 37.99438], [-121.8936, 37.99464], [-121.8932, 37.99631], [-121.89263, 37.99601], [-121.89209, 37.99468]]]}, "properties": {"name": "Kirker Creek Apartment Homes", "place": "", "kind": "subdivision"}}, {"type": "Feature", "geometry": {"type": "Polygon", "coordinates": [[[-121.88689, 38.00911], [-121.88629, 38.00897], [-121.88635, 38.00882], [-121.88368, 38.00814], [-121.8836, 38.00834], [-121.8824, 38.00803], [-121.88205, 38.00895], [-121.88539, 38.00977], [-121.88558, 38.00982], [-121.88576, 38.00986], [-121.88632, 38.01], [-121.88636, 38.01001], [-121.88637, 38.00999], [-121.8864, 38.00994], [-121.88641, 38.00991], [-121.88644, 38.00986], [-121.88647, 38.00981], [-121.88649, 38.00977], [-121.88652, 38.00973], [-121.88655, 38.00968], [-121.88659, 38.00964], [-121.88662, 38.0096], [-121.88665, 38.00956], [-121.88668, 38.00951], [-121.88672, 38.00946], [-121.88675, 38.00941], [-121.88676, 38.00939], [-121.88677, 38.00936], [-121.88678, 38.00935], [-121.8868, 38.00931], [-121.88682, 38.00927], [-121.88684, 38.00923], [-121.88686, 38.00919], [-121.88687, 38.00915], [-121.88689, 38.00911]]]}, "properties": {"name": "Small World Park", "place": "", "kind": "park"}}, {"type": "Feature", "geometry": {"type": "Polygon", "coordinates": [[[-121.83221, 37.99351], [-121.83237, 37.9916], [-121.83337, 37.99162], [-121.8333, 37.99257], [-121.83374, 37.99259], [-121.83373, 37.99263], [-121.83385, 37.99266], [-121.83392, 37.99269], [-121.83377, 37.993], [-121.83443, 37.99318], [-121.83427, 37.99347], [-121.83453, 37.99369], [-121.8345, 37.99373], [-121.83446, 37.99386], [-121.83431, 37.99415], [-121.83398, 37.99405], [-121.83347, 37.99501], [-121.83337, 37.99538], [-121.83185, 37.99537], [-121.83197, 37.99522], [-121.83209, 37.99495], [-121.83211, 37.99423], [-121.83209, 37.99369], [-121.83221, 37.99351]]]}, "properties": {"name": "Gentrytown Park", "place": "", "kind": "park"}}, {"type": "Feature", "geometry": {"type": "Polygon", "coordinates": [[[-121.84743, 37.99524], [-121.85033, 37.99752], [-121.85038, 37.99786], [-121.84912, 37.99786], [-121.84741, 37.99784], [-121.847, 37.99784], [-121.847, 37.99731], [-121.84559, 37.99683], [-121.84593, 37.99653], [-121.84619, 37.9963], [-121.84627, 37.99623], [-121.84716, 37.99547], [-121.8473, 37.99535], [-121.84743, 37.99524]]]}, "properties": {"name": "Chateau Mobile Home Park", "place": "", "kind": "subdivision"}}, {"type": "Feature", "geometry": {"type": "Polygon", "coordinates": [[[-121.84515, 37.99432], [-121.84565, 37.99409], [-121.8457, 37.99395], [-121.84573, 37.99381], [-121.84604, 37.99363], [-121.84637, 37.99354], [-121.8464, 37.99311], [-121.84673, 37.99301], [-121.84653, 37.99467], [-121.84719, 37.99528], [-121.84618, 37.99616], [-121.84609, 37.99624], [-121.84582, 37.99647], [-121.84321, 37.99647], [-121.8432, 37.9961], [-121.84201, 37.99572], [-121.84204, 37.99562], [-121.8421, 37.99557], [-121.84298, 37.99514], [-121.84369, 37.99484], [-121.84397, 37.99493], [-121.84464, 37.99461], [-121.84515, 37.99432]]]}, "properties": {"name": "Vista Diablo Mobile Estates", "place": "", "kind": "subdivision"}}, {"type": "Feature", "geometry": {"type": "Polygon", "coordinates": [[[-121.88818, 38.0321], [-121.88811, 38.03213], [-121.88737, 38.03195], [-121.88734, 38.03191], [-121.88757, 38.0313], [-121.88763, 38.03127], [-121.88836, 38.03145], [-121.8884, 38.03149], [-121.88818, 38.0321]]]}, "properties": {"name": "Marina Walk Park", "place": "", "kind": "park"}}, {"type": "Feature", "geometry": {"type": "Polygon", "coordinates": [[[-121.93062, 38.02906], [-121.93013, 38.02899], [-121.92958, 38.02898], [-121.92926, 38.029], [-121.929, 38.02962], [-121.92906, 38.02964], [-121.92955, 38.02976], [-121.93013, 38.02991], [-121.93026, 38.02989], [-121.93033, 38.02988], [-121.93042, 38.02987], [-121.93053, 38.02977], [-121.93061, 38.02963], [-121.93062, 38.02939], [-121.93062, 38.02916], [-121.93062, 38.02906]]]}, "properties": {"name": "CA Seasons Park", "place": "", "kind": "park"}}, {"type": "Feature", "geometry": {"type": "Polygon", "coordinates": [[[-121.88757, 38.02218], [-121.88763, 38.02204], [-121.88766, 38.02196], [-121.88785, 38.02146], [-121.88811, 38.02079], [-121.88817, 38.02078], [-121.88858, 38.02088], [-121.88899, 38.02097], [-121.88932, 38.02105], [-121.8901, 38.02124], [-121.89101, 38.02146], [-121.89141, 38.02156], [-121.89201, 38.0217], [-121.89206, 38.02173], [-121.89185, 38.02231], [-121.89125, 38.0239], [-121.89103, 38.02442], [-121.89089, 38.02442], [-121.8906, 38.02439], [-121.89036, 38.02435], [-121.89002, 38.0243], [-121.8897, 38.02425], [-121.88933, 38.02419], [-121.88912, 38.02415], [-121.88884, 38.02409], [-121.88859, 38.02404], [-121.88845, 38.02398], [-121.88839, 38.02391], [-121.88836, 38.02386], [-121.88836, 38.02382], [-121.88835, 38.02377], [-121.88834, 38.02368], [-121.88834, 38.0236], [-121.88833, 38.02352], [-121.88832, 38.02344], [-121.88829, 38.02336], [-121.88824, 38.02329], [-121.88819, 38.02323], [-121.88813, 38.02318], [-121.88804, 38.02313], [-121.88793, 38.02308], [-121.8878, 38.02302], [-121.8877, 38.02297], [-121.88764, 38.02293], [-121.8876, 38.02288], [-121.88756, 38.02282], [-121.88754, 38.02275], [-121.88753, 38.02266], [-121.88751, 38.02255], [-121.8875, 38.02245], [-121.88751, 38.02233], [-121.88754, 38.02227], [-121.88757, 38.02218]]]}, "properties": {"name": "City Park", "place": "", "kind": "park"}}, {"type": "Feature", "geometry": {"type": "Polygon", "coordinates": [[[-121.93997, 38.01813], [-121.9394, 38.01835], [-121.93875, 38.01847], [-121.93824, 38.01832], [-121.93821, 38.01825], [-121.93793, 38.01815], [-121.93735, 38.01774], [-121.93756, 38.01692], [-121.93777, 38.01608], [-121.93928, 38.01607], [-121.94023, 38.01606], [-121.94022, 38.01658], [-121.93977, 38.01658], [-121.93978, 38.01696], [-121.93975, 38.01736], [-121.93948, 38.01738], [-121.93949, 38.01769], [-121.93979, 38.01768], [-121.93979, 38.01785], [-121.93987, 38.01795], [-121.93997, 38.01813]]]}, "properties": {"name": "Ambrose Park", "place": "", "kind": "park"}}, {"type": "Feature", "geometry": {"type": "Polygon", "coordinates": [[[-121.92704, 38.01341], [-121.92697, 38.01328], [-121.92689, 38.01307], [-121.92677, 38.01284], [-121.92673, 38.01271], [-121.92669, 38.01263], [-121.92681, 38.0126], [-121.92793, 38.01257], [-121.92797, 38.01257], [-121.92799, 38.01298], [-121.92791, 38.01313], [-121.92783, 38.01347], [-121.92782, 38.01407], [-121.92749, 38.01412], [-121.92748, 38.01399], [-121.92739, 38.01396], [-121.92728, 38.01394], [-121.92717, 38.01393], [-121.92701, 38.01376], [-121.92702, 38.01368], [-121.92705, 38.01358], [-121.92705, 38.0135], [-121.92704, 38.01341]]]}, "properties": {"name": "Hillsdale Park", "place": "", "kind": "park"}}, {"type": "Feature", "geometry": {"type": "Polygon", "coordinates": [[[-121.95571, 38.02994], [-121.95673, 38.03076], [-121.95558, 38.03177], [-121.9553, 38.03155], [-121.95461, 38.03099], [-121.95452, 38.03091], [-121.95571, 38.02994]]]}, "properties": {"name": "Lynbrook Park", "place": "", "kind": "park"}}, {"type": "Feature", "geometry": {"type": "Polygon", "coordinates": [[[-121.87408, 38.02415], [-121.87405, 38.02419], [-121.87402, 38.02421], [-121.87401, 38.02424], [-121.87398, 38.02428], [-121.87394, 38.02428], [-121.87389, 38.02427], [-121.87328, 38.02413], [-121.87324, 38.02412], [-121.87325, 38.0241], [-121.87325, 38.02409], [-121.87325, 38.02407], [-121.87324, 38.02406], [-121.87321, 38.02405], [-121.87318, 38.02405], [-121.87317, 38.02408], [-121.87316, 38.02408], [-121.87309, 38.02406], [-121.87301, 38.02405], [-121.87291, 38.02404], [-121.87286, 38.02402], [-121.87282, 38.02401], [-121.87278, 38.02399], [-121.87278, 38.02398], [-121.87279, 38.02397], [-121.87284, 38.02394], [-121.87287, 38.02393], [-121.8729, 38.02392], [-121.87294, 38.0239], [-121.87408, 38.02415]]]}, "properties": {"name": "Columbia Linear Park", "place": "", "kind": "park"}}, {"type": "Feature", "geometry": {"type": "Polygon", "coordinates": [[[-121.86672, 37.99641], [-121.86672, 37.99784], [-121.86672, 37.9979], [-121.86408, 37.99788], [-121.86397, 37.99788], [-121.86392, 37.99785], [-121.86392, 37.99772], [-121.8639, 37.99757], [-121.86387, 37.99744], [-121.86382, 37.99731], [-121.8636, 37.99684], [-121.86356, 37.99671], [-121.86354, 37.99658], [-121.86354, 37.99647], [-121.86357, 37.99643], [-121.86363, 37.99643], [-121.86629, 37.99642], [-121.86672, 37.99641]]]}, "properties": {"name": "Highlands Ranch Park", "place": "", "kind": "park"}}, {"type": "Feature", "geometry": {"type": "Polygon", "coordinates": [[[-121.93965, 38.02603], [-121.93965, 38.02659], [-121.93958, 38.02665], [-121.93748, 38.02664], [-121.93748, 38.0261], [-121.9391, 38.02609], [-121.93965, 38.02603]]]}, "properties": {"name": "Anuta Park", "place": "", "kind": "park"}}, {"type": "Feature", "geometry": {"type": "Polygon", "coordinates": [[[-121.90535, 38.00026], [-121.90485, 38.00007], [-121.90422, 37.99995], [-121.90441, 37.99922], [-121.90444, 37.99919], [-121.9045, 37.99917], [-121.90532, 37.99923], [-121.90528, 37.99952], [-121.90554, 37.99956], [-121.90568, 37.99979], [-121.90535, 38.00026]]]}, "properties": {"name": "Woodland Hills Park", "place": "", "kind": "park"}}, {"type": "Feature", "geometry": {"type": "Polygon", "coordinates": [[[-121.88484, 38.03224], [-121.8838, 38.032], [-121.88375, 38.03196], [-121.88372, 38.03192], [-121.88371, 38.03185], [-121.88393, 38.03127], [-121.88511, 38.03155], [-121.88484, 38.03224]]]}, "properties": {"name": "John Buckley Square", "place": "", "kind": "park"}}, {"type": "Feature", "geometry": {"type": "Polygon", "coordinates": [[[-121.889, 38.04078], [-121.88905, 38.04083], [-121.8891, 38.04084], [-121.88916, 38.04084], [-121.88919, 38.04084], [-121.88923, 38.04083], [-121.88926, 38.0408], [-121.88928, 38.04078], [-121.89022, 38.04115], [-121.89034, 38.04119], [-121.89044, 38.04119], [-121.8912, 38.04119], [-121.89121, 38.04128], [-121.89061, 38.04127], [-121.89024, 38.04127], [-121.89005, 38.04128], [-121.88989, 38.04126], [-121.88963, 38.0412], [-121.88956, 38.04121], [-121.88943, 38.04133], [-121.88933, 38.04139], [-121.88927, 38.04142], [-121.88923, 38.04145], [-121.88916, 38.04143], [-121.88914, 38.0414], [-121.88907, 38.04135], [-121.88902, 38.04129], [-121.88895, 38.04116], [-121.8889, 38.04101], [-121.88887, 38.04087], [-121.88887, 38.04081], [-121.88891, 38.04076], [-121.88894, 38.04073], [-121.88899, 38.04074], [-121.889, 38.04078]]]}, "properties": {"name": "Riverview Park", "place": "", "kind": "park"}}, {"type": "Feature", "geometry": {"type": "Polygon", "coordinates": [[[-121.88517, 38.03898], [-121.88497, 38.03933], [-121.88497, 38.03946], [-121.88499, 38.03959], [-121.885, 38.03964], [-121.88512, 38.03988], [-121.88512, 38.03992], [-121.88507, 38.03991], [-121.88498, 38.03978], [-121.88491, 38.0397], [-121.88481, 38.0394], [-121.88474, 38.03931], [-121.88465, 38.03914], [-121.88453, 38.03898], [-121.88438, 38.03876], [-121.88437, 38.03872], [-121.88449, 38.03869], [-121.88452, 38.03876], [-121.88457, 38.03882], [-121.88465, 38.03884], [-121.88497, 38.03892], [-121.885, 38.03893], [-121.88504, 38.03896], [-121.88508, 38.03898], [-121.88513, 38.03899], [-121.88517, 38.03898]]]}, "properties": {"name": "Central Harbor Park", "place": "", "kind": "park"}}, {"type": "Feature", "geometry": {"type": "Polygon", "coordinates": [[[-121.89099, 38.03102], [-121.89103, 38.03099], [-121.89136, 38.03103], [-121.8914, 38.03104], [-121.89147, 38.03105], [-121.89153, 38.03104], [-121.89189, 38.03119], [-121.89202, 38.03122], [-121.89205, 38.03125], [-121.89193, 38.03209], [-121.89227, 38.03243], [-121.89232, 38.03247], [-121.89218, 38.03248], [-121.89187, 38.03214], [-121.89175, 38.03215], [-121.89137, 38.03206], [-121.89119, 38.03198], [-121.89115, 38.032], [-121.89106, 38.032], [-121.89065, 38.03189], [-121.89099, 38.03102]]]}, "properties": {"name": "Mariner Park", "place": "", "kind": "park"}}, {"type": "Feature", "geometry": {"type": "Polygon", "coordinates": [[[-121.88178, 38.03088], [-121.88154, 38.0315], [-121.88151, 38.03152], [-121.88146, 38.03153], [-121.88141, 38.03152], [-121.88132, 38.03148], [-121.88126, 38.03144], [-121.88121, 38.03137], [-121.88116, 38.0313], [-121.88114, 38.03118], [-121.88114, 38.03112], [-121.88117, 38.03103], [-121.88122, 38.03097], [-121.88127, 38.03091], [-121.88134, 38.03087], [-121.88142, 38.03082], [-121.88148, 38.0308], [-121.88158, 38.03078], [-121.88165, 38.03078], [-121.88172, 38.03079], [-121.88176, 38.03081], [-121.88179, 38.03084], [-121.88178, 38.03088]]]}, "properties": {"name": "Village Park at New York Landing", "place": "", "kind": "park"}}, {"type": "Feature", "geometry": {"type": "Polygon", "coordinates": [[[-121.87822, 38.02506], [-121.8777, 38.02503], [-121.87732, 38.02501], [-121.877, 38.02497], [-121.8766, 38.02491], [-121.8764, 38.02488], [-121.8761, 38.02481], [-121.87447, 38.02445], [-121.87394, 38.02433], [-121.87311, 38.02415], [-121.87249, 38.02401], [-121.87234, 38.02397], [-121.8722, 38.02392], [-121.87206, 38.02387], [-121.87192, 38.02377], [-121.87169, 38.02359], [-121.87158, 38.02345], [-121.87152, 38.02334], [-121.87144, 38.02314], [-121.87143, 38.02291], [-121.87145, 38.02271], [-121.87148, 38.0226], [-121.87154, 38.02245], [-121.8728, 38.01961], [-121.87283, 38.01954], [-121.87285, 38.01952], [-121.8729, 38.0195], [-121.87327, 38.01963], [-121.87259, 38.02116], [-121.87184, 38.02285], [-121.87163, 38.02345], [-121.87209, 38.02372], [-121.87294, 38.0239], [-121.87408, 38.02415], [-121.87536, 38.02444], [-121.87822, 38.02506]]]}, "properties": {"name": "Central Addition Park", "place": "", "kind": "park"}}, {"type": "Feature", "geometry": {"type": "Polygon", "coordinates": [[[-121.87177, 38.02151], [-121.87118, 38.02137], [-121.87143, 38.02068], [-121.87141, 38.02062], [-121.87054, 38.0204], [-121.87054, 38.02036], [-121.87097, 38.01917], [-121.87099, 38.01912], [-121.87102, 38.01908], [-121.87106, 38.01906], [-121.87112, 38.01904], [-121.87117, 38.01902], [-121.87121, 38.01902], [-121.87251, 38.01939], [-121.87256, 38.01942], [-121.8726, 38.01946], [-121.87261, 38.0195], [-121.87262, 38.01955], [-121.87261, 38.01959], [-121.87209, 38.02081], [-121.87177, 38.02151]]]}, "properties": {"name": "Central Park", "place": "", "kind": "park"}}, {"type": "Feature", "geometry": {"type": "Polygon", "coordinates": [[[-121.883, 37.99639], [-121.88281, 37.99632], [-121.88263, 37.9962], [-121.88245, 37.99607], [-121.88236, 37.99602], [-121.88224, 37.99599], [-121.88207, 37.99597], [-121.88079, 37.99594], [-121.88046, 37.99587], [-121.88049, 37.9961], [-121.88055, 37.99621], [-121.88057, 37.99629], [-121.88085, 37.99644], [-121.88087, 37.99653], [-121.88084, 37.99666], [-121.88165, 37.99673], [-121.88211, 37.99672], [-121.88246, 37.99665], [-121.88262, 37.99675], [-121.883, 37.99639]]]}, "properties": {"name": "Highlands Park", "place": "", "kind": "park"}}, {"type": "Feature", "geometry": {"type": "Polygon", "coordinates": [[[-121.92143, 38.02416], [-121.92166, 38.02411], [-121.92146, 38.02402], [-121.9213, 38.0238], [-121.92158, 38.02371], [-121.92152, 38.02357], [-121.92151, 38.02342], [-121.92128, 38.02362], [-121.92102, 38.02368], [-121.92101, 38.02377], [-121.92108, 38.02396], [-121.92077, 38.02401], [-121.9206, 38.024], [-121.92055, 38.02419], [-121.92046, 38.02438], [-121.92011, 38.02433], [-121.91998, 38.02494], [-121.91957, 38.02486], [-121.91955, 38.02488], [-121.91943, 38.02504], [-121.91933, 38.02511], [-121.91916, 38.02519], [-121.91942, 38.02544], [-121.91932, 38.0255], [-121.91925, 38.02555], [-121.91925, 38.02563], [-121.91922, 38.02569], [-121.91931, 38.02582], [-121.91946, 38.02587], [-121.91957, 38.02587], [-121.91987, 38.02587], [-121.91992, 38.02581], [-121.91988, 38.02545], [-121.91994, 38.02533], [-121.91995, 38.02518], [-121.92042, 38.02526], [-121.92044, 38.02517], [-121.92047, 38.02503], [-121.92041, 38.02499], [-121.92035, 38.02493], [-121.92019, 38.02482], [-121.92027, 38.02472], [-121.92037, 38.02466], [-121.9205, 38.02463], [-121.92072, 38.0246], [-121.92135, 38.02458], [-121.92127, 38.02441], [-121.92122, 38.02422], [-121.92143, 38.02416]]]}, "properties": {"name": "DeAnza Park", "place": "", "kind": "park"}}, {"type": "Feature", "geometry": {"type": "Polygon", "coordinates": [[[-121.90958, 38.02512], [-121.90951, 38.02558], [-121.9095, 38.02562], [-121.90936, 38.02567], [-121.90917, 38.02581], [-121.90895, 38.02599], [-121.90841, 38.02593], [-121.90866, 38.02485], [-121.90899, 38.02503], [-121.90902, 38.02511], [-121.90907, 38.02516], [-121.90918, 38.02518], [-121.90924, 38.02516], [-121.90931, 38.02511], [-121.90936, 38.02509], [-121.9094, 38.02508], [-121.90948, 38.02508], [-121.90953, 38.02508], [-121.90958, 38.02512]]]}, "properties": {"name": "American Park", "place": "", "kind": "park"}}, {"type": "Feature", "geometry": {"type": "Polygon", "coordinates": [[[-121.95015, 38.01219], [-121.94948, 38.01207], [-121.94955, 38.01172], [-121.94956, 38.01165], [-121.94971, 38.01125], [-121.95, 38.01098], [-121.95029, 38.01083], [-121.95049, 38.01077], [-121.95072, 38.01066], [-121.95091, 38.01052], [-121.95117, 38.01059], [-121.95111, 38.01115], [-121.95118, 38.01121], [-121.95118, 38.01129], [-121.95112, 38.01134], [-121.9511, 38.01137], [-121.95103, 38.01148], [-121.95094, 38.01163], [-121.95098, 38.01165], [-121.95081, 38.01169], [-121.95058, 38.0118], [-121.95047, 38.01187], [-121.95026, 38.01218], [-121.95015, 38.01219]]]}, "properties": {"name": "Oak Hills Park", "place": "", "kind": "park"}}, {"type": "Feature", "geometry": {"type": "Polygon", "coordinates": [[[-121.96941, 38.01314], [-121.96919, 38.01322], [-121.96897, 38.0133], [-121.96864, 38.01345], [-121.96837, 38.01353], [-121.96807, 38.01356], [-121.9677, 38.01359], [-121.96775, 38.01347], [-121.9678, 38.01346], [-121.96791, 38.01318], [-121.96791, 38.01307], [-121.96788, 38.01295], [-121.96778, 38.0128], [-121.96763, 38.01266], [-121.96759, 38.01259], [-121.96855, 38.01215], [-121.96872, 38.01208], [-121.96895, 38.012], [-121.9691, 38.01194], [-121.9691, 38.01214], [-121.9691, 38.01218], [-121.9691, 38.01238], [-121.9691, 38.01258], [-121.96915, 38.01268], [-121.96918, 38.01277], [-121.96941, 38.01314]]]}, "properties": {"name": "Larry Lasater Park", "place": "", "kind": "park"}}, {"type": "Feature", "geometry": {"type": "Polygon", "coordinates": [[[-121.88467, 38.0296], [-121.88472, 38.02947], [-121.89077, 38.03086], [-121.89069, 38.03101], [-121.88467, 38.0296]]]}, "properties": {"name": "8th St. Greenbelt", "place": "", "kind": "park"}}, {"type": "Feature", "geometry": {"type": "Polygon", "coordinates": [[[-121.85009, 38.00143], [-121.85024, 38.00106], [-121.85049, 38.00035], [-121.84902, 38.00003], [-121.84857, 38.00127], [-121.84907, 38.00138], [-121.84923, 38.0012], [-121.85009, 38.00143]]]}, "properties": {"name": "Marchetti Park", "place": "", "kind": "park"}}, {"type": "Feature", "geometry": {"type": "Polygon", "coordinates": [[[-121.94171, 38.02036], [-121.94166, 38.02031], [-121.94143, 38.02029], [-121.94125, 38.02026], [-121.94109, 38.02023], [-121.94094, 38.02017], [-121.94072, 38.02007], [-121.94054, 38.01999], [-121.94032, 38.0199], [-121.93984, 38.0199], [-121.93983, 38.02035], [-121.93983, 38.02143], [-121.94142, 38.02179], [-121.94142, 38.02158], [-121.94173, 38.02162], [-121.94171, 38.02036]]]}, "properties": {"name": "Fair Hill Mobile Home Park", "place": "", "kind": "subdivision"}}, {"type": "Feature", "geometry": {"type": "Polygon", "coordinates": [[[-121.98421, 38.02505], [-121.98453, 38.02516], [-121.98451, 38.02525], [-121.9844, 38.02542], [-121.98436, 38.02549], [-121.98431, 38.02565], [-121.98394, 38.02546], [-121.98398, 38.02538], [-121.98412, 38.02518], [-121.98421, 38.02505]]]}, "properties": {"name": "Tradewinds Court Park", "place": "", "kind": "park"}}, {"type": "Feature", "geometry": {"type": "Polygon", "coordinates": [[[-121.92148, 38.02682], [-121.92146, 38.02692], [-121.92146, 38.02749], [-121.92146, 38.02805], [-121.92146, 38.02815], [-121.92186, 38.02828], [-121.92194, 38.02819], [-121.92202, 38.02814], [-121.92209, 38.02802], [-121.92201, 38.02799], [-121.92199, 38.02728], [-121.92199, 38.02706], [-121.92197, 38.02683], [-121.92148, 38.02682]]]}, "properties": {"name": "Bella Vista Mobile Home Park", "place": "", "kind": "subdivision"}}, {"type": "Feature", "geometry": {"type": "Polygon", "coordinates": [[[-121.92011, 38.02689], [-121.92008, 38.02783], [-121.92095, 38.02803], [-121.92095, 38.02705], [-121.92095, 38.02696], [-121.92095, 38.02685], [-121.92011, 38.02689]]]}, "properties": {"name": "River View Mobile Home Park", "place": "", "kind": "subdivision"}}, {"type": "Feature", "geometry": {"type": "Polygon", "coordinates": [[[-121.96194, 38.0248], [-121.96224, 38.02451], [-121.96268, 38.02407], [-121.96318, 38.02374], [-121.9631, 38.02365], [-121.96319, 38.02305], [-121.96236, 38.02286], [-121.96039, 38.0225], [-121.96041, 38.02284], [-121.96042, 38.02356], [-121.96042, 38.02387], [-121.96072, 38.02408], [-121.96194, 38.0248]]]}, "properties": {"name": "Crestview Mobile Home Village", "place": "", "kind": "subdivision"}}, {"type": "Feature", "geometry": {"type": "Polygon", "coordinates": [[[-121.94669, 38.01979], [-121.94423, 38.01979], [-121.944, 38.01992], [-121.94394, 38.02029], [-121.94394, 38.02065], [-121.94398, 38.02096], [-121.94391, 38.021], [-121.94394, 38.02106], [-121.94406, 38.02136], [-121.94402, 38.02143], [-121.94391, 38.02148], [-121.94392, 38.02192], [-121.94394, 38.02218], [-121.94418, 38.02232], [-121.94467, 38.0224], [-121.94567, 38.0224], [-121.94567, 38.02148], [-121.94645, 38.02146], [-121.94665, 38.02127], [-121.94668, 38.02032], [-121.94669, 38.02026], [-121.94663, 38.02027], [-121.94658, 38.02028], [-121.94651, 38.02029], [-121.94646, 38.02029], [-121.9464, 38.02026], [-121.94637, 38.02023], [-121.94635, 38.02019], [-121.94634, 38.02015], [-121.94635, 38.02005], [-121.94668, 38.02003], [-121.94669, 38.01979]]]}, "properties": {"name": "Westwood Village", "place": "", "kind": "subdivision"}}, {"type": "Feature", "geometry": {"type": "Polygon", "coordinates": [[[-121.94713, 38.02325], [-121.94712, 38.02273], [-121.94712, 38.0224], [-121.94567, 38.0224], [-121.94467, 38.0224], [-121.94466, 38.02267], [-121.94627, 38.02305], [-121.94713, 38.02325]]]}, "properties": {"name": "Casa Serena", "place": "", "kind": "subdivision"}}, {"type": "Feature", "geometry": {"type": "Polygon", "coordinates": [[[-121.94713, 38.02325], [-121.94712, 38.02273], [-121.94712, 38.0224], [-121.94713, 38.02233], [-121.95125, 38.0223], [-121.95125, 38.02264], [-121.95126, 38.0229], [-121.95126, 38.02318], [-121.95126, 38.02356], [-121.95125, 38.02387], [-121.95126, 38.02418], [-121.95126, 38.02424], [-121.94713, 38.02325]]]}, "properties": {"name": "Deanza Apartments", "place": "", "kind": "subdivision"}}, {"type": "Feature", "geometry": {"type": "Polygon", "coordinates": [[[-121.95743, 38.02836], [-121.95859, 38.02928], [-121.95877, 38.02922], [-121.95895, 38.0292], [-121.95978, 38.02919], [-121.95978, 38.02912], [-121.95979, 38.02847], [-121.95887, 38.02847], [-121.95836, 38.02809], [-121.95838, 38.0273], [-121.95837, 38.02726], [-121.95745, 38.02725], [-121.95744, 38.0283], [-121.95743, 38.02836]]]}, "properties": {"name": "Mission Bay Apartments", "place": "", "kind": "subdivision"}}, {"type": "Feature", "geometry": {"type": "Polygon", "coordinates": [[[-121.9606, 38.03555], [-121.96163, 38.03556], [-121.96162, 38.03492], [-121.96176, 38.03455], [-121.96177, 38.0341], [-121.96177, 38.03402], [-121.96209, 38.03402], [-121.96242, 38.03402], [-121.9625, 38.03402], [-121.9625, 38.0341], [-121.9625, 38.03456], [-121.96221, 38.03508], [-121.96198, 38.03554], [-121.96202, 38.03556], [-121.96202, 38.03561], [-121.96202, 38.03573], [-121.96202, 38.03587], [-121.96202, 38.03588], [-121.96065, 38.03587], [-121.96059, 38.03583], [-121.9606, 38.03555]]]}, "properties": {"name": "Anchor Square Apartments", "place": "", "kind": "subdivision"}}, {"type": "Feature", "geometry": {"type": "Polygon", "coordinates": [[[-121.93745, 38.0274], [-121.93665, 38.02739], [-121.93572, 38.02739], [-121.93571, 38.02719], [-121.93572, 38.02709], [-121.93572, 38.02676], [-121.93646, 38.02676], [-121.93712, 38.02675], [-121.93713, 38.02676], [-121.93745, 38.02675], [-121.93746, 38.02708], [-121.93746, 38.02716], [-121.93746, 38.02724], [-121.93745, 38.0274]]]}, "properties": {"name": "Bella Monte Apartments", "place": "", "kind": "subdivision"}}, {"type": "Feature", "geometry": {"type": "Polygon", "coordinates": [[[-121.94283, 38.0254], [-121.9434, 38.02537], [-121.94343, 38.02458], [-121.94405, 38.02309], [-121.94315, 38.02307], [-121.94282, 38.02307], [-121.94282, 38.02447], [-121.94283, 38.0254]]]}, "properties": {"name": "Hidden Cove Apartments", "place": "", "kind": "subdivision"}}, {"type": "Feature", "geometry": {"type": "Polygon", "coordinates": [[[-121.94488, 38.01236], [-121.94463, 38.01209], [-121.94424, 38.01209], [-121.94378, 38.01229], [-121.94348, 38.01251], [-121.94329, 38.01259], [-121.94316, 38.01264], [-121.94296, 38.01268], [-121.94275, 38.01269], [-121.94255, 38.01268], [-121.9421, 38.01266], [-121.94195, 38.01265], [-121.94215, 38.01527], [-121.94418, 38.01522], [-121.94432, 38.01518], [-121.94428, 38.01481], [-121.94428, 38.01472], [-121.94428, 38.01446], [-121.94427, 38.01396], [-121.94427, 38.01374], [-121.94427, 38.01319], [-121.94432, 38.01301], [-121.94437, 38.01289], [-121.94442, 38.01279], [-121.94452, 38.01265], [-121.94464, 38.01253], [-121.94476, 38.01243], [-121.94488, 38.01236]]]}, "properties": {"name": "Oak Hills Apartments", "place": "", "kind": "subdivision"}}, {"type": "Feature", "geometry": {"type": "Polygon", "coordinates": [[[-121.95182, 38.02432], [-121.95184, 38.02369], [-121.95126, 38.02369], [-121.95125, 38.02387], [-121.95126, 38.02418], [-121.9516, 38.02427], [-121.95182, 38.02432]]]}, "properties": {"name": "Elaine Null Court", "place": "", "kind": "subdivision"}}, {"type": "Feature", "geometry": {"type": "Polygon", "coordinates": [[[-121.96295, 38.03402], [-121.96295, 38.03372], [-121.96295, 38.0335], [-121.96244, 38.03351], [-121.96243, 38.03396], [-121.96242, 38.03402], [-121.9625, 38.03402], [-121.96295, 38.03402]]]}, "properties": {"name": "Anchor Square Apartments", "place": "", "kind": "subdivision"}}, {"type": "Feature", "geometry": {"type": "Polygon", "coordinates": [[[-121.9823, 38.02848], [-121.98264, 38.02852], [-121.98289, 38.02853], [-121.98302, 38.02844], [-121.98306, 38.02836], [-121.98307, 38.02825], [-121.98302, 38.02817], [-121.98296, 38.02814], [-121.98291, 38.02811], [-121.98265, 38.02817], [-121.98228, 38.02826], [-121.9823, 38.02848]]]}, "properties": {"name": "Boeger Park", "place": "", "kind": "park"}}, {"type": "Feature", "geometry": {"type": "Polygon", "coordinates": [[[-121.95126, 38.02477], [-121.95009, 38.02474], [-121.95012, 38.02427], [-121.95126, 38.02453], [-121.95126, 38.02477]]]}, "properties": {"name": "Alves Lane Mini-Park", "place": "", "kind": "park"}}, {"type": "Feature", "geometry": {"type": "Polygon", "coordinates": [[[-121.96243, 38.03396], [-121.96245, 38.03229], [-121.96253, 38.03229], [-121.96252, 38.03047], [-121.96063, 38.03045], [-121.96062, 38.03352], [-121.96063, 38.03388], [-121.9607, 38.03393], [-121.96095, 38.03394], [-121.9611, 38.03396], [-121.96116, 38.03396], [-121.96243, 38.03396]]]}, "properties": {"name": "Club Marina", "place": "", "kind": "subdivision"}}, {"type": "Feature", "geometry": {"type": "Polygon", "coordinates": [[[-121.95881, 38.01465], [-121.95985, 38.01314], [-121.96006, 38.01215], [-121.96016, 38.01185], [-121.96004, 38.01172], [-121.9595, 38.01111], [-121.95951, 38.01069], [-121.95931, 38.0103], [-121.95963, 38.00959], [-121.96035, 38.00894], [-121.96034, 38.00859], [-121.95902, 38.0079], [-121.95821, 38.00757], [-121.95744, 38.00744], [-121.95711, 38.00737], [-121.95698, 38.00723], [-121.95628, 38.00698], [-121.95586, 38.007], [-121.95579, 38.01198], [-121.95578, 38.01229], [-121.95531, 38.01338], [-121.95523, 38.01358], [-121.95765, 38.0143], [-121.95881, 38.01465]]]}, "properties": {"name": "Vista Del Mar", "place": "", "kind": "subdivision"}}, {"type": "Feature", "geometry": {"type": "Polygon", "coordinates": [[[-121.95234, 38.01658], [-121.95284, 38.01579], [-121.95285, 38.01566], [-121.95299, 38.01568], [-121.95421, 38.01566], [-121.9549, 38.01408], [-121.95449, 38.01408], [-121.95414, 38.01378], [-121.95402, 38.01376], [-121.95405, 38.01363], [-121.95253, 38.01311], [-121.95168, 38.01379], [-121.94973, 38.01352], [-121.94993, 38.01233], [-121.94946, 38.01218], [-121.94825, 38.0118], [-121.9477, 38.01245], [-121.94698, 38.0122], [-121.94598, 38.01189], [-121.94598, 38.01175], [-121.94594, 38.01159], [-121.94605, 38.01146], [-121.94605, 38.0113], [-121.94592, 38.01126], [-121.94594, 38.01113], [-121.94553, 38.01108], [-121.9456, 38.01077], [-121.94613, 38.01093], [-121.94623, 38.01074], [-121.94623, 38.01066], [-121.94645, 38.0105], [-121.94705, 38.01056], [-121.94703, 38.01083], [-121.94781, 38.01112], [-121.94821, 38.01119], [-121.94854, 38.01115], [-121.94923, 38.00996], [-121.94941, 38.00999], [-121.94941, 38.01033], [-121.94956, 38.01057], [-121.9497, 38.01069], [-121.94951, 38.01076], [-121.9492, 38.01108], [-121.94902, 38.01147], [-121.94896, 38.01166], [-121.94955, 38.01172], [-121.94948, 38.01207], [-121.95015, 38.01219], [-121.95026, 38.01218], [-121.95047, 38.01187], [-121.95058, 38.0118], [-121.95081, 38.01169], [-121.95103, 38.01164], [-121.95098, 38.01165], [-121.95094, 38.01163], [-121.95103, 38.01148], [-121.9511, 38.01137], [-121.95112, 38.01134], [-121.95118, 38.01129], [-121.95118, 38.01121], [-121.95111, 38.01115], [-121.95117, 38.01059], [-121.95138, 38.01059], [-121.95138, 38.01092], [-121.95155, 38.01093], [-121.95162, 38.01133], [-121.95181, 38.01156], [-121.95199, 38.01165], [-121.95233, 38.01169], [-121.95259, 38.01153], [-121.95274, 38.01088], [-121.95298, 38.01078], [-121.95398, 38.00979], [-121.95412, 38.00951], [-121.95416, 38.00933], [-121.95428, 38.00917], [-121.95453, 38.00918], [-121.95449, 38.00943], [-121.95409, 38.01023], [-121.95321, 38.0113], [-121.95318, 38.01146], [-121.95264, 38.0125], [-121.95313, 38.01256], [-121.95393, 38.01284], [-121.95379, 38.01314], [-121.9543, 38.01331], [-121.95445, 38.01297], [-121.9546, 38.01295], [-121.95473, 38.01294], [-121.95531, 38.01338], [-121.95578, 38.01229], [-121.95579, 38.01198], [-121.95586, 38.007], [-121.95524, 38.00701], [-121.95479, 38.0069], [-121.95457, 38.00693], [-121.95433, 38.00673], [-121.95403, 38.00693], [-121.95389, 38.00722], [-121.95369, 38.00726], [-121.95365, 38.00746], [-121.95306, 38.00739], [-121.9528, 38.00738], [-121.95252, 38.00731], [-121.95241, 38.00714], [-121.95222, 38.00679], [-121.95207, 38.0064], [-121.95206, 38.00601], [-121.95221, 38.00581], [-121.95228, 38.00584], [-121.95269, 38.00598], [-121.95312, 38.00606], [-121.95342, 38.00607], [-121.95369, 38.00601], [-121.95377, 38.00599], [-121.95409, 38.00586], [-121.9543, 38.00567], [-121.95459, 38.00555], [-121.95406, 38.00491], [-121.9534, 38.00523], [-121.95279, 38.0053], [-121.95144, 38.0048], [-121.95124, 38.0044], [-121.95071, 38.00442], [-121.95031, 38.0046], [-121.94909, 38.00501], [-121.9486, 38.0048], [-121.94832, 38.00493], [-121.94845, 38.00526], [-121.94895, 38.00581], [-121.94927, 38.00577], [-121.94937, 38.00597], [-121.94937, 38.00613], [-121.94916, 38.00611], [-121.9489, 38.00629], [-121.94866, 38.00645], [-121.94828, 38.00694], [-121.94941, 38.00731], [-121.94975, 38.00726], [-121.95033, 38.00652], [-121.9506, 38.0064], [-121.95082, 38.00572], [-121.95114, 38.00582], [-121.95109, 38.00647], [-121.95114, 38.0067], [-121.95082, 38.00697], [-121.95054, 38.0077], [-121.95101, 38.0083], [-121.95026, 38.00873], [-121.95006, 38.00858], [-121.94981, 38.00879], [-121.94948, 38.00874], [-121.94932, 38.00874], [-121.94792, 38.00823], [-121.94762, 38.00818], [-121.94735, 38.00792], [-121.94734, 38.00753], [-121.94758, 38.00682], [-121.94757, 38.00641], [-121.94727, 38.00641], [-121.94689, 38.00602], [-121.94696, 38.00588], [-121.94691, 38.00565], [-121.94661, 38.00533], [-121.94616, 38.00526], [-121.94582, 38.00543], [-121.94578, 38.00593], [-121.9448, 38.00588], [-121.94481, 38.00546], [-121.94411, 38.00542], [-121.9438, 38.00559], [-121.94317, 38.00606], [-121.9428, 38.00616], [-121.94212, 38.00645], [-121.94184, 38.00674], [-121.94276, 38.0072], [-121.94279, 38.00744], [-121.94297, 38.00761], [-121.94294, 38.00842], [-121.94262, 38.00924], [-121.94347, 38.00941], [-121.94442, 38.01002], [-121.94465, 38.01065], [-121.94458, 38.01066], [-121.94442, 38.01075], [-121.94434, 38.01086], [-121.94421, 38.01102], [-121.94376, 38.01117], [-121.94223, 38.01118], [-121.94223, 38.01214], [-121.94346, 38.01207], [-121.94363, 38.01198], [-121.94408, 38.01176], [-121.94382, 38.01147], [-121.94391, 38.01141], [-121.94413, 38.01113], [-121.94455, 38.0113], [-121.94476, 38.01096], [-121.94505, 38.0111], [-121.94549, 38.01133], [-121.94546, 38.01168], [-121.94545, 38.01189], [-121.94463, 38.01209], [-121.94488, 38.01236], [-121.94498, 38.01246], [-121.94483, 38.01255], [-121.94471, 38.01266], [-121.94455, 38.01288], [-121.94448, 38.01302], [-121.94443, 38.01328], [-121.94443, 38.01391], [-121.94443, 38.01442], [-121.94444, 38.01472], [-121.9445, 38.01488], [-121.94452, 38.01517], [-121.94496, 38.01514], [-121.94539, 38.01514], [-121.94706, 38.0153], [-121.94705, 38.01535], [-121.94798, 38.01549], [-121.94796, 38.01556], [-121.94864, 38.01567], [-121.95071, 38.01598], [-121.95101, 38.01604], [-121.9513, 38.01612], [-121.95158, 38.01621], [-121.95185, 38.01633], [-121.95211, 38.01647], [-121.95234, 38.01658]]]}, "properties": {"name": "Oak Hills", "place": "", "kind": "subdivision"}}, {"type": "Feature", "geometry": {"type": "Polygon", "coordinates": [[[-121.94022, 38.01537], [-121.93964, 38.01541], [-121.93957, 38.01541], [-121.93943, 38.01541], [-121.93946, 38.01499], [-121.93932, 38.01469], [-121.93922, 38.01433], [-121.93935, 38.01415], [-121.93923, 38.01365], [-121.93918, 38.01335], [-121.93906, 38.01332], [-121.93891, 38.01311], [-121.93865, 38.01293], [-121.93844, 38.01284], [-121.93863, 38.01213], [-121.93954, 38.01212], [-121.93987, 38.01301], [-121.93955, 38.01311], [-121.9396, 38.01321], [-121.93961, 38.0133], [-121.93968, 38.01364], [-121.9402, 38.01498], [-121.94024, 38.01527], [-121.94022, 38.01537]]]}, "properties": {"name": "Lawlor Estates", "place": "", "kind": "subdivision"}}, {"type": "Feature", "geometry": {"type": "Polygon", "coordinates": [[[-121.93287, 38.02017], [-121.93292, 38.02028], [-121.93283, 38.02036], [-121.93283, 38.02077], [-121.93283, 38.02117], [-121.93282, 38.02248], [-121.93114, 38.0225], [-121.93114, 38.02244], [-121.93105, 38.02227], [-121.9308, 38.02223], [-121.93065, 38.02251], [-121.92896, 38.02248], [-121.92893, 38.02054], [-121.9289, 38.01957], [-121.92895, 38.01958], [-121.92983, 38.01956], [-121.93026, 38.01955], [-121.93287, 38.02017]]]}, "properties": {"name": "Emerald Cove Mobile Home Park", "place": "", "kind": "subdivision"}}, {"type": "Feature", "geometry": {"type": "Polygon", "coordinates": [[[-121.93286, 38.02678], [-121.93284, 38.02725], [-121.93279, 38.02901], [-121.93278, 38.02974], [-121.93277, 38.02997], [-121.93186, 38.03048], [-121.93148, 38.0306], [-121.93118, 38.03055], [-121.93033, 38.03033], [-121.93024, 38.03021], [-121.93033, 38.02988], [-121.93026, 38.02989], [-121.93016, 38.03018], [-121.93001, 38.03024], [-121.92505, 38.02898], [-121.92501, 38.02676], [-121.9259, 38.02676], [-121.92637, 38.02676], [-121.92694, 38.02676], [-121.92726, 38.02677], [-121.92741, 38.02676], [-121.92746, 38.02676], [-121.9277, 38.02676], [-121.92838, 38.02677], [-121.93008, 38.02678], [-121.9304, 38.02679], [-121.93077, 38.02679], [-121.93097, 38.02679], [-121.93104, 38.02679], [-121.93113, 38.02679], [-121.93145, 38.02679], [-121.9321, 38.02679], [-121.93238, 38.0268], [-121.93258, 38.02679], [-121.93286, 38.02678]]]}, "properties": {"name": "California Seasons", "place": "", "kind": "subdivision"}}, {"type": "Feature", "geometry": {"type": "Polygon", "coordinates": [[[-121.92684, 38.02667], [-121.92684, 38.02665], [-121.92682, 38.02533], [-121.92691, 38.02533], [-121.92775, 38.02533], [-121.92776, 38.02612], [-121.92776, 38.02628], [-121.92776, 38.02631], [-121.92727, 38.02631], [-121.92726, 38.02665], [-121.92726, 38.02667], [-121.92684, 38.02667]]]}, "properties": {"name": "Willow Plaza Townhomes", "place": "", "kind": "subdivision"}}, {"type": "Feature", "geometry": {"type": "Polygon", "coordinates": [[[-121.94797, 38.02105], [-121.94711, 38.02105], [-121.94714, 38.02083], [-121.94741, 38.02059], [-121.94797, 38.02105]]]}, "properties": {"name": "Hickory Meadows Park", "place": "", "kind": "park"}}, {"type": "Feature", "geometry": {"type": "Polygon", "coordinates": [[[-121.93744, 38.02865], [-121.9381, 38.02865], [-121.93811, 38.02828], [-121.93745, 38.02828], [-121.93745, 38.02847], [-121.93744, 38.02849], [-121.93744, 38.02865]]]}, "properties": {"name": "Emunah Estates", "place": "", "kind": "subdivision"}}, {"type": "Feature", "geometry": {"type": "Polygon", "coordinates": [[[-121.96699, 38.02593], [-121.96702, 38.02588], [-121.96704, 38.02586], [-121.9671, 38.02581], [-121.96711, 38.0258], [-121.96716, 38.02576], [-121.96703, 38.02575], [-121.96699, 38.02575], [-121.96695, 38.02576], [-121.9669, 38.0258], [-121.9669, 38.02586], [-121.96699, 38.02593]]]}, "properties": {"name": "Viewpointe Park", "place": "", "kind": "park"}}, {"type": "Feature", "geometry": {"type": "Polygon", "coordinates": [[[-121.87187, 38.01758], [-121.87221, 38.01655], [-121.87182, 38.01647], [-121.87164, 38.01642], [-121.8716, 38.01642], [-121.87158, 38.01641], [-121.87125, 38.01635], [-121.87112, 38.01663], [-121.87074, 38.01757], [-121.87143, 38.01769], [-121.87187, 38.01758]]]}, "properties": {"name": "El Pueblo Park", "place": "", "kind": "park"}}, {"type": "Feature", "geometry": {"type": "Polygon", "coordinates": [[[-121.99543, 37.98528], [-121.99521, 37.98514], [-121.99487, 37.98506], [-121.99437, 37.98496], [-121.99432, 37.98495], [-121.99405, 37.9849], [-121.99385, 37.98477], [-121.99316, 37.98536], [-121.99436, 37.98622], [-121.99543, 37.98528]]]}, "properties": {"name": "Gehringer Park", "place": "", "kind": "park"}}, {"type": "Feature", "geometry": {"type": "Polygon", "coordinates": [[[-121.94201, 38.02915], [-121.9409, 38.02914], [-121.9409, 38.02931], [-121.9409, 38.02942], [-121.94089, 38.02955], [-121.94156, 38.02954], [-121.94156, 38.02972], [-121.94089, 38.02972], [-121.94089, 38.02986], [-121.94089, 38.0299], [-121.9409, 38.03001], [-121.9409, 38.03007], [-121.9409, 38.03017], [-121.9409, 38.03027], [-121.94201, 38.03027], [-121.94201, 38.02915]]]}, "properties": {"name": "Broadway Mobil Home Park", "place": "", "kind": "subdivision"}}, {"type": "Feature", "geometry": {"type": "Polygon", "coordinates": [[[-121.94089, 38.02966], [-121.93974, 38.02966], [-121.93974, 38.03001], [-121.9409, 38.03001], [-121.94089, 38.0299], [-121.94089, 38.02986], [-121.94089, 38.02972], [-121.94089, 38.02966]]]}, "properties": {"name": "Bob's Trailer Park", "place": "", "kind": "subdivision"}}, {"type": "Feature", "geometry": {"type": "Polygon", "coordinates": [[[-121.97656, 38.04115], [-121.97656, 38.04112], [-121.97661, 38.04012], [-121.97657, 38.03841], [-121.9766, 38.03652], [-121.97764, 38.03652], [-121.97763, 38.03674], [-121.97825, 38.03672], [-121.97823, 38.03785], [-121.97882, 38.03787], [-121.97882, 38.03729], [-121.97879, 38.03647], [-121.97879, 38.03612], [-121.9788, 38.03538], [-121.9788, 38.03505], [-121.9788, 38.03438], [-121.9788, 38.03396], [-121.97813, 38.03396], [-121.97742, 38.03397], [-121.97741, 38.0351], [-121.97638, 38.03511], [-121.97637, 38.03478], [-121.97631, 38.03478], [-121.97537, 38.03476], [-121.97537, 38.03511], [-121.97464, 38.0351], [-121.97464, 38.03405], [-121.97421, 38.03406], [-121.97419, 38.03405], [-121.97416, 38.03404], [-121.97414, 38.03403], [-121.97138, 38.03406], [-121.97138, 38.03496], [-121.97204, 38.03496], [-121.97203, 38.0345], [-121.97241, 38.0345], [-121.97242, 38.03503], [-121.97308, 38.03502], [-121.97309, 38.03575], [-121.97139, 38.03576], [-121.97137, 38.03618], [-121.9708, 38.03619], [-121.96993, 38.03621], [-121.9695, 38.03622], [-121.96949, 38.03495], [-121.96947, 38.03411], [-121.9689, 38.03411], [-121.96746, 38.0341], [-121.96542, 38.0341], [-121.9625, 38.0341], [-121.9625, 38.03456], [-121.96221, 38.03508], [-121.96198, 38.03554], [-121.96202, 38.03556], [-121.96202, 38.03561], [-121.96202, 38.03573], [-121.96202, 38.03587], [-121.96202, 38.03588], [-121.96202, 38.03594], [-121.96189, 38.03593], [-121.96184, 38.03593], [-121.96184, 38.03627], [-121.96202, 38.03626], [-121.96198, 38.03687], [-121.96195, 38.03753], [-121.96201, 38.0375], [-121.96203, 38.03756], [-121.96405, 38.03819], [-121.96408, 38.03813], [-121.96521, 38.03848], [-121.96563, 38.0386], [-121.96592, 38.03866], [-121.9682, 38.03906], [-121.96815, 38.0393], [-121.96825, 38.03932], [-121.9682, 38.03948], [-121.9685, 38.03956], [-121.96889, 38.03969], [-121.97021, 38.04009], [-121.97063, 38.04023], [-121.97398, 38.04106], [-121.97457, 38.04114], [-121.9759, 38.04115], [-121.97656, 38.04115]]]}, "properties": {"name": "Shore Acres", "place": "", "kind": "subdivision"}}, {"type": "Feature", "geometry": {"type": "Polygon", "coordinates": [[[-121.96344, 38.01789], [-121.96335, 38.01807], [-121.9631, 38.01903], [-121.96392, 38.01917], [-121.96401, 38.01919], [-121.96425, 38.01824], [-121.96401, 38.0182], [-121.96378, 38.01815], [-121.96362, 38.01808], [-121.96352, 38.01802], [-121.96344, 38.01789]]]}, "properties": {"name": "Ray Giacomelli Community Park", "place": "", "kind": "park"}}, {"type": "Feature", "geometry": {"type": "Polygon", "coordinates": [[[-121.84007, 37.99598], [-121.83898, 37.99491], [-121.83888, 37.9949], [-121.83905, 37.99457], [-121.83955, 37.99475], [-121.83981, 37.99473], [-121.84035, 37.99494], [-121.84043, 37.99501], [-121.84092, 37.99519], [-121.84103, 37.99518], [-121.84136, 37.99531], [-121.84138, 37.99545], [-121.84104, 37.99548], [-121.84007, 37.99598]]]}, "properties": {"name": "Village East Park", "place": "", "kind": "park"}}, {"type": "Feature", "geometry": {"type": "Polygon", "coordinates": [[[-121.84137, 37.99258], [-121.84159, 37.99264], [-121.84188, 37.99266], [-121.84212, 37.99265], [-121.84213, 37.99267], [-121.84219, 37.99273], [-121.84224, 37.99275], [-121.84282, 37.99277], [-121.84293, 37.99271], [-121.84312, 37.99276], [-121.8435, 37.99277], [-121.84367, 37.99268], [-121.84378, 37.99267], [-121.84419, 37.993], [-121.84408, 37.99308], [-121.84387, 37.9929], [-121.84364, 37.99303], [-121.84341, 37.99313], [-121.84316, 37.99322], [-121.84279, 37.99337], [-121.84257, 37.99336], [-121.84228, 37.99326], [-121.84225, 37.99317], [-121.84218, 37.9931], [-121.8421, 37.99307], [-121.84167, 37.99292], [-121.84155, 37.99293], [-121.8415, 37.99297], [-121.84097, 37.99275], [-121.84087, 37.99279], [-121.84083, 37.99274], [-121.84066, 37.99272], [-121.84034, 37.99273], [-121.84016, 37.99269], [-121.84018, 37.99259], [-121.84034, 37.9926], [-121.84036, 37.99265], [-121.84039, 37.99267], [-121.84044, 37.99267], [-121.84046, 37.99266], [-121.8405, 37.99264], [-121.84052, 37.99262], [-121.84075, 37.99257], [-121.8408, 37.99259], [-121.84125, 37.9926], [-121.84137, 37.99258]]]}, "properties": {"name": "Neighbor Woods Park", "place": "", "kind": "park"}}, {"type": "Feature", "geometry": {"type": "Polygon", "coordinates": [[[-121.97861, 38.01802], [-121.97865, 38.01561], [-121.97786, 38.01488], [-121.97746, 38.0145], [-121.97705, 38.01449], [-121.97395, 38.01519], [-121.97424, 38.01588], [-121.97482, 38.01722], [-121.97472, 38.01725], [-121.9751, 38.018], [-121.97546, 38.0187], [-121.97572, 38.01858], [-121.97768, 38.01817], [-121.97861, 38.01802]]]}, "properties": {"name": "Positano at San Marco", "place": "neighbourhood", "kind": "subdivision"}}, {"type": "Feature", "geometry": {"type": "Polygon", "coordinates": [[[-121.86969, 38.01515], [-121.86811, 38.01477], [-121.86848, 38.01377], [-121.8693, 38.01396], [-121.86942, 38.01419], [-121.87, 38.01433], [-121.86969, 38.01515]]]}, "properties": {"name": "Edgewater Apartment Homes", "place": "", "kind": "subdivision"}}, {"type": "Feature", "geometry": {"type": "Polygon", "coordinates": [[[-121.96742, 38.01969], [-121.96711, 38.02002], [-121.96695, 38.02021], [-121.9662, 38.02019], [-121.96619, 38.02114], [-121.9662, 38.0214], [-121.96631, 38.02161], [-121.96682, 38.02163], [-121.96705, 38.02168], [-121.9674, 38.02181], [-121.96765, 38.02198], [-121.96818, 38.02252], [-121.96855, 38.02287], [-121.96866, 38.02294], [-121.96893, 38.02307], [-121.96931, 38.02317], [-121.96991, 38.0233], [-121.97042, 38.0234], [-121.97047, 38.0233], [-121.97103, 38.02198], [-121.9701, 38.02176], [-121.97001, 38.02165], [-121.97, 38.02161], [-121.97002, 38.02147], [-121.97011, 38.02116], [-121.97031, 38.02045], [-121.97029, 38.02039], [-121.97026, 38.02036], [-121.96876, 38.02001], [-121.96854, 38.01998], [-121.96826, 38.01991], [-121.9681, 38.01985], [-121.96742, 38.01969]]]}, "properties": {"name": "San Marco Villas", "place": "", "kind": "subdivision"}}, {"type": "Feature", "geometry": {"type": "Polygon", "coordinates": [[[-121.96044, 38.01889], [-121.96045, 38.02118], [-121.96051, 38.02127], [-121.96057, 38.02132], [-121.96097, 38.02138], [-121.96175, 38.02149], [-121.9619, 38.02152], [-121.9636, 38.02176], [-121.96446, 38.02184], [-121.96503, 38.02188], [-121.96522, 38.02184], [-121.96538, 38.02173], [-121.9655, 38.02157], [-121.96556, 38.02138], [-121.96556, 38.02131], [-121.96555, 38.0212], [-121.96552, 38.0212], [-121.9655, 38.02113], [-121.96561, 38.02073], [-121.9656, 38.02052], [-121.96562, 38.02045], [-121.96565, 38.02017], [-121.96579, 38.02019], [-121.96579, 38.01972], [-121.96567, 38.0196], [-121.96507, 38.01958], [-121.96493, 38.01956], [-121.9646, 38.01954], [-121.9642, 38.0195], [-121.96379, 38.01944], [-121.96235, 38.01918], [-121.96192, 38.0191], [-121.96083, 38.0189], [-121.96044, 38.01889]]]}, "properties": {"name": "Toscana", "place": "", "kind": "subdivision"}}, {"type": "Feature", "geometry": {"type": "Polygon", "coordinates": [[[-121.88998, 38.00985], [-121.89186, 38.01032], [-121.89155, 38.01113], [-121.88966, 38.01068], [-121.88998, 38.00985]]]}, "properties": {"name": "The Atchison", "place": "", "kind": "subdivision"}}, {"type": "Feature", "geometry": {"type": "Polygon", "coordinates": [[[-121.88853, 38.01041], [-121.88966, 38.01068], [-121.88998, 38.00985], [-121.8888, 38.00955], [-121.8887, 38.00977], [-121.8884, 38.00985], [-121.88832, 38.00988], [-121.88838, 38.00994], [-121.88838, 38.01002], [-121.88829, 38.01026], [-121.88834, 38.01035], [-121.88853, 38.01041]]]}, "properties": {"name": "Presidio Village Senior Housing", "place": "", "kind": "subdivision"}}, {"type": "Feature", "geometry": {"type": "Polygon", "coordinates": [[[-121.88756, 38.01126], [-121.88792, 38.01037], [-121.88823, 38.01044], [-121.88834, 38.01035], [-121.88829, 38.01026], [-121.88838, 38.01002], [-121.88838, 38.00994], [-121.88832, 38.00988], [-121.88698, 38.00957], [-121.88668, 38.00993], [-121.88656, 38.01015], [-121.88628, 38.01095], [-121.88756, 38.01126]]]}, "properties": {"name": "Stoneman Village", "place": "", "kind": "subdivision"}}, {"type": "Feature", "geometry": {"type": "Polygon", "coordinates": [[[-121.88195, 38.00754], [-121.88208, 38.0076], [-121.88285, 38.00777], [-121.88311, 38.00724], [-121.88533, 38.00615], [-121.88512, 38.00579], [-121.88499, 38.00543], [-121.88495, 38.00497], [-121.88441, 38.00532], [-121.88373, 38.00576], [-121.88323, 38.00611], [-121.88303, 38.00659], [-121.88224, 38.00694], [-121.88208, 38.00716], [-121.88195, 38.00754]]]}, "properties": {"name": "Fox Creek Apartments", "place": "", "kind": "subdivision"}}, {"type": "Feature", "geometry": {"type": "Polygon", "coordinates": [[[-121.87689, 38.00642], [-121.88158, 38.00754], [-121.88172, 38.00716], [-121.88183, 38.007], [-121.88209, 38.0068], [-121.88267, 38.00651], [-121.88283, 38.00639], [-121.88285, 38.00607], [-121.88298, 38.00586], [-121.88336, 38.00556], [-121.88384, 38.00536], [-121.88403, 38.00523], [-121.88434, 38.00509], [-121.88454, 38.00494], [-121.88373, 38.00475], [-121.88388, 38.00431], [-121.88293, 38.0041], [-121.88228, 38.00407], [-121.88156, 38.00423], [-121.8809, 38.00442], [-121.88037, 38.00454], [-121.8797, 38.00447], [-121.87782, 38.00399], [-121.87689, 38.00642]]]}, "properties": {"name": "Delta Hawaii", "place": "", "kind": "subdivision"}}, {"type": "Feature", "geometry": {"type": "Polygon", "coordinates": [[[-121.87165, 38.00637], [-121.87175, 38.00637], [-121.87198, 38.00641], [-121.87196, 38.00646], [-121.87393, 38.00695], [-121.87631, 38.0075], [-121.87665, 38.00666], [-121.87207, 38.00557], [-121.87196, 38.0056], [-121.87165, 38.00637]]]}, "properties": {"name": "Stoneman Apartments", "place": "", "kind": "subdivision"}}, {"type": "Feature", "geometry": {"type": "Polygon", "coordinates": [[[-121.87134, 38.00751], [-121.87347, 38.008], [-121.87393, 38.00695], [-121.87196, 38.00646], [-121.87198, 38.00641], [-121.87175, 38.00637], [-121.87165, 38.00637], [-121.87124, 38.00748], [-121.87134, 38.00751]]]}, "properties": {"name": "Portofino Apartments", "place": "", "kind": "subdivision"}}, {"type": "Feature", "geometry": {"type": "Polygon", "coordinates": [[[-121.87508, 38.00914], [-121.87571, 38.00754], [-121.87576, 38.0075], [-121.87588, 38.00748], [-121.87622, 38.00756], [-121.87627, 38.00755], [-121.87629, 38.00754], [-121.8763, 38.00752], [-121.87631, 38.0075], [-121.87393, 38.00695], [-121.87347, 38.008], [-121.87328, 38.00851], [-121.8732, 38.00871], [-121.87508, 38.00914]]]}, "properties": {"name": "Mosaic Apartments", "place": "", "kind": "subdivision"}}, {"type": "Feature", "geometry": {"type": "Polygon", "coordinates": [[[-121.87143, 38.01069], [-121.87184, 38.00962], [-121.87221, 38.00865], [-121.8749, 38.00927], [-121.87463, 38.00998], [-121.87375, 38.00993], [-121.87318, 38.00998], [-121.87166, 38.01075], [-121.87143, 38.01069]]]}, "properties": {"name": "Ventrua Apartments", "place": "", "kind": "subdivision"}}, {"type": "Feature", "geometry": {"type": "Polygon", "coordinates": [[[-121.87484, 38.00998], [-121.87509, 38.00933], [-121.8756, 38.00941], [-121.87639, 38.00941], [-121.87706, 38.00934], [-121.87801, 38.00927], [-121.87869, 38.00933], [-121.87933, 38.00946], [-121.87983, 38.00958], [-121.87966, 38.00992], [-121.87939, 38.0101], [-121.87918, 38.01022], [-121.87905, 38.01034], [-121.87854, 38.01021], [-121.87696, 38.0101], [-121.87484, 38.00998]]]}, "properties": {"name": "Stanford Place", "place": "", "kind": "subdivision"}}, {"type": "Feature", "geometry": {"type": "Polygon", "coordinates": [[[-121.8864, 38.01004], [-121.88632, 38.01], [-121.88539, 38.00977], [-121.88507, 38.01059], [-121.88608, 38.01085], [-121.8864, 38.01004]]]}, "properties": {"name": "Villa Serena Apartments", "place": "", "kind": "subdivision"}}, {"type": "Feature", "geometry": {"type": "Polygon", "coordinates": [[[-121.89252, 38.01444], [-121.89208, 38.0156], [-121.89223, 38.01565], [-121.89188, 38.01654], [-121.89242, 38.01668], [-121.89224, 38.01718], [-121.89356, 38.01761], [-121.89367, 38.01759], [-121.89399, 38.01674], [-121.89445, 38.01541], [-121.89462, 38.01497], [-121.89453, 38.01493], [-121.89252, 38.01444]]]}, "properties": {"name": "Crestview Apartments", "place": "", "kind": "subdivision"}}, {"type": "Feature", "geometry": {"type": "Polygon", "coordinates": [[[-121.89453, 38.01493], [-121.89462, 38.01497], [-121.89489, 38.01477], [-121.89541, 38.01445], [-121.89532, 38.01436], [-121.89205, 38.01358], [-121.89179, 38.01427], [-121.89252, 38.01444], [-121.89453, 38.01493]]]}, "properties": {"name": "Pittsburg Park Apartments", "place": "", "kind": "subdivision"}}, {"type": "Feature", "geometry": {"type": "Polygon", "coordinates": [[[-121.84559, 37.99683], [-121.847, 37.99731], [-121.847, 37.99784], [-121.84502, 37.99781], [-121.84485, 37.99763], [-121.84539, 37.99711], [-121.84559, 37.99683]]]}, "properties": {"name": "Summerwood", "place": "", "kind": "subdivision"}}, {"type": "Feature", "geometry": {"type": "Polygon", "coordinates": [[[-121.8394, 37.98795], [-121.83774, 37.98926], [-121.83759, 37.98939], [-121.83816, 37.98953], [-121.8385, 37.98956], [-121.84013, 37.98961], [-121.84013, 37.9895], [-121.84012, 37.98945], [-121.84011, 37.98936], [-121.84008, 37.9892], [-121.84, 37.98898], [-121.83976, 37.98849], [-121.83966, 37.98831], [-121.8394, 37.98795]]]}, "properties": {"name": "Canal Park", "place": "", "kind": "park"}}, {"type": "Feature", "geometry": {"type": "Polygon", "coordinates": [[[-121.8799, 38.00936], [-121.87991, 38.009], [-121.88012, 38.00846], [-121.87985, 38.00842], [-121.87842, 38.00807], [-121.87738, 38.00841], [-121.87749, 38.00909], [-121.87775, 38.00907], [-121.87801, 38.00907], [-121.87831, 38.00908], [-121.87854, 38.0091], [-121.87866, 38.00911], [-121.87889, 38.00914], [-121.87919, 38.0092], [-121.87964, 38.00931], [-121.87971, 38.00931], [-121.8799, 38.00936]]]}, "properties": {"name": "Woods Grove", "place": "", "kind": "subdivision"}}, {"type": "Feature", "geometry": {"type": "Polygon", "coordinates": [[[-121.91469, 38.01304], [-121.91479, 38.01349], [-121.91484, 38.01362], [-121.91492, 38.0137], [-121.91498, 38.01373], [-121.91947, 38.01483], [-121.91979, 38.01412], [-121.91626, 38.01327], [-121.91558, 38.01311], [-121.91533, 38.01306], [-121.91511, 38.01304], [-121.91485, 38.01303], [-121.91469, 38.01304]]]}, "properties": {"name": "John Henry Johnson Park", "place": "", "kind": "park"}}, {"type": "Feature", "geometry": {"type": "Polygon", "coordinates": [[[-121.97259, 38.03182], [-121.96963, 38.03083], [-121.96966, 38.03394], [-121.97257, 38.03393], [-121.97261, 38.0339], [-121.97259, 38.03182]]]}, "properties": {"name": "Mariners Bay Mobile Home Park", "place": "", "kind": "subdivision"}}, {"type": "Feature", "geometry": {"type": "Polygon", "coordinates": [[[-121.94212, 38.02614], [-121.94279, 38.02614], [-121.94278, 38.02601], [-121.94319, 38.02601], [-121.94338, 38.02603], [-121.9434, 38.02537], [-121.94283, 38.0254], [-121.94282, 38.02453], [-121.94273, 38.02453], [-121.94214, 38.02453], [-121.94212, 38.02454], [-121.9421, 38.02456], [-121.94209, 38.02458], [-121.94212, 38.02614]]]}, "properties": {"name": "Willowbrook Apartments", "place": "", "kind": "subdivision"}}, {"type": "Feature", "geometry": {"type": "Polygon", "coordinates": [[[-121.95633, 38.02914], [-121.95571, 38.02868], [-121.9546, 38.02866], [-121.9546, 38.02741], [-121.95457, 38.02697], [-121.95458, 38.02693], [-121.95459, 38.02692], [-121.95463, 38.02689], [-121.95721, 38.02689], [-121.95725, 38.02691], [-121.95728, 38.02695], [-121.95727, 38.02827], [-121.95726, 38.02834], [-121.9572, 38.02844], [-121.95715, 38.0285], [-121.95633, 38.02914]]]}, "properties": {"name": "Rivershore Apartments", "place": "", "kind": "subdivision"}}, {"type": "Feature", "geometry": {"type": "Polygon", "coordinates": [[[-121.96031, 38.0284], [-121.95979, 38.02839], [-121.95979, 38.02847], [-121.95887, 38.02847], [-121.95836, 38.02809], [-121.95838, 38.0273], [-121.95837, 38.02726], [-121.95745, 38.02725], [-121.95745, 38.02697], [-121.95746, 38.02694], [-121.95748, 38.02691], [-121.95751, 38.0269], [-121.95827, 38.0269], [-121.9583, 38.02692], [-121.95854, 38.02692], [-121.95859, 38.0269], [-121.95881, 38.02689], [-121.95887, 38.0269], [-121.95898, 38.02691], [-121.95908, 38.02691], [-121.95942, 38.02687], [-121.95964, 38.02683], [-121.9597, 38.02683], [-121.95987, 38.02686], [-121.96001, 38.0269], [-121.96013, 38.02696], [-121.96022, 38.02702], [-121.96029, 38.0271], [-121.96033, 38.02717], [-121.96034, 38.02731], [-121.96034, 38.02767], [-121.9603, 38.02771], [-121.96029, 38.02788], [-121.96034, 38.02793], [-121.96034, 38.02835], [-121.96031, 38.0284]]]}, "properties": {"name": "Willow View Apartments", "place": "", "kind": "subdivision"}}, {"type": "Feature", "geometry": {"type": "Polygon", "coordinates": [[[-121.84535, 38.001], [-121.84587, 38.00089], [-121.8465, 38.00028], [-121.84817, 38.00069], [-121.84848, 37.99989], [-121.84609, 37.99932], [-121.84499, 37.99998], [-121.84515, 38.00033], [-121.84535, 38.001]]]}, "properties": {"name": "Hudson Townhouse Manor", "place": "", "kind": "subdivision"}}, {"type": "Feature", "geometry": {"type": "Polygon", "coordinates": [[[-121.84535, 38.001], [-121.84574, 38.00225], [-121.84614, 38.00229], [-121.84637, 38.00238], [-121.84652, 38.00296], [-121.84678, 38.00294], [-121.84712, 38.00297], [-121.84729, 38.00245], [-121.84776, 38.00168], [-121.84826, 38.00077], [-121.84817, 38.00069], [-121.8465, 38.00028], [-121.84587, 38.00089], [-121.84535, 38.001]]]}, "properties": {"name": "Delta View Apartments", "place": "", "kind": "subdivision"}}, {"type": "Feature", "geometry": {"type": "Polygon", "coordinates": [[[-121.83888, 37.9949], [-121.83898, 37.99491], [-121.84007, 37.99598], [-121.83875, 37.99666], [-121.83829, 37.99673], [-121.83864, 37.99542], [-121.83888, 37.9949]]]}, "properties": {"name": "Parkview Village Apartments", "place": "", "kind": "subdivision"}}, {"type": "Feature", "geometry": {"type": "Polygon", "coordinates": [[[-121.83827, 37.99687], [-121.83854, 37.99691], [-121.83864, 37.99687], [-121.83917, 37.99664], [-121.8402, 37.99612], [-121.84158, 37.99748], [-121.84158, 37.9975], [-121.84168, 37.99796], [-121.84058, 37.99769], [-121.83813, 37.99768], [-121.83812, 37.99748], [-121.83827, 37.99687]]]}, "properties": {"name": "Villa Medanos Apartments", "place": "", "kind": "subdivision"}}, {"type": "Feature", "geometry": {"type": "Polygon", "coordinates": [[[-121.83583, 37.99898], [-121.83606, 38.0], [-121.83533, 38.00078], [-121.83414, 38.00011], [-121.83504, 37.99908], [-121.83583, 37.99898]]]}, "properties": {"name": "Elder Winds", "place": "", "kind": "subdivision"}}, {"type": "Feature", "geometry": {"type": "Polygon", "coordinates": [[[-121.83243, 38.00195], [-121.83251, 38.00178], [-121.83388, 38.00034], [-121.83414, 38.00011], [-121.83533, 38.00078], [-121.83569, 38.00087], [-121.83563, 38.00229], [-121.83539, 38.00241], [-121.83496, 38.00248], [-121.83444, 38.00249], [-121.83386, 38.0024], [-121.83243, 38.00195]]]}, "properties": {"name": "Mira Vista Hills", "place": "", "kind": "subdivision"}}, {"type": "Feature", "geometry": {"type": "Polygon", "coordinates": [[[-121.83145, 38.00095], [-121.83385, 38.00031], [-121.83388, 38.00034], [-121.83251, 38.00178], [-121.83243, 38.00195], [-121.83094, 38.00153], [-121.83112, 38.00118], [-121.83145, 38.00095]]]}, "properties": {"name": "Baywoods", "place": "", "kind": "subdivision"}}, {"type": "Feature", "geometry": {"type": "Polygon", "coordinates": [[[-121.89445, 38.02877], [-121.89584, 38.02876], [-121.89566, 38.02938], [-121.89369, 38.02937], [-121.89384, 38.029], [-121.89435, 38.02902], [-121.89445, 38.02877]]]}, "properties": {"name": "Beacon Villa", "place": "", "kind": "subdivision"}}]}