{"type": "FeatureCollection", "features": [{"type": "Feature", "properties": {"kind": "library", "name": "Rathbun Branch Kern County Library"}, "geometry": {"type": "Point", "coordinates": [-119.02399, 35.42635]}}, {"type": "Feature", "properties": {"kind": "library", "name": "Baker Street Branch Kern County Library"}, "geometry": {"type": "Point", "coordinates": [-118.99066, 35.38329]}}, {"type": "Feature", "properties": {"kind": "library", "name": "Eleanor N Wilson Branch Kern County Library"}, "geometry": {"type": "Point", "coordinates": [-119.02399, 35.3319]}}, {"type": "Feature", "properties": {"kind": "library", "name": "Kern County Hall of Records Library"}, "geometry": {"type": "Point", "coordinates": [-119.01732, 35.37413]}}, {"type": "Feature", "properties": {"kind": "library", "name": "Arvin Branch Kern County Library"}, "geometry": {"type": "Point", "coordinates": [-118.82899, 35.20968]}}, {"type": "Feature", "properties": {"kind": "library", "name": "Mercy Hospital Medical Library"}, "geometry": {"type": "Point", "coordinates": [-119.02732, 35.37274]}}, {"type": "Feature", "properties": {"kind": "library", "name": "Kern County Law Library"}, "geometry": {"type": "Point", "coordinates": [-119.01816, 35.37246]}}, {"type": "Feature", "properties": {"kind": "library", "name": "Holloway-Gonzale Branch Kern County Library"}, "geometry": {"type": "Point", "coordinates": [-118.99871, 35.35413]}}, {"type": "Feature", "properties": {"kind": "library", "name": "Lamont Branch Kern County Library"}, "geometry": {"type": "Point", "coordinates": [-118.91177, 35.25663]}}, {"type": "Feature", "properties": {"kind": "library", "name": "Unnamed cooling site"}, "geometry": {"type": "Point", "coordinates": [-118.91149, 35.25626]}}, {"type": "Feature", "properties": {"kind": "library", "name": "Christian Library of Bakersfield"}, "geometry": {"type": "Point", "coordinates": [-119.04882, 35.38175]}}, {"type": "Feature", "properties": {"kind": "community_centre", "name": "Consumer Family Learning Center"}, "geometry": {"type": "Point", "coordinates": [-119.02548, 35.38429]}}, {"type": "Feature", "properties": {"kind": "library", "name": "Beale Memorial Library"}, "geometry": {"type": "Point", "coordinates": [-119.01009, 35.37277]}}, {"type": "Feature", "properties": {"kind": "library", "name": "Walter W. Stiern Library"}, "geometry": {"type": "Point", "coordinates": [-119.10326, 35.35143]}}, {"type": "Feature", "properties": {"kind": "community_centre", "name": "Bakersfield Convention Center"}, "geometry": {"type": "Point", "coordinates": [-119.0134, 35.37217]}}, {"type": "Feature", "properties": {"kind": "community_centre", "name": "East Niles Senior Center"}, "geometry": {"type": "Point", "coordinates": [-118.91789, 35.37699]}}, {"type": "Feature", "properties": {"kind": "shelter/senior", "name": "Unnamed cooling site"}, "geometry": {"type": "Point", "coordinates": [-119.06237, 35.3432]}}, {"type": "Feature", "properties": {"kind": "library", "name": "Unnamed cooling site"}, "geometry": {"type": "Point", "coordinates": [-118.9909, 35.38346]}}, {"type": "Feature", "properties": {"kind": "community_centre", "name": "Caledonia Masonic Lodge"}, "geometry": {"type": "Point", "coordinates": [-118.98978, 35.3832]}}, {"type": "Feature", "properties": {"kind": "pool", "name": "Unnamed cooling site"}, "geometry": {"type": "Point", "coordinates": [-119.10157, 35.34752]}}, {"type": "Feature", "properties": {"kind": "pool", "name": "Unnamed cooling site"}, "geometry": {"type": "Point", "coordinates": [-119.10184, 35.3478]}}, {"type": "Feature", "properties": {"kind": "shelter/senior", "name": "Unnamed cooling site"}, "geometry": {"type": "Point", "coordinates": [-118.93594, 35.41011]}}, {"type": "Feature", "properties": {"kind": "shelter/senior", "name": "Unnamed cooling site"}, "geometry": {"type": "Point", "coordinates": [-119.11468, 35.35935]}}, {"type": "Feature", "properties": {"kind": "library", "name": "Kern County Library - Eleanor Wilson Branch"}, "geometry": {"type": "Point", "coordinates": [-119.02378, 35.33186]}}, {"type": "Feature", "properties": {"kind": "shelter/senior", "name": "Unnamed cooling site"}, "geometry": {"type": "Point", "coordinates": [-119.11306, 35.36053]}}, {"type": "Feature", "properties": {"kind": "shelter/senior", "name": "Unnamed cooling site"}, "geometry": {"type": "Point", "coordinates": [-119.1146, 35.36076]}}, {"type": "Feature", "properties": {"kind": "library", "name": "Grace Van Dyke Bird Library"}, "geometry": {"type": "Point", "coordinates": [-118.97365, 35.4091]}}, {"type": "Feature", "properties": {"kind": "pool", "name": "Unnamed cooling site"}, "geometry": {"type": "Point", "coordinates": [-119.01173, 35.36979]}}, {"type": "Feature", "properties": {"kind": "pool", "name": "Unnamed cooling site"}, "geometry": {"type": "Point", "coordinates": [-119.01158, 35.37013]}}, {"type": "Feature", "properties": {"kind": "community_centre", "name": "Unnamed cooling site"}, "geometry": {"type": "Point", "coordinates": [-119.1374, 35.35841]}}, {"type": "Feature", "properties": {"kind": "pool", "name": "Unnamed cooling site"}, "geometry": {"type": "Point", "coordinates": [-119.05873, 35.3598]}}, {"type": "Feature", "properties": {"kind": "pool", "name": "Unnamed cooling site"}, "geometry": {"type": "Point", "coordinates": [-119.00936, 35.37388]}}, {"type": "Feature", "properties": {"kind": "community_centre", "name": "Unnamed cooling site"}, "geometry": {"type": "Point", "coordinates": [-119.16607, 35.33541]}}, {"type": "Feature", "properties": {"kind": "pool", "name": "Unnamed cooling site"}, "geometry": {"type": "Point", "coordinates": [-119.01111, 35.37294]}}, {"type": "Feature", "properties": {"kind": "pool", "name": "Unnamed cooling site"}, "geometry": {"type": "Point", "coordinates": [-119.09113, 35.35759]}}, {"type": "Feature", "properties": {"kind": "shelter/senior", "name": "The Open Door Network Homeless Shelter"}, "geometry": {"type": "Point", "coordinates": [-118.9973, 35.37168]}}, {"type": "Feature", "properties": {"kind": "community_centre", "name": "Highgate Regents"}, "geometry": {"type": "Point", "coordinates": [-119.16019, 35.33519]}}, {"type": "Feature", "properties": {"kind": "shelter/senior", "name": "Unnamed cooling site"}, "geometry": {"type": "Point", "coordinates": [-119.06052, 35.40523]}}, {"type": "Feature", "properties": {"kind": "shelter/senior", "name": "Unnamed cooling site"}, "geometry": {"type": "Point", "coordinates": [-119.05961, 35.40621]}}]}