{
 "type": "FeatureCollection",
 "properties": {
  "source": "Kern County Aging & Adult Services, Cooling Centers",
  "source_url": "https://www.kerncounty.com/government/aging-adult-services/services/cooling-centers",
  "list_url": "https://itsapps.kerncounty.com/Iframed/CMS/CoolingCenters/",
  "criteria_url": "https://www.kerncounty.com/government/aging-adult-services/services/cooling-centers/cooling-center-criteria",
  "source_revision": "County list as published for the 2026 season; checked September 8, 2026",
  "checked": "2026-09-08",
  "contact_phone": "800-510-2020",
  "transport_phone": "211",
  "activation": "Centers open on a National Weather Service forecast of 105\u00b0F+ (San Joaquin and Kern River valleys), 108\u00b0F+ (desert areas) or 93\u00b0F+ (Frazier Park); when open, 1:00\u20138:00 p.m. unless stated otherwise.",
  "notes": "The county page shows an open/closed status per center for the current day; this directory does not reproduce that live status. Only the East Bakersfield Veterans Building is inside the city study area; the others serve the wider county.",
  "geocoder": "OpenStreetMap Nominatim, address match",
  "geocoded": "2026-09-13",
  "unlocated": [
   {
    "id": null,
    "name": "Frazier Park Recreation Building",
    "address": "3801 Park Drive",
    "city": "Frazier Park",
    "phone": null,
    "opening_hours": null,
    "eligibility": null,
    "designation": null,
    "note": null,
    "geocode_quality": "none",
    "geocode_match": ""
   }
  ]
 },
 "features": [
  {
   "type": "Feature",
   "geometry": {
    "type": "Point",
    "coordinates": [
     -118.83749,
     35.199828
    ]
   },
   "properties": {
    "id": null,
    "name": "Arvin Community Center",
    "address": "800 Walnut Drive",
    "city": "Arvin",
    "phone": null,
    "opening_hours": null,
    "eligibility": null,
    "designation": null,
    "note": null,
    "geocode_quality": "address",
    "geocode_match": "800, Walnut Drive, Arvin, Kern County, California, 93203, United States"
   }
  },
  {
   "type": "Feature",
   "geometry": {
    "type": "Point",
    "coordinates": [
     -118.967965,
     35.386539
    ]
   },
   "properties": {
    "id": null,
    "name": "East Bakersfield Veterans Building",
    "address": "2101 Ridge Road",
    "city": "Bakersfield",
    "phone": null,
    "opening_hours": null,
    "eligibility": null,
    "designation": null,
    "note": null,
    "geocode_quality": "address",
    "geocode_match": "2101, Ridge Road, Kern, Bakersfield, Kern County, California, 93305, United States"
   }
  },
  {
   "type": "Feature",
   "geometry": {
    "type": "Point",
    "coordinates": [
     -117.9477403,
     35.1302285
    ]
   },
   "properties": {
    "id": null,
    "name": "Strata Center",
    "address": "10350 Heather Avenue",
    "city": "California City",
    "phone": null,
    "opening_hours": null,
    "eligibility": null,
    "designation": null,
    "note": null,
    "geocode_quality": "address",
    "geocode_match": "10350, Heather Avenue, California City, Kern County, California, 93505, United States"
   }
  },
  {
   "type": "Feature",
   "geometry": {
    "type": "Point",
    "coordinates": [
     -118.4737444,
     35.628285
    ]
   },
   "properties": {
    "id": null,
    "name": "Kern River Valley Senior Center",
    "address": "6405 Lake Isabella Boulevard",
    "city": "Lake Isabella",
    "phone": null,
    "opening_hours": null,
    "eligibility": null,
    "designation": null,
    "note": null,
    "geocode_quality": "address",
    "geocode_match": "6405, Lake Isabella Boulevard, Lake Isabella, Kern County, California, 93240, United States"
   }
  },
  {
   "type": "Feature",
   "geometry": {
    "type": "Point",
    "coordinates": [
     -119.4016931,
     35.0612489
    ]
   },
   "properties": {
    "id": null,
    "name": "Gusher Hall",
    "address": "271 California Street",
    "city": "Maricopa",
    "phone": null,
    "opening_hours": null,
    "eligibility": null,
    "designation": null,
    "note": null,
    "geocode_quality": "street",
    "geocode_match": "California Street, Maricopa, Kern County, California, 93252, United States"
   }
  },
  {
   "type": "Feature",
   "geometry": {
    "type": "Point",
    "coordinates": [
     -119.2287622,
     35.674089
    ]
   },
   "properties": {
    "id": null,
    "name": "McFarland Veterans Center",
    "address": "103 W Sherwood Ave",
    "city": "McFarland",
    "phone": null,
    "opening_hours": null,
    "eligibility": null,
    "designation": null,
    "note": "County list says open 4 PM \u2013 8 PM",
    "geocode_quality": "address",
    "geocode_match": "McFarland Veterans Community Center, 103, West Sherwood Avenue, McFarland, Kern County, California, 93250, United States"
   }
  },
  {
   "type": "Feature",
   "geometry": {
    "type": "Point",
    "coordinates": [
     -118.1667517,
     34.8575117
    ]
   },
   "properties": {
    "id": null,
    "name": "Hummel Community Building",
    "address": "2500 20th Street",
    "city": "Rosamond",
    "phone": null,
    "opening_hours": null,
    "eligibility": null,
    "designation": null,
    "note": null,
    "geocode_quality": "address",
    "geocode_match": "Hummel Hall - Rosamond Senior Center, 2500, 20th Street West, Rosamond, Kern County, California, 93560, United States"
   }
  },
  {
   "type": "Feature",
   "geometry": {
    "type": "Point",
    "coordinates": [
     -119.2752366,
     35.5056677
    ]
   },
   "properties": {
    "id": null,
    "name": "Shafter Senior Center",
    "address": "505 Sunset Avenue",
    "city": "Shafter",
    "phone": null,
    "opening_hours": null,
    "eligibility": null,
    "designation": null,
    "note": null,
    "geocode_quality": "address",
    "geocode_match": "W.C. Walker Senior Center, 505, Sunset Avenue, Shafter, Kern County, California, 93263, United States"
   }
  },
  {
   "type": "Feature",
   "geometry": {
    "type": "Point",
    "coordinates": [
     -119.467758,
     35.14411
    ]
   },
   "properties": {
    "id": null,
    "name": "Taft Community Center - Activity Building",
    "address": "500 Cascade Place",
    "city": "Taft",
    "phone": null,
    "opening_hours": null,
    "eligibility": null,
    "designation": null,
    "note": null,
    "geocode_quality": "address",
    "geocode_match": "500, Cascade Place, Taft Heights, Taft, Kern County, California, 93268, United States"
   }
  }
 ]
}