{"type": "FeatureCollection", "features": [{"type": "Feature", "geometry": {"type": "Point", "coordinates": [-118.82843, 35.20913]}, "properties": {"name": "Arvin", "place": "town", "kind": "place"}}, {"type": "Feature", "geometry": {"type": "Point", "coordinates": [-118.9151, 35.23802]}, "properties": {"name": "Weedpatch", "place": "village", "kind": "place"}}, {"type": "Feature", "geometry": {"type": "Point", "coordinates": [-118.91427, 35.25968]}, "properties": {"name": "Lamont", "place": "village", "kind": "place"}}, {"type": "Feature", "geometry": {"type": "Point", "coordinates": [-119.01946, 35.37387]}, "properties": {"name": "Bakersfield", "place": "city", "kind": "place"}}, {"type": "Feature", "geometry": {"type": "Polygon", "coordinates": [[[-118.8252, 35.21338], [-118.8252, 35.21283], [-118.82768, 35.2128], [-118.8277, 35.21448], [-118.82665, 35.21449], [-118.82575, 35.21449], [-118.82572, 35.21338], [-118.8252, 35.21338]]]}, "properties": {"name": "Arvin Mobile Home Estates", "place": "", "kind": "subdivision"}}, {"type": "Feature", "geometry": {"type": "Polygon", "coordinates": [[[-118.86557, 35.43324], [-118.86751, 35.43431], [-118.8679, 35.43438], [-118.86989, 35.4344], [-118.8703, 35.43451], [-118.87163, 35.43556], [-118.87194, 35.43562], [-118.87439, 35.43573], [-118.87495, 35.43568], [-118.87553, 35.43429], [-118.87928, 35.43257], [-118.88052, 35.43462], [-118.8791, 35.43505], [-118.87738, 35.43662], [-118.87357, 35.43881], [-118.87354, 35.43885], [-118.87346, 35.43896], [-118.87341, 35.43917], [-118.87337, 35.4393], [-118.8732, 35.43951], [-118.873, 35.43965], [-118.87225, 35.44004], [-118.86999, 35.44083], [-118.86843, 35.44192], [-118.86827, 35.44211], [-118.86796, 35.44242], [-118.8676, 35.44264], [-118.86726, 35.4428], [-118.86695, 35.4429], [-118.86377, 35.44379], [-118.86344, 35.44391], [-118.86301, 35.44402], [-118.86269, 35.44405], [-118.86221, 35.44405], [-118.8615, 35.44386], [-118.86113, 35.44383], [-118.86021, 35.4438], [-118.85949, 35.44379], [-118.85879, 35.4439], [-118.85845, 35.44405], [-118.85805, 35.44414], [-118.85739, 35.4442], [-118.85634, 35.44427], [-118.8538, 35.44438], [-118.85341, 35.44436], [-118.853, 35.44423], [-118.85218, 35.44384], [-118.85188, 35.44357], [-118.85175, 35.44339], [-118.85067, 35.44083], [-118.85065, 35.44035], [-118.85071, 35.43997], [-118.8509, 35.43964], [-118.85128, 35.43909], [-118.85121, 35.43905], [-118.85112, 35.43904], [-118.85104, 35.43906], [-118.85098, 35.43909], [-118.85095, 35.43915], [-118.85095, 35.43925], [-118.85088, 35.43946], [-118.85083, 35.43953], [-118.85074, 35.43963], [-118.85069, 35.43971], [-118.85064, 35.43976], [-118.85058, 35.43978], [-118.85054, 35.43975], [-118.85056, 35.43967], [-118.85059, 35.43961], [-118.85072, 35.4395], [-118.85076, 35.43946], [-118.8508, 35.4394], [-118.8508, 35.43933], [-118.85084, 35.43924], [-118.85086, 35.43915], [-118.85089, 35.43909], [-118.85095, 35.43902], [-118.85102, 35.43898], [-118.85111, 35.43896], [-118.8512, 35.43895], [-118.85142, 35.43888], [-118.85159, 35.43861], [-118.85291, 35.4365], [-118.85325, 35.43537], [-118.85355, 35.43482], [-118.85346, 35.43328], [-118.8542, 35.43323], [-118.85862, 35.43321], [-118.86046, 35.43266], [-118.86066, 35.43252], [-118.86091, 35.43223], [-118.861, 35.43191], [-118.86115, 35.43219], [-118.86138, 35.43256], [-118.86407, 35.43306], [-118.86557, 35.43324]]]}, "properties": {"name": "Kern River County Park", "place": "", "kind": "park"}}, {"type": "Feature", "geometry": {"type": "Polygon", "coordinates": [[[-118.82903, 35.21363], [-118.82904, 35.21448], [-118.82816, 35.21448], [-118.82796, 35.21448], [-118.8277, 35.21448], [-118.82768, 35.2128], [-118.82772, 35.2128], [-118.82798, 35.21279], [-118.82806, 35.21279], [-118.82811, 35.21279], [-118.82815, 35.2128], [-118.82819, 35.2128], [-118.82823, 35.21282], [-118.82828, 35.21283], [-118.82833, 35.21285], [-118.82837, 35.21286], [-118.82841, 35.21287], [-118.82845, 35.21287], [-118.82849, 35.21288], [-118.82853, 35.21288], [-118.82857, 35.21288], [-118.82863, 35.21288], [-118.82865, 35.21288], [-118.82867, 35.21289], [-118.82868, 35.21289], [-118.8287, 35.2129], [-118.8287, 35.21291], [-118.82871, 35.21293], [-118.82874, 35.21301], [-118.82876, 35.21305], [-118.82878, 35.2131], [-118.8288, 35.21313], [-118.82883, 35.21316], [-118.82886, 35.2132], [-118.8289, 35.21323], [-118.82893, 35.21326], [-118.82896, 35.2133], [-118.82898, 35.21334], [-118.829, 35.21337], [-118.82901, 35.21339], [-118.82901, 35.21341], [-118.82902, 35.21345], [-118.82903, 35.21349], [-118.82903, 35.21354], [-118.82903, 35.21363]]]}, "properties": {"name": "Kovacevich Park", "place": "", "kind": "park"}}, {"type": "Feature", "geometry": {"type": "Polygon", "coordinates": [[[-118.83752, 35.19814], [-118.83753, 35.19895], [-118.83753, 35.19897], [-118.83753, 35.19905], [-118.83752, 35.19913], [-118.83753, 35.19914], [-118.83753, 35.19915], [-118.83754, 35.19992], [-118.83761, 35.19995], [-118.83754, 35.19997], [-118.83754, 35.20001], [-118.83657, 35.20002], [-118.8365, 35.20002], [-118.8365, 35.2], [-118.8359, 35.2], [-118.8359, 35.19997], [-118.83487, 35.19997], [-118.83325, 35.19998], [-118.83325, 35.1999], [-118.83325, 35.19981], [-118.83326, 35.19973], [-118.83328, 35.19959], [-118.83328, 35.19948], [-118.83329, 35.1994], [-118.83329, 35.19929], [-118.83328, 35.19903], [-118.83328, 35.199], [-118.83328, 35.19855], [-118.83327, 35.19816], [-118.83625, 35.19814], [-118.8367, 35.19814], [-118.83676, 35.19814], [-118.83752, 35.19814]]]}, "properties": {"name": "Smothermon Park", "place": "", "kind": "park"}}, {"type": "Feature", "geometry": {"type": "Polygon", "coordinates": [[[-119.06091, 35.29747], [-119.06083, 35.29733], [-119.06076, 35.29724], [-119.06073, 35.29719], [-119.06072, 35.29713], [-119.06072, 35.29707], [-119.06074, 35.29701], [-119.06078, 35.29695], [-119.06084, 35.29691], [-119.06089, 35.29688], [-119.06093, 35.29688], [-119.06097, 35.29689], [-119.06101, 35.29691], [-119.06103, 35.29694], [-119.06103, 35.29709], [-119.06102, 35.29715], [-119.06096, 35.29725], [-119.06093, 35.29736], [-119.06091, 35.29747]]]}, "properties": {"name": "Neighborhood Park", "place": "", "kind": "park"}}, {"type": "Feature", "geometry": {"type": "Polygon", "coordinates": [[[-119.08828, 35.30173], [-119.08893, 35.30159], [-119.08897, 35.3017], [-119.08902, 35.30189], [-119.08932, 35.30348], [-119.08909, 35.30351], [-119.08884, 35.30356], [-119.08868, 35.30358], [-119.08853, 35.30362], [-119.08821, 35.30368], [-119.0874, 35.30197], [-119.08764, 35.3019], [-119.08775, 35.30186], [-119.08792, 35.30181], [-119.08828, 35.30173]]]}, "properties": {"name": "Wilderness Park", "place": "", "kind": "park"}}, {"type": "Feature", "geometry": {"type": "Polygon", "coordinates": [[[-118.96765, 35.39012], [-118.96763, 35.38674], [-118.97015, 35.38674], [-118.97019, 35.38783], [-118.96985, 35.38887], [-118.96982, 35.38935], [-118.96948, 35.39011], [-118.96765, 35.39012]]]}, "properties": {"name": "Heritage Park", "place": "", "kind": "park"}}, {"type": "Feature", "geometry": {"type": "Polygon", "coordinates": [[[-119.03423, 35.37352], [-119.03514, 35.37352], [-119.03515, 35.37353], [-119.03516, 35.37353], [-119.03518, 35.37354], [-119.03519, 35.37355], [-119.0352, 35.37356], [-119.03521, 35.37356], [-119.03603, 35.37356], [-119.03605, 35.37356], [-119.03608, 35.37355], [-119.03611, 35.37355], [-119.03614, 35.37354], [-119.03615, 35.37354], [-119.03616, 35.37355], [-119.03617, 35.37355], [-119.03619, 35.37355], [-119.0362, 35.37356], [-119.0362, 35.37356], [-119.03621, 35.37357], [-119.03622, 35.37358], [-119.0362, 35.37523], [-119.0362, 35.37524], [-119.03619, 35.37525], [-119.03618, 35.37526], [-119.03617, 35.37526], [-119.03518, 35.37526], [-119.03412, 35.37526], [-119.03411, 35.37526], [-119.0341, 35.37525], [-119.03409, 35.37525], [-119.03409, 35.37524], [-119.0341, 35.37362], [-119.03423, 35.37352]]]}, "properties": {"name": "Jastro Park", "place": "", "kind": "park"}}, {"type": "Feature", "geometry": {"type": "Polygon", "coordinates": [[[-119.02834, 35.33232], [-119.02988, 35.33232], [-119.02991, 35.33234], [-119.02993, 35.33237], [-119.02993, 35.33391], [-119.02991, 35.33395], [-119.02986, 35.33396], [-119.02833, 35.33396], [-119.0283, 35.33396], [-119.02829, 35.33395], [-119.02828, 35.33393], [-119.02828, 35.33235], [-119.02829, 35.33234], [-119.02831, 35.33232], [-119.02834, 35.33232]]]}, "properties": {"name": "Wilson Park", "place": "", "kind": "park"}}, {"type": "Feature", "geometry": {"type": "Polygon", "coordinates": [[[-119.09247, 35.34424], [-119.09239, 35.34418], [-119.09242, 35.34078], [-119.09237, 35.33989], [-119.09574, 35.3399], [-119.09571, 35.34281], [-119.09549, 35.34286], [-119.09529, 35.34293], [-119.0951, 35.343], [-119.09492, 35.34309], [-119.0947, 35.34323], [-119.09379, 35.34386], [-119.09363, 35.34396], [-119.09346, 35.34404], [-119.09323, 35.34413], [-119.09298, 35.34419], [-119.09272, 35.34423], [-119.09247, 35.34424]]]}, "properties": {"name": "The Springs Apartment Homes", "place": "", "kind": "subdivision"}}, {"type": "Feature", "geometry": {"type": "Polygon", "coordinates": [[[-118.96325, 35.41067], [-118.96333, 35.41061], [-118.96732, 35.41059], [-118.96735, 35.4106], [-118.96743, 35.41066], [-118.96745, 35.41249], [-118.96737, 35.41254], [-118.9673, 35.41254], [-118.9664, 35.41237], [-118.96622, 35.41231], [-118.96605, 35.41226], [-118.96581, 35.41222], [-118.96562, 35.41221], [-118.96559, 35.41218], [-118.96533, 35.41221], [-118.96531, 35.41224], [-118.96489, 35.41224], [-118.9639, 35.41226], [-118.96335, 35.41226], [-118.96326, 35.4122], [-118.96325, 35.41067]]]}, "properties": {"name": "College Park", "place": "", "kind": "park"}}, {"type": "Feature", "geometry": {"type": "Polygon", "coordinates": [[[-119.00968, 35.36257], [-119.00967, 35.36089], [-119.00969, 35.36088], [-119.0107, 35.36088], [-119.0107, 35.36119], [-119.01172, 35.36119], [-119.01172, 35.36188], [-119.0107, 35.36187], [-119.01069, 35.36256], [-119.00968, 35.36257]]]}, "properties": {"name": "Lowell Park", "place": "", "kind": "park"}}, {"type": "Feature", "geometry": {"type": "Polygon", "coordinates": [[[-118.99643, 35.33765], [-118.99718, 35.33765], [-118.99862, 35.33765], [-118.99862, 35.33938], [-118.99644, 35.33938], [-118.99644, 35.33931], [-118.99643, 35.33765]]]}, "properties": {"name": "Casa Loma County Park", "place": "", "kind": "park"}}, {"type": "Feature", "geometry": {"type": "Polygon", "coordinates": [[[-119.128, 35.3936], [-119.12801, 35.3922], [-119.13081, 35.39223], [-119.1308, 35.39362], [-119.128, 35.3936]]]}, "properties": {"name": "North Rosedale Park", "place": "", "kind": "park"}}, {"type": "Feature", "geometry": {"type": "Polygon", "coordinates": [[[-119.03682, 35.32806], [-119.03681, 35.32806], [-119.03681, 35.32801], [-119.0368, 35.32801], [-119.0368, 35.32788], [-119.03681, 35.32788], [-119.03681, 35.32785], [-119.03682, 35.32785], [-119.03682, 35.3278], [-119.03697, 35.3278], [-119.03697, 35.32781], [-119.037, 35.32781], [-119.037, 35.32782], [-119.03702, 35.32782], [-119.03702, 35.32783], [-119.03702, 35.32783], [-119.03702, 35.32788], [-119.03704, 35.32788], [-119.03704, 35.32801], [-119.03702, 35.32801], [-119.03702, 35.32807], [-119.03695, 35.32807], [-119.03695, 35.3281], [-119.03702, 35.3281], [-119.03702, 35.32814], [-119.03704, 35.32814], [-119.03704, 35.32828], [-119.03702, 35.32828], [-119.03702, 35.32831], [-119.037, 35.32831], [-119.037, 35.32835], [-119.03698, 35.32835], [-119.03698, 35.32836], [-119.03685, 35.32837], [-119.03685, 35.32835], [-119.03682, 35.32835], [-119.03682, 35.32831], [-119.03681, 35.32831], [-119.03681, 35.32828], [-119.0368, 35.32828], [-119.0368, 35.32813], [-119.03682, 35.32813], [-119.03682, 35.3281], [-119.03688, 35.3281], [-119.03688, 35.32807], [-119.03682, 35.32807], [-119.03682, 35.32806]]]}, "properties": {"name": "Coventry Place Apartments", "place": "", "kind": "subdivision"}}, {"type": "Feature", "geometry": {"type": "Polygon", "coordinates": [[[-119.04008, 35.37826], [-119.03973, 35.37826], [-119.03928, 35.37829], [-119.03914, 35.37911], [-119.03898, 35.3791], [-119.03886, 35.37911], [-119.03876, 35.37916], [-119.03874, 35.37917], [-119.03874, 35.37997], [-119.03875, 35.38076], [-119.03878, 35.38084], [-119.03881, 35.3809], [-119.03902, 35.38096], [-119.03935, 35.38107], [-119.03966, 35.3812], [-119.03995, 35.38134], [-119.04034, 35.38155], [-119.04179, 35.38039], [-119.04301, 35.37948], [-119.0439, 35.37889], [-119.04397, 35.37811], [-119.04377, 35.37811], [-119.0432, 35.37812], [-119.04332, 35.37827], [-119.04325, 35.37835], [-119.04307, 35.37836], [-119.04296, 35.37827], [-119.04008, 35.37826]]]}, "properties": {"name": "Beach Park", "place": "", "kind": "park"}}, {"type": "Feature", "geometry": {"type": "Polygon", "coordinates": [[[-119.00294, 35.40257], [-119.00295, 35.40277], [-119.00303, 35.40314], [-119.00383, 35.40272], [-119.00491, 35.40178], [-119.00526, 35.40229], [-119.00385, 35.40324], [-119.00359, 35.40337], [-119.00219, 35.40398], [-119.00076, 35.40474], [-119.00073, 35.40476], [-118.99971, 35.40525], [-118.99957, 35.40533], [-118.99936, 35.40547], [-118.99913, 35.40572], [-118.99854, 35.4057], [-118.9986, 35.40506], [-118.999, 35.40484], [-118.99973, 35.40445], [-118.99993, 35.4042], [-119.00079, 35.40378], [-119.00134, 35.40356], [-119.00233, 35.40299], [-119.00294, 35.40257]]]}, "properties": {"name": "Kern River Parkway Park", "place": "", "kind": "park"}}, {"type": "Feature", "geometry": {"type": "Polygon", "coordinates": [[[-119.07156, 35.30343], [-119.07246, 35.30343], [-119.07253, 35.30349], [-119.07252, 35.30437], [-119.07166, 35.30437], [-119.07155, 35.30436], [-119.07156, 35.30343]]]}, "properties": {"name": "Coral Keys Park", "place": "", "kind": "park"}}, {"type": "Feature", "geometry": {"type": "Polygon", "coordinates": [[[-119.02382, 35.36143], [-119.02535, 35.36143], [-119.02535, 35.36309], [-119.0238, 35.36309], [-119.02382, 35.36143]]]}, "properties": {"name": "Beale Park", "place": "", "kind": "park"}}, {"type": "Feature", "geometry": {"type": "Polygon", "coordinates": [[[-119.02794, 35.42719], [-119.02992, 35.4272], [-119.02998, 35.42722], [-119.03001, 35.42726], [-119.03002, 35.428], [-119.02794, 35.42798], [-119.02794, 35.42719]]]}, "properties": {"name": "North Park", "place": "", "kind": "park"}}, {"type": "Feature", "geometry": {"type": "Polygon", "coordinates": [[[-119.02773, 35.4369], [-119.02772, 35.43537], [-119.02922, 35.43541], [-119.03003, 35.43543], [-119.03004, 35.43691], [-119.03004, 35.43691], [-119.02773, 35.4369]]]}, "properties": {"name": "North Meadows Park", "place": "", "kind": "park"}}, {"type": "Feature", "geometry": {"type": "Polygon", "coordinates": [[[-119.03094, 35.4423], [-119.03326, 35.4423], [-119.03323, 35.44403], [-119.03097, 35.44401], [-119.03097, 35.44282], [-119.03094, 35.4423]]]}, "properties": {"name": "North Highland Park", "place": "", "kind": "park"}}, {"type": "Feature", "geometry": {"type": "Polygon", "coordinates": [[[-119.08796, 35.36244], [-119.08731, 35.36248], [-119.08719, 35.36248], [-119.08707, 35.36248], [-119.08695, 35.36248], [-119.08683, 35.36248], [-119.08671, 35.36248], [-119.08659, 35.36247], [-119.08647, 35.36246], [-119.08635, 35.36245], [-119.08624, 35.36244], [-119.08612, 35.36243], [-119.086, 35.36242], [-119.08588, 35.3624], [-119.08576, 35.36239], [-119.08565, 35.36237], [-119.08553, 35.36235], [-119.08541, 35.36233], [-119.0853, 35.3623], [-119.0816, 35.36152], [-119.08176, 35.36097], [-119.08424, 35.36153], [-119.08424, 35.36153], [-119.08457, 35.3616], [-119.08489, 35.36167], [-119.08522, 35.36173], [-119.08554, 35.3618], [-119.0859, 35.36188], [-119.08625, 35.36195], [-119.08661, 35.36203], [-119.08689, 35.36209], [-119.08711, 35.3621], [-119.08723, 35.3621], [-119.08764, 35.36211], [-119.08775, 35.36212], [-119.08787, 35.36216], [-119.08831, 35.36237], [-119.08816, 35.3624], [-119.08796, 35.36244]]]}, "properties": {"name": "Kern River Parkway Park", "place": "", "kind": "park"}}, {"type": "Feature", "geometry": {"type": "Polygon", "coordinates": [[[-119.02207, 35.27229], [-119.02398, 35.27228], [-119.0244, 35.27386], [-119.0243, 35.27383], [-119.02419, 35.27382], [-119.02409, 35.27385], [-119.02376, 35.274], [-119.02368, 35.27403], [-119.02358, 35.27404], [-119.0233, 35.27404], [-119.0232, 35.27399], [-119.02209, 35.274], [-119.02207, 35.27313], [-119.02207, 35.27229]]]}, "properties": {"name": "Kern Delta Park", "place": "", "kind": "park"}}, {"type": "Feature", "geometry": {"type": "Polygon", "coordinates": [[[-119.08714, 35.34827], [-119.08725, 35.3483], [-119.08753, 35.34839], [-119.08788, 35.34847], [-119.08765, 35.34958], [-119.08763, 35.34973], [-119.08734, 35.34969], [-119.0873, 35.34987], [-119.087, 35.34981], [-119.08669, 35.34974], [-119.08619, 35.34962], [-119.08615, 35.34959], [-119.08615, 35.34955], [-119.08649, 35.349], [-119.08667, 35.34876], [-119.08708, 35.34829], [-119.08712, 35.34827], [-119.08714, 35.34827]]]}, "properties": {"name": "Kroll Park", "place": "", "kind": "park"}}, {"type": "Feature", "geometry": {"type": "Polygon", "coordinates": [[[-119.02077, 35.32232], [-119.02077, 35.32484], [-119.01814, 35.32484], [-119.02077, 35.32232]]]}, "properties": {"name": "Planz Park", "place": "", "kind": "park"}}, {"type": "Feature", "geometry": {"type": "Polygon", "coordinates": [[[-119.1305, 35.35436], [-119.13227, 35.35354], [-119.13338, 35.35305], [-119.13359, 35.35297], [-119.13358, 35.3529], [-119.13386, 35.3528], [-119.13432, 35.35306], [-119.13478, 35.35327], [-119.1356, 35.35362], [-119.13587, 35.35374], [-119.13658, 35.35396], [-119.13663, 35.35402], [-119.13654, 35.35422], [-119.13638, 35.35434], [-119.13618, 35.35476], [-119.13585, 35.35515], [-119.13541, 35.35557], [-119.13526, 35.35577], [-119.13505, 35.35589], [-119.13485, 35.35608], [-119.13459, 35.3562], [-119.13448, 35.35635], [-119.13368, 35.35682], [-119.13355, 35.35688], [-119.13326, 35.35706], [-119.13303, 35.35713], [-119.13274, 35.35724], [-119.13265, 35.35709], [-119.13244, 35.35717], [-119.1305, 35.35436]]]}, "properties": {"name": "Aera Park", "place": "", "kind": "park"}}, {"type": "Feature", "geometry": {"type": "Polygon", "coordinates": [[[-119.0618, 35.30095], [-119.06218, 35.30096], [-119.06364, 35.30096], [-119.06363, 35.30281], [-119.06336, 35.30281], [-119.06336, 35.30314], [-119.06185, 35.30313], [-119.06178, 35.30308], [-119.0618, 35.30095]]]}, "properties": {"name": "Seasons Park", "place": "", "kind": "park"}}, {"type": "Feature", "geometry": {"type": "Polygon", "coordinates": [[[-119.11895, 35.30331], [-119.11888, 35.30325], [-119.11887, 35.30211], [-119.11968, 35.30211], [-119.11968, 35.30198], [-119.11963, 35.30198], [-119.11963, 35.30169], [-119.11962, 35.30163], [-119.11959, 35.30159], [-119.11955, 35.30155], [-119.1195, 35.30151], [-119.11943, 35.3015], [-119.1193, 35.30149], [-119.1193, 35.30146], [-119.11887, 35.30146], [-119.11886, 35.30129], [-119.11891, 35.30125], [-119.11984, 35.30125], [-119.11989, 35.30129], [-119.11989, 35.30178], [-119.11986, 35.30183], [-119.11985, 35.3019], [-119.11986, 35.30195], [-119.11989, 35.30202], [-119.11996, 35.30209], [-119.12004, 35.30213], [-119.12014, 35.30214], [-119.12021, 35.30214], [-119.1203, 35.30212], [-119.12171, 35.30212], [-119.12176, 35.30216], [-119.12176, 35.30328], [-119.12175, 35.30331], [-119.12172, 35.30334], [-119.12168, 35.30336], [-119.11979, 35.30331], [-119.11895, 35.30331]]]}, "properties": {"name": "Greystone Park", "place": "", "kind": "park"}}, {"type": "Feature", "geometry": {"type": "Polygon", "coordinates": [[[-119.07529, 35.32616], [-119.07555, 35.32615], [-119.077, 35.32615], [-119.077, 35.32745], [-119.07579, 35.32745], [-119.0753, 35.32745], [-119.07529, 35.32616]]]}, "properties": {"name": "Corvallis Park", "place": "", "kind": "park"}}, {"type": "Feature", "geometry": {"type": "Polygon", "coordinates": [[[-119.12549, 35.36529], [-119.1273, 35.3653], [-119.12783, 35.36531], [-119.12782, 35.3675], [-119.12781, 35.36858], [-119.12781, 35.36881], [-119.12548, 35.36879], [-119.12548, 35.36877], [-119.12548, 35.36851], [-119.12548, 35.36804], [-119.12548, 35.36789], [-119.12548, 35.36747], [-119.12548, 35.36731], [-119.12548, 35.36703], [-119.12549, 35.36659], [-119.12549, 35.36616], [-119.12549, 35.36578], [-119.12549, 35.36574], [-119.12549, 35.36562], [-119.12549, 35.36529]]]}, "properties": {"name": "Liberty Park", "place": "", "kind": "park"}}, {"type": "Feature", "geometry": {"type": "Polygon", "coordinates": [[[-119.03919, 35.4141], [-119.04063, 35.41411], [-119.04065, 35.41589], [-119.03922, 35.41591], [-119.03919, 35.4141]]]}, "properties": {"name": "North Beardley Park", "place": "", "kind": "park"}}, {"type": "Feature", "geometry": {"type": "Polygon", "coordinates": [[[-119.17948, 35.37383], [-119.17779, 35.37386], [-119.1778, 35.37348], [-119.1778, 35.37259], [-119.1778, 35.37211], [-119.1778, 35.37208], [-119.18019, 35.37208], [-119.18026, 35.37208], [-119.18026, 35.37211], [-119.18026, 35.37258], [-119.18026, 35.3729], [-119.17948, 35.3729], [-119.17948, 35.37383]]]}, "properties": {"name": "Silver Oak Park", "place": "", "kind": "park"}}, {"type": "Feature", "geometry": {"type": "Polygon", "coordinates": [[[-119.10648, 35.37975], [-119.10653, 35.37751], [-119.10975, 35.37747], [-119.10975, 35.37803], [-119.1097, 35.3782], [-119.1097, 35.37828], [-119.10974, 35.37836], [-119.10974, 35.37846], [-119.10755, 35.37845], [-119.10758, 35.38067], [-119.10679, 35.38064], [-119.10686, 35.38018], [-119.10673, 35.38016], [-119.10668, 35.37975], [-119.10648, 35.37975]]]}, "properties": {"name": "Greenacres Park", "place": "", "kind": "park"}}, {"type": "Feature", "geometry": {"type": "Polygon", "coordinates": [[[-119.02941, 35.41964], [-119.02942, 35.42068], [-119.02795, 35.42068], [-119.02794, 35.42017], [-119.02802, 35.42025], [-119.02911, 35.42025], [-119.0291, 35.41966], [-119.02941, 35.41964]]]}, "properties": {"name": "Sears Park", "place": "", "kind": "park"}}, {"type": "Feature", "geometry": {"type": "Polygon", "coordinates": [[[-119.02666, 35.39997], [-119.02684, 35.39989], [-119.02795, 35.39958], [-119.02982, 35.39909], [-119.02984, 35.39943], [-119.02987, 35.40131], [-119.02952, 35.40131], [-119.02932, 35.40131], [-119.02916, 35.40131], [-119.02899, 35.40131], [-119.02873, 35.40131], [-119.0284, 35.40131], [-119.02823, 35.40131], [-119.02822, 35.40199], [-119.02822, 35.40213], [-119.02791, 35.4021], [-119.02791, 35.40263], [-119.02761, 35.40263], [-119.0276, 35.40282], [-119.0276, 35.40305], [-119.0276, 35.40337], [-119.02754, 35.40338], [-119.02755, 35.40313], [-119.02755, 35.40285], [-119.02742, 35.40285], [-119.02722, 35.40285], [-119.02712, 35.40285], [-119.02712, 35.40299], [-119.02712, 35.40315], [-119.02712, 35.40337], [-119.0269, 35.40338], [-119.02689, 35.40298], [-119.02672, 35.40298], [-119.02673, 35.40131], [-119.02653, 35.40131], [-119.02623, 35.40131], [-119.02651, 35.40111], [-119.02659, 35.40101], [-119.02666, 35.40087], [-119.02669, 35.40048], [-119.02665, 35.40013], [-119.02666, 35.39997]]]}, "properties": {"name": "Riverview Park", "place": "", "kind": "park"}}, {"type": "Feature", "geometry": {"type": "Polygon", "coordinates": [[[-119.09611, 35.39558], [-119.0958, 35.3952], [-119.09569, 35.39508], [-119.09552, 35.39494], [-119.09539, 35.39483], [-119.09525, 35.39473], [-119.09508, 35.39462], [-119.09487, 35.39451], [-119.09471, 35.39443], [-119.09438, 35.3943], [-119.09421, 35.39424], [-119.09398, 35.39418], [-119.09374, 35.39413], [-119.09356, 35.3941], [-119.09331, 35.39407], [-119.09314, 35.39406], [-119.09313, 35.39316], [-119.09456, 35.39092], [-119.09798, 35.3943], [-119.09696, 35.39499], [-119.09623, 35.3955], [-119.09611, 35.39558]]]}, "properties": {"name": "Riverlakes Ranch Park", "place": "", "kind": "park"}}, {"type": "Feature", "geometry": {"type": "Polygon", "coordinates": [[[-119.01457, 35.33953], [-119.0157, 35.33953], [-119.01569, 35.34305], [-119.0162, 35.34304], [-119.01619, 35.34662], [-119.01587, 35.34662], [-119.01596, 35.34515], [-119.01543, 35.34385], [-119.01476, 35.34281], [-119.01463, 35.34233], [-119.01457, 35.33953]]]}, "properties": {"name": "Wayside Park", "place": "", "kind": "park"}}, {"type": "Feature", "geometry": {"type": "Polygon", "coordinates": [[[-119.09047, 35.40649], [-119.09047, 35.40742], [-119.08936, 35.40742], [-119.08936, 35.40649], [-119.09047, 35.40649]]]}, "properties": {"name": "Olive Park West", "place": "", "kind": "park"}}, {"type": "Feature", "geometry": {"type": "Polygon", "coordinates": [[[-118.91891, 35.26063], [-118.91888, 35.25974], [-118.92051, 35.25975], [-118.92049, 35.26064], [-118.92094, 35.26068], [-118.92092, 35.26082], [-118.92089, 35.26096], [-118.92089, 35.26109], [-118.92083, 35.26117], [-118.9208, 35.26131], [-118.9208, 35.26141], [-118.9208, 35.26236], [-118.92076, 35.26245], [-118.92076, 35.2625], [-118.9209, 35.26267], [-118.92076, 35.26292], [-118.9208, 35.26342], [-118.91876, 35.26338], [-118.9188, 35.26218], [-118.91881, 35.26186], [-118.91887, 35.26172], [-118.9189, 35.26158], [-118.91891, 35.26063]]]}, "properties": {"name": "Bear Mountain Park", "place": "", "kind": "park"}}, {"type": "Feature", "geometry": {"type": "Polygon", "coordinates": [[[-119.11482, 35.31883], [-119.11481, 35.31886], [-119.1148, 35.31894], [-119.11483, 35.31903], [-119.11489, 35.3191], [-119.11498, 35.31915], [-119.11503, 35.31916], [-119.11511, 35.31917], [-119.11524, 35.31915], [-119.11568, 35.31915], [-119.11572, 35.31916], [-119.11572, 35.31918], [-119.11574, 35.32089], [-119.11355, 35.32089], [-119.11355, 35.32029], [-119.11357, 35.32022], [-119.11358, 35.32016], [-119.11356, 35.32009], [-119.11351, 35.32002], [-119.11345, 35.31997], [-119.11335, 35.31993], [-119.11335, 35.31932], [-119.11343, 35.31929], [-119.11347, 35.31926], [-119.11353, 35.31922], [-119.11355, 35.31918], [-119.11357, 35.31911], [-119.11358, 35.31907], [-119.11357, 35.31896], [-119.11356, 35.3189], [-119.11411, 35.3189], [-119.11482, 35.31883]]]}, "properties": {"name": "Tevis Park", "place": "", "kind": "park"}}, {"type": "Feature", "geometry": {"type": "Polygon", "coordinates": [[[-119.04056, 35.36145], [-119.04106, 35.36145], [-119.04222, 35.36145], [-119.04221, 35.36314], [-119.0409, 35.36313], [-119.04021, 35.36312], [-119.04005, 35.36228], [-119.04001, 35.36204], [-119.03998, 35.36181], [-119.03995, 35.36147], [-119.04006, 35.36147], [-119.04056, 35.36145]]]}, "properties": {"name": "Saunders Park", "place": "", "kind": "park"}}, {"type": "Feature", "geometry": {"type": "Polygon", "coordinates": [[[-118.9986, 35.40506], [-118.99722, 35.40578], [-118.99687, 35.40581], [-118.99665, 35.40603], [-118.99636, 35.40609], [-118.99562, 35.40651], [-118.99558, 35.40669], [-118.99545, 35.40664], [-118.99535, 35.40671], [-118.99552, 35.40695], [-118.99547, 35.40719], [-118.99501, 35.40745], [-118.99482, 35.40766], [-118.99572, 35.40735], [-118.9961, 35.4069], [-118.9964, 35.40686], [-118.99628, 35.4071], [-118.99605, 35.40731], [-118.99612, 35.40753], [-118.99573, 35.40792], [-118.99544, 35.40799], [-118.99524, 35.40818], [-118.99523, 35.40846], [-118.99473, 35.40865], [-118.99475, 35.40889], [-118.99432, 35.40934], [-118.99423, 35.40944], [-118.99402, 35.40968], [-118.99274, 35.40959], [-118.99234, 35.40969], [-118.99188, 35.40951], [-118.99159, 35.40908], [-118.99113, 35.4088], [-118.99056, 35.40903], [-118.99095, 35.40919], [-118.99097, 35.40959], [-118.99076, 35.40981], [-118.99079, 35.41005], [-118.99066, 35.41014], [-118.99016, 35.40945], [-118.98972, 35.40926], [-118.98942, 35.40926], [-118.98921, 35.40947], [-118.98837, 35.40933], [-118.9878, 35.40931], [-118.98706, 35.40935], [-118.9864, 35.40945], [-118.98538, 35.40959], [-118.98495, 35.40926], [-118.98499, 35.40919], [-118.98529, 35.40919], [-118.98532, 35.40921], [-118.98544, 35.40921], [-118.98548, 35.40919], [-118.9878, 35.40917], [-118.98791, 35.40916], [-118.98804, 35.40916], [-118.98816, 35.40915], [-118.98828, 35.40915], [-118.98839, 35.40914], [-118.98851, 35.40913], [-118.98863, 35.40911], [-118.98875, 35.4091], [-118.98887, 35.40908], [-118.98899, 35.40906], [-118.98911, 35.40905], [-118.98922, 35.40902], [-118.98934, 35.409], [-118.98946, 35.40898], [-118.98957, 35.40895], [-118.98969, 35.40892], [-118.9898, 35.40889], [-118.98992, 35.40886], [-118.99003, 35.40883], [-118.9902, 35.40878], [-118.9918, 35.40826], [-118.99192, 35.40822], [-118.99203, 35.40818], [-118.99214, 35.40814], [-118.99225, 35.4081], [-118.99235, 35.40806], [-118.99246, 35.40801], [-118.99257, 35.40797], [-118.99267, 35.40792], [-118.99278, 35.40787], [-118.99288, 35.40782], [-118.99298, 35.40777], [-118.99309, 35.40771], [-118.99425, 35.40707], [-118.99435, 35.40705], [-118.99514, 35.40662], [-118.99631, 35.40598], [-118.99639, 35.4059], [-118.99974, 35.40406], [-119.00094, 35.4034], [-119.00176, 35.40296], [-119.0021, 35.40277], [-119.00228, 35.40262], [-119.00283, 35.40204], [-119.00295, 35.40219], [-119.00294, 35.40257], [-119.00233, 35.40299], [-119.00134, 35.40356], [-119.00079, 35.40378], [-118.99993, 35.4042], [-118.99973, 35.40445], [-118.999, 35.40484], [-118.9986, 35.40506]]]}, "properties": {"name": "Panorama Park", "place": "", "kind": "park"}}, {"type": "Feature", "geometry": {"type": "Polygon", "coordinates": [[[-119.03013, 35.28241], [-119.03073, 35.28241], [-119.03169, 35.28241], [-119.03168, 35.28341], [-119.03167, 35.28344], [-119.03162, 35.28345], [-119.03105, 35.28345], [-119.031, 35.28345], [-119.03094, 35.28344], [-119.03088, 35.28342], [-119.03082, 35.28341], [-119.03076, 35.28342], [-119.03069, 35.28344], [-119.03064, 35.28347], [-119.0306, 35.2835], [-119.03012, 35.28351], [-119.03013, 35.28241]]]}, "properties": {"name": "Granite Pointe Park", "place": "", "kind": "park"}}, {"type": "Feature", "geometry": {"type": "Polygon", "coordinates": [[[-119.02834, 35.33232], [-119.02986, 35.33232], [-119.02988, 35.33232], [-119.02991, 35.33234], [-119.02992, 35.33235], [-119.02993, 35.33237], [-119.02993, 35.33391], [-119.02992, 35.33393], [-119.02991, 35.33395], [-119.02989, 35.33396], [-119.02987, 35.33396], [-119.02906, 35.33395], [-119.02833, 35.33396], [-119.0283, 35.33396], [-119.02829, 35.33395], [-119.02828, 35.33393], [-119.02828, 35.33237], [-119.02828, 35.33235], [-119.02829, 35.33234], [-119.02831, 35.33232], [-119.02834, 35.33232]]]}, "properties": {"name": "Wilson Park", "place": "", "kind": "park"}}, {"type": "Feature", "geometry": {"type": "Polygon", "coordinates": [[[-118.92975, 35.36704], [-118.92975, 35.36717], [-118.92975, 35.36721], [-118.92975, 35.36737], [-118.92975, 35.3677], [-118.92975, 35.36876], [-118.92754, 35.36878], [-118.92754, 35.36806], [-118.92753, 35.36729], [-118.92753, 35.36718], [-118.92753, 35.36706], [-118.92975, 35.36704]]]}, "properties": {"name": "Pioneer Park", "place": "", "kind": "park"}}, {"type": "Feature", "geometry": {"type": "Polygon", "coordinates": [[[-119.07008, 35.41789], [-119.07018, 35.41789], [-119.07384, 35.4179], [-119.07384, 35.41832], [-119.07434, 35.41833], [-119.07434, 35.41887], [-119.07434, 35.41905], [-119.07434, 35.41949], [-119.0743, 35.41958], [-119.07384, 35.41958], [-119.07362, 35.41958], [-119.07293, 35.41959], [-119.07258, 35.41959], [-119.07236, 35.41959], [-119.07226, 35.41959], [-119.07101, 35.41958], [-119.07008, 35.41958], [-119.07008, 35.41917], [-119.07008, 35.41897], [-119.07008, 35.41875], [-119.07008, 35.41855], [-119.07008, 35.41834], [-119.07008, 35.41813], [-119.07008, 35.41789]]]}, "properties": {"name": "Fruitvale Norris Park", "place": "", "kind": "park"}}, {"type": "Feature", "geometry": {"type": "Polygon", "coordinates": [[[-119.03919, 35.37972], [-119.03915, 35.37946], [-119.03914, 35.37926], [-119.03915, 35.37898], [-119.03922, 35.37857], [-119.03924, 35.37838], [-119.03925, 35.37834], [-119.03927, 35.37832], [-119.03931, 35.3783], [-119.03934, 35.3783], [-119.03953, 35.37829], [-119.0398, 35.37827], [-119.04072, 35.37827], [-119.04074, 35.37828], [-119.04078, 35.37831], [-119.0408, 35.37835], [-119.04078, 35.37842], [-119.04077, 35.37855], [-119.04077, 35.37857], [-119.04082, 35.37868], [-119.04086, 35.37871], [-119.04113, 35.37902], [-119.04127, 35.3792], [-119.04133, 35.37933], [-119.04139, 35.37946], [-119.04143, 35.37959], [-119.04145, 35.37972], [-119.04146, 35.37986], [-119.04146, 35.37996], [-119.04145, 35.38004], [-119.04143, 35.38012], [-119.0413, 35.38034], [-119.04117, 35.38049], [-119.04109, 35.38057], [-119.04099, 35.38063], [-119.0409, 35.38068], [-119.04082, 35.38072], [-119.04073, 35.38074], [-119.04057, 35.38076], [-119.04031, 35.38078], [-119.04018, 35.38077], [-119.04008, 35.38076], [-119.03989, 35.3807], [-119.03969, 35.3806], [-119.03954, 35.38048], [-119.03942, 35.38035], [-119.03934, 35.38023], [-119.03926, 35.38002], [-119.03919, 35.37972]]]}, "properties": {"name": "Beach Park", "place": "", "kind": "park"}}, {"type": "Feature", "geometry": {"type": "Polygon", "coordinates": [[[-119.05916, 35.33895], [-119.05916, 35.33963], [-119.06094, 35.33964], [-119.06095, 35.34181], [-119.06093, 35.34185], [-119.06088, 35.34187], [-119.05767, 35.34189], [-119.05763, 35.33943], [-119.05797, 35.33934], [-119.05829, 35.33925], [-119.0586, 35.33915], [-119.05916, 35.33895]]]}, "properties": {"name": "Patriots Park", "place": "", "kind": "park"}}, {"type": "Feature", "geometry": {"type": "Polygon", "coordinates": [[[-119.04491, 35.37801], [-119.04492, 35.37792], [-119.04483, 35.37747], [-119.04483, 35.37731], [-119.04524, 35.37633], [-119.04527, 35.37621], [-119.04658, 35.37538], [-119.04716, 35.37498], [-119.04749, 35.37478], [-119.04786, 35.3744], [-119.04844, 35.37412], [-119.04861, 35.37425], [-119.04959, 35.3746], [-119.0492, 35.37483], [-119.04887, 35.37516], [-119.04882, 35.37523], [-119.04905, 35.37532], [-119.04893, 35.37543], [-119.04879, 35.3755], [-119.04863, 35.37569], [-119.04859, 35.37584], [-119.04837, 35.37607], [-119.04815, 35.37629], [-119.04788, 35.37643], [-119.04747, 35.37659], [-119.04715, 35.37664], [-119.04694, 35.3767], [-119.04681, 35.37673], [-119.04662, 35.37681], [-119.04643, 35.37695], [-119.04626, 35.3771], [-119.04608, 35.37725], [-119.04588, 35.3774], [-119.04567, 35.37758], [-119.04545, 35.37772], [-119.04508, 35.37805], [-119.04491, 35.37801]]]}, "properties": {"name": "Yokuts Park", "place": "", "kind": "park"}}, {"type": "Feature", "geometry": {"type": "Polygon", "coordinates": [[[-118.95748, 35.40007], [-118.95751, 35.40007], [-118.95753, 35.40008], [-118.95754, 35.4001], [-118.95755, 35.40012], [-118.95756, 35.40126], [-118.95407, 35.40129], [-118.95538, 35.40019], [-118.9554, 35.40017], [-118.95542, 35.40016], [-118.95544, 35.40014], [-118.95547, 35.40013], [-118.95549, 35.40012], [-118.95552, 35.40011], [-118.95554, 35.4001], [-118.95557, 35.4001], [-118.9556, 35.40009], [-118.95563, 35.40009], [-118.95566, 35.40009], [-118.95748, 35.40007]]]}, "properties": {"name": "Siemon Park", "place": "", "kind": "park"}}, {"type": "Feature", "geometry": {"type": "Polygon", "coordinates": [[[-118.90989, 35.25614], [-118.91208, 35.25613], [-118.91209, 35.25783], [-118.91043, 35.25781], [-118.90996, 35.25781], [-118.90989, 35.25781], [-118.90989, 35.25614]]]}, "properties": {"name": "Lamont Park", "place": "", "kind": "park"}}, {"type": "Feature", "geometry": {"type": "Polygon", "coordinates": [[[-119.06157, 35.31827], [-119.06452, 35.31829], [-119.06266, 35.3203], [-119.06258, 35.32063], [-119.06144, 35.32043], [-119.06142, 35.32042], [-119.06139, 35.32038], [-119.06145, 35.32005], [-119.06148, 35.31974], [-119.0615, 35.31832], [-119.06152, 35.31829], [-119.06157, 35.31827]]]}, "properties": {"name": "Grissom Park", "place": "", "kind": "park"}}, {"type": "Feature", "geometry": {"type": "Polygon", "coordinates": [[[-118.84578, 35.4086], [-118.84587, 35.40858], [-118.84584, 35.40868], [-118.84581, 35.40875], [-118.84577, 35.40883], [-118.84573, 35.40889], [-118.84568, 35.40895], [-118.84563, 35.40902], [-118.84556, 35.40909], [-118.8455, 35.40915], [-118.84545, 35.4092], [-118.84537, 35.40926], [-118.84532, 35.40929], [-118.84523, 35.40934], [-118.84516, 35.40938], [-118.84507, 35.40942], [-118.84499, 35.40946], [-118.84495, 35.40946], [-118.84492, 35.40947], [-118.8449, 35.40948], [-118.84487, 35.40949], [-118.84484, 35.40949], [-118.8448, 35.40949], [-118.84477, 35.40949], [-118.84464, 35.40952], [-118.84459, 35.40953], [-118.84452, 35.40955], [-118.84449, 35.40956], [-118.84449, 35.40957], [-118.84399, 35.40958], [-118.84375, 35.40958], [-118.84375, 35.40957], [-118.84361, 35.40957], [-118.84355, 35.40952], [-118.84354, 35.4095], [-118.84353, 35.40875], [-118.8445, 35.40875], [-118.8445, 35.40861], [-118.84578, 35.4086]]]}, "properties": {"name": "Solera Gardens Park", "place": "", "kind": "park"}}, {"type": "Feature", "geometry": {"type": "Polygon", "coordinates": [[[-119.08879, 35.30171], [-119.0888, 35.30171], [-119.08883, 35.30172], [-119.08885, 35.30175], [-119.0889, 35.30193], [-119.08916, 35.30332], [-119.0891, 35.30338], [-119.0887, 35.30345], [-119.08825, 35.30354], [-119.08751, 35.30203], [-119.0879, 35.30191], [-119.08879, 35.30171]]]}, "properties": {"name": "Wilderness Park", "place": "", "kind": "park"}}, {"type": "Feature", "geometry": {"type": "Polygon", "coordinates": [[[-119.13261, 35.32584], [-119.13389, 35.32587], [-119.13412, 35.32587], [-119.13419, 35.32618], [-119.13422, 35.32642], [-119.13428, 35.32661], [-119.13431, 35.32675], [-119.1344, 35.32727], [-119.13445, 35.32752], [-119.13444, 35.32755], [-119.13442, 35.32758], [-119.13342, 35.3279], [-119.13326, 35.32757], [-119.13315, 35.32753], [-119.13317, 35.32747], [-119.13317, 35.32738], [-119.13316, 35.32735], [-119.13313, 35.32732], [-119.13313, 35.32729], [-119.13313, 35.32677], [-119.13315, 35.32662], [-119.13314, 35.32657], [-119.13307, 35.32647], [-119.13297, 35.32643], [-119.13287, 35.32641], [-119.13281, 35.32641], [-119.13262, 35.32642], [-119.13261, 35.32584]]]}, "properties": {"name": "Windermere Park", "place": "", "kind": "park"}}, {"type": "Feature", "geometry": {"type": "Polygon", "coordinates": [[[-118.97196, 35.36142], [-118.97195, 35.36309], [-118.96974, 35.3631], [-118.96974, 35.36143], [-118.97196, 35.36142]]]}, "properties": {"name": "Virginia Avenue Park", "place": "", "kind": "park"}}, {"type": "Feature", "geometry": {"type": "Polygon", "coordinates": [[[-119.0147, 35.41594], [-119.01681, 35.41595], [-119.01685, 35.41887], [-119.01477, 35.41892], [-119.0147, 35.41594]]]}, "properties": {"name": "Standard Park", "place": "", "kind": "park"}}, {"type": "Feature", "geometry": {"type": "Polygon", "coordinates": [[[-118.9869, 35.39914], [-118.98732, 35.39904], [-118.98755, 35.399], [-118.98758, 35.39911], [-118.98751, 35.39918], [-118.98711, 35.39929], [-118.98685, 35.3994], [-118.98662, 35.39953], [-118.98636, 35.39971], [-118.98614, 35.39992], [-118.98601, 35.40006], [-118.98587, 35.40025], [-118.98572, 35.40047], [-118.98562, 35.40066], [-118.98544, 35.401], [-118.98543, 35.40101], [-118.98539, 35.40102], [-118.98537, 35.40099], [-118.98536, 35.40067], [-118.98557, 35.40034], [-118.98579, 35.40004], [-118.98593, 35.39987], [-118.98606, 35.39974], [-118.98628, 35.39954], [-118.98642, 35.39944], [-118.98656, 35.39935], [-118.98671, 35.39925], [-118.9869, 35.39914]]]}, "properties": {"name": "Wilkins Park", "place": "", "kind": "park"}}, {"type": "Feature", "geometry": {"type": "Polygon", "coordinates": [[[-118.98577, 35.38772], [-118.98707, 35.38803], [-118.9871, 35.38803], [-118.98709, 35.38807], [-118.98648, 35.39017], [-118.98524, 35.39028], [-118.98511, 35.39028], [-118.98506, 35.39021], [-118.98503, 35.38994], [-118.98507, 35.38966], [-118.98507, 35.38963], [-118.98575, 35.38777], [-118.98577, 35.38772]]]}, "properties": {"name": "Jefferson Park", "place": "", "kind": "park"}}, {"type": "Feature", "geometry": {"type": "Polygon", "coordinates": [[[-119.07324, 35.39747], [-119.07323, 35.39774], [-119.07259, 35.39774], [-119.0657, 35.39771], [-119.06563, 35.39766], [-119.06563, 35.39718], [-119.06567, 35.39693], [-119.06567, 35.39638], [-119.06573, 35.39632], [-119.06673, 35.39633], [-119.06673, 35.39744], [-119.06792, 35.39745], [-119.07324, 35.39747]]]}, "properties": {"name": "San Lauren Park", "place": "", "kind": "park"}}, {"type": "Feature", "geometry": {"type": "Polygon", "coordinates": [[[-118.90455, 35.45094], [-118.90454, 35.44905], [-118.90454, 35.44873], [-118.9042, 35.44856], [-118.90341, 35.44814], [-118.90267, 35.44759], [-118.90228, 35.44713], [-118.90192, 35.44621], [-118.90156, 35.44537], [-118.90137, 35.44486], [-118.90137, 35.44416], [-118.90119, 35.44244], [-118.90093, 35.44184], [-118.90297, 35.44177], [-118.92234, 35.44163], [-118.92224, 35.4439], [-118.92219, 35.44587], [-118.92129, 35.44635], [-118.92159, 35.44693], [-118.92113, 35.44702], [-118.92069, 35.44717], [-118.9203, 35.44738], [-118.91994, 35.44765], [-118.91962, 35.44796], [-118.9192, 35.44849], [-118.91849, 35.44987], [-118.91821, 35.45024], [-118.91757, 35.45062], [-118.91554, 35.45116], [-118.91516, 35.45123], [-118.91466, 35.4512], [-118.91412, 35.4511], [-118.9138, 35.45118], [-118.91341, 35.45129], [-118.91021, 35.45333], [-118.90971, 35.45354], [-118.90915, 35.45364], [-118.90877, 35.45356], [-118.90726, 35.45275], [-118.90606, 35.45191], [-118.90585, 35.45168], [-118.90555, 35.45121], [-118.9054, 35.45107], [-118.90514, 35.45098], [-118.90455, 35.45094]]]}, "properties": {"name": "Hart Memorial Park", "place": "", "kind": "park"}}, {"type": "Feature", "geometry": {"type": "Polygon", "coordinates": [[[-119.14399, 35.34916], [-119.14398, 35.34916], [-119.14342, 35.34939], [-119.14318, 35.34945], [-119.1413, 35.34976], [-119.14105, 35.34981], [-119.14081, 35.34987], [-119.14051, 35.34998], [-119.13735, 35.3512], [-119.13734, 35.35119], [-119.13711, 35.35127], [-119.13688, 35.35133], [-119.13631, 35.35145], [-119.13547, 35.35164], [-119.1351, 35.35172], [-119.13498, 35.35175], [-119.13483, 35.35181], [-119.13465, 35.35188], [-119.13433, 35.35203], [-119.13369, 35.35231], [-119.13296, 35.35184], [-119.13179, 35.35106], [-119.13182, 35.35087], [-119.13185, 35.35063], [-119.13212, 35.3504], [-119.13235, 35.35024], [-119.13573, 35.34855], [-119.13729, 35.34738], [-119.13839, 35.34684], [-119.14149, 35.34564], [-119.14343, 35.34499], [-119.1444, 35.34482], [-119.1448, 35.345], [-119.14494, 35.34502], [-119.1457, 35.34494], [-119.14867, 35.3448], [-119.15125, 35.34468], [-119.1518, 35.34441], [-119.15439, 35.3431], [-119.16039, 35.34305], [-119.16326, 35.34385], [-119.16326, 35.34414], [-119.16498, 35.34432], [-119.16767, 35.34402], [-119.16837, 35.34364], [-119.16913, 35.34254], [-119.16938, 35.34184], [-119.16951, 35.33981], [-119.17017, 35.33986], [-119.17194, 35.33984], [-119.17221, 35.33974], [-119.17656, 35.33621], [-119.17683, 35.33313], [-119.17779, 35.33273], [-119.18119, 35.3327], [-119.18125, 35.32429], [-119.18714, 35.32207], [-119.18842, 35.32183], [-119.19647, 35.32068], [-119.1975, 35.32052], [-119.19829, 35.32017], [-119.2185, 35.30872], [-119.21971, 35.30826], [-119.24563, 35.30579], [-119.24793, 35.30584], [-119.24733, 35.30382], [-119.24805, 35.30342], [-119.25304, 35.30246], [-119.25367, 35.30174], [-119.25614, 35.30086], [-119.25726, 35.30084], [-119.2611, 35.30176], [-119.26334, 35.30326], [-119.25479, 35.30346], [-119.25389, 35.30398], [-119.25255, 35.30429], [-119.2523, 35.30432], [-119.25228, 35.30704], [-119.24747, 35.30717], [-119.24689, 35.31069], [-119.24357, 35.31068], [-119.24355, 35.31431], [-119.23466, 35.3143], [-119.23463, 35.31794], [-119.23128, 35.31796], [-119.23126, 35.31979], [-119.21952, 35.31988], [-119.21949, 35.32536], [-119.21647, 35.32539], [-119.21644, 35.32765], [-119.21202, 35.32764], [-119.21204, 35.3323], [-119.21171, 35.33267], [-119.19869, 35.33266], [-119.19426, 35.33263], [-119.19417, 35.33993], [-119.18551, 35.33991], [-119.18533, 35.34355], [-119.1809, 35.34352], [-119.18083, 35.34613], [-119.17283, 35.34627], [-119.17263, 35.34584], [-119.17084, 35.34605], [-119.1692, 35.34653], [-119.14848, 35.3467], [-119.14756, 35.34657], [-119.14662, 35.34704], [-119.145, 35.34843], [-119.1445, 35.34881], [-119.14399, 35.34916]]]}, "properties": {"name": "2800 Acre Water Bank", "place": "", "kind": "park"}}, {"type": "Feature", "geometry": {"type": "Polygon", "coordinates": [[[-119.01205, 35.30641], [-119.01277, 35.30641], [-119.01277, 35.30677], [-119.01411, 35.30677], [-119.01411, 35.30819], [-119.01205, 35.30819], [-119.01205, 35.30641]]]}, "properties": {"name": "Stiern Park", "place": "", "kind": "park"}}, {"type": "Feature", "geometry": {"type": "Polygon", "coordinates": [[[-119.00969, 35.36087], [-119.01172, 35.36088], [-119.01175, 35.36091], [-119.01176, 35.36214], [-119.01114, 35.36217], [-119.01112, 35.36259], [-119.00966, 35.36259], [-119.00966, 35.36089], [-119.00969, 35.36087]]]}, "properties": {"name": "Lowell Park", "place": "", "kind": "park"}}, {"type": "Feature", "geometry": {"type": "Polygon", "coordinates": [[[-119.12443, 35.35274], [-119.12495, 35.35274], [-119.12589, 35.35259], [-119.12617, 35.35254], [-119.12645, 35.35247], [-119.12666, 35.35237], [-119.12685, 35.35224], [-119.12797, 35.35146], [-119.12813, 35.35139], [-119.12824, 35.35136], [-119.12859, 35.35137], [-119.13066, 35.35137], [-119.13109, 35.3513], [-119.13131, 35.35116], [-119.13335, 35.3525], [-119.13047, 35.35375], [-119.13021, 35.35337], [-119.12914, 35.35387], [-119.12828, 35.35457], [-119.12805, 35.35487], [-119.12805, 35.35491], [-119.12775, 35.3551], [-119.12755, 35.3552], [-119.12323, 35.35663], [-119.12308, 35.35652], [-119.12277, 35.35657], [-119.12275, 35.35675], [-119.11743, 35.35752], [-119.11733, 35.35737], [-119.11697, 35.35744], [-119.11697, 35.35756], [-119.11634, 35.35764], [-119.11611, 35.35641], [-119.116, 35.35642], [-119.11557, 35.35654], [-119.11578, 35.35773], [-119.11452, 35.3579], [-119.11053, 35.36103], [-119.1049, 35.36116], [-119.10437, 35.36116], [-119.10437, 35.36109], [-119.09782, 35.36107], [-119.09759, 35.36109], [-119.09737, 35.36114], [-119.09718, 35.36121], [-119.09687, 35.36135], [-119.09511, 35.3614], [-119.0951, 35.36158], [-119.09459, 35.36157], [-119.09459, 35.36268], [-119.09429, 35.36287], [-119.09416, 35.36296], [-119.09398, 35.36311], [-119.09385, 35.36326], [-119.09324, 35.36412], [-119.09286, 35.36427], [-119.09233, 35.36436], [-119.09232, 35.36421], [-119.09199, 35.36405], [-119.09146, 35.36415], [-119.09136, 35.36422], [-119.09126, 35.36418], [-119.0913, 35.36332], [-119.09098, 35.36339], [-119.09085, 35.36332], [-119.09085, 35.36316], [-119.09092, 35.36214], [-119.091, 35.36212], [-119.09146, 35.36209], [-119.09158, 35.3622], [-119.09155, 35.36256], [-119.09152, 35.36297], [-119.09194, 35.3629], [-119.09203, 35.36286], [-119.09209, 35.36205], [-119.09227, 35.36124], [-119.09239, 35.3609], [-119.09246, 35.36049], [-119.09255, 35.35972], [-119.09262, 35.35953], [-119.09261, 35.35937], [-119.09556, 35.35637], [-119.09595, 35.35597], [-119.09621, 35.35574], [-119.09659, 35.3555], [-119.09703, 35.3553], [-119.09747, 35.35517], [-119.09793, 35.35508], [-119.09842, 35.35504], [-119.10338, 35.35495], [-119.10338, 35.3549], [-119.10346, 35.35491], [-119.10371, 35.35487], [-119.1039, 35.35478], [-119.10405, 35.35467], [-119.10408, 35.35459], [-119.10431, 35.35459], [-119.1043, 35.3548], [-119.10432, 35.35505], [-119.10433, 35.35512], [-119.10436, 35.35521], [-119.10437, 35.35529], [-119.10436, 35.35537], [-119.10673, 35.35599], [-119.10726, 35.35605], [-119.11347, 35.35537], [-119.11368, 35.35531], [-119.1151, 35.3547], [-119.11531, 35.35535], [-119.11566, 35.35524], [-119.11552, 35.35465], [-119.11956, 35.35289], [-119.12006, 35.35283], [-119.12194, 35.35273], [-119.12224, 35.35256], [-119.12443, 35.35274]]]}, "properties": {"name": "Kern River Parkway Park", "place": "", "kind": "park"}}, {"type": "Feature", "geometry": {"type": "Polygon", "coordinates": [[[-119.04592, 35.30189], [-119.04764, 35.30189], [-119.04766, 35.30307], [-119.04597, 35.30306], [-119.04588, 35.30298], [-119.04588, 35.30265], [-119.04589, 35.30248], [-119.04584, 35.3024], [-119.04592, 35.30228], [-119.04592, 35.30189]]]}, "properties": {"name": "Challenger Park", "place": "", "kind": "park"}}, {"type": "Feature", "geometry": {"type": "Polygon", "coordinates": [[[-118.99642, 35.30302], [-118.99642, 35.3014], [-118.99752, 35.3014], [-118.99752, 35.30302], [-118.99642, 35.30302]]]}, "properties": {"name": "Rexland Acres Park", "place": "", "kind": "park"}}, {"type": "Feature", "geometry": {"type": "Polygon", "coordinates": [[[-119.09618, 35.3234], [-119.0962, 35.3234], [-119.09661, 35.32357], [-119.09668, 35.32357], [-119.09687, 35.32356], [-119.09687, 35.32488], [-119.09686, 35.32507], [-119.09586, 35.32509], [-119.09585, 35.32497], [-119.09583, 35.32486], [-119.09579, 35.32475], [-119.0959, 35.32474], [-119.09605, 35.32472], [-119.09605, 35.32356], [-119.0957, 35.32356], [-119.0957, 35.32355], [-119.09576, 35.32354], [-119.09581, 35.3235], [-119.09585, 35.32345], [-119.09586, 35.32341], [-119.09618, 35.3234]]]}, "properties": {"name": "Garden Park", "place": "", "kind": "park"}}, {"type": "Feature", "geometry": {"type": "Polygon", "coordinates": [[[-118.9909, 35.36621], [-118.99398, 35.36618], [-118.9939, 35.3665], [-118.99388, 35.36672], [-118.99387, 35.36832], [-118.99195, 35.36833], [-118.99091, 35.36832], [-118.99091, 35.3673], [-118.9909, 35.36621]]]}, "properties": {"name": "Martin Luther King Park", "place": "", "kind": "park"}}, {"type": "Feature", "geometry": {"type": "Polygon", "coordinates": [[[-119.05761, 35.27155], [-119.05761, 35.27074], [-119.05761, 35.27066], [-119.0576, 35.27058], [-119.05759, 35.27052], [-119.05758, 35.27045], [-119.05757, 35.27042], [-119.05762, 35.27036], [-119.05773, 35.27035], [-119.05783, 35.27035], [-119.05783, 35.27035], [-119.05853, 35.27035], [-119.05985, 35.27036], [-119.05992, 35.27041], [-119.05991, 35.2711], [-119.05985, 35.27115], [-119.05968, 35.27115], [-119.05954, 35.27115], [-119.05941, 35.27116], [-119.05928, 35.27118], [-119.05915, 35.2712], [-119.05902, 35.27123], [-119.05889, 35.27127], [-119.05877, 35.27131], [-119.05865, 35.27136], [-119.05853, 35.27142], [-119.05843, 35.27148], [-119.05833, 35.27154], [-119.05824, 35.2716], [-119.05815, 35.27167], [-119.05807, 35.27175], [-119.05801, 35.2718], [-119.05792, 35.27181], [-119.05764, 35.27161], [-119.05763, 35.2716], [-119.05762, 35.27159], [-119.05761, 35.27158], [-119.05761, 35.27156], [-119.05761, 35.27155]]]}, "properties": {"name": "Weston Park", "place": "", "kind": "park"}}, {"type": "Feature", "geometry": {"type": "Polygon", "coordinates": [[[-119.08027, 35.33888], [-119.08046, 35.33888], [-119.08093, 35.33888], [-119.08095, 35.33907], [-119.08099, 35.33923], [-119.08105, 35.33936], [-119.08123, 35.33967], [-119.08123, 35.33971], [-119.0812, 35.33974], [-119.08113, 35.33976], [-119.08075, 35.33987], [-119.08041, 35.33994], [-119.08004, 35.33998], [-119.07999, 35.33997], [-119.07998, 35.33993], [-119.07998, 35.3392], [-119.08003, 35.33913], [-119.08004, 35.33908], [-119.08004, 35.33904], [-119.08002, 35.339], [-119.08027, 35.33888]]]}, "properties": {"name": "Amberton Park", "place": "", "kind": "park"}}, {"type": "Feature", "geometry": {"type": "Polygon", "coordinates": [[[-118.90194, 35.44056], [-118.9003, 35.43943], [-118.90018, 35.43897], [-118.89869, 35.4382], [-118.89637, 35.43658], [-118.89214, 35.43549], [-118.8921, 35.43532], [-118.89333, 35.43424], [-118.89368, 35.43434], [-118.89451, 35.43371], [-118.89524, 35.43362], [-118.89776, 35.43398], [-118.89927, 35.43455], [-118.90001, 35.43491], [-118.90073, 35.43534], [-118.90118, 35.43575], [-118.90169, 35.43638], [-118.90223, 35.43732], [-118.90249, 35.43828], [-118.90253, 35.43859], [-118.90267, 35.43918], [-118.90275, 35.44023], [-118.90194, 35.44056]]]}, "properties": {"name": "Kern County Soccer Park", "place": "", "kind": "park"}}, {"type": "Feature", "geometry": {"type": "Polygon", "coordinates": [[[-119.00789, 35.38402], [-119.00787, 35.38412], [-119.00787, 35.38439], [-119.00718, 35.38439], [-119.00717, 35.38425], [-119.00789, 35.38402]]]}, "properties": {"name": "Joshua Park", "place": "", "kind": "park"}}, {"type": "Feature", "geometry": {"type": "Polygon", "coordinates": [[[-119.12305, 35.35138], [-119.12369, 35.35086], [-119.12653, 35.35087], [-119.12684, 35.35007], [-119.12708, 35.35006], [-119.12736, 35.34925], [-119.1274, 35.34918], [-119.12752, 35.34912], [-119.12766, 35.34916], [-119.12787, 35.34925], [-119.12787, 35.34921], [-119.12828, 35.34936], [-119.12869, 35.34953], [-119.12908, 35.34972], [-119.12936, 35.34988], [-119.12958, 35.35002], [-119.13131, 35.35116], [-119.13109, 35.3513], [-119.13066, 35.35137], [-119.12859, 35.35137], [-119.12824, 35.35136], [-119.12813, 35.35139], [-119.12797, 35.35146], [-119.12685, 35.35224], [-119.12666, 35.35237], [-119.12645, 35.35247], [-119.12617, 35.35254], [-119.12589, 35.35259], [-119.12495, 35.35274], [-119.12443, 35.35274], [-119.12224, 35.35256], [-119.12225, 35.35226], [-119.12265, 35.35227], [-119.12258, 35.35177], [-119.12305, 35.35138]]]}, "properties": {"name": "The Park at River Walk", "place": "", "kind": "park"}}, {"type": "Feature", "geometry": {"type": "Polygon", "coordinates": [[[-119.08574, 35.40638], [-119.08578, 35.40636], [-119.08582, 35.4064], [-119.08624, 35.40641], [-119.08624, 35.40733], [-119.08611, 35.40733], [-119.08572, 35.40733], [-119.08572, 35.40731], [-119.08511, 35.40731], [-119.08513, 35.40643], [-119.08554, 35.40644], [-119.0856, 35.40637], [-119.08563, 35.40639], [-119.08568, 35.40639], [-119.08574, 35.40638]]]}, "properties": {"name": "Olive Park East", "place": "", "kind": "park"}}, {"type": "Feature", "geometry": {"type": "Polygon", "coordinates": [[[-119.04803, 35.27663], [-119.05003, 35.27664], [-119.05003, 35.27783], [-119.04796, 35.27782], [-119.04796, 35.27669], [-119.04803, 35.27663]]]}, "properties": {"name": "Stone Creek Park", "place": "", "kind": "park"}}, {"type": "Feature", "geometry": {"type": "Polygon", "coordinates": [[[-119.11572, 35.34855], [-119.11585, 35.34857], [-119.11607, 35.34859], [-119.11626, 35.3486], [-119.11751, 35.3486], [-119.11755, 35.34862], [-119.11756, 35.34865], [-119.11756, 35.35004], [-119.11754, 35.35007], [-119.11751, 35.35008], [-119.11714, 35.35008], [-119.11695, 35.35006], [-119.11679, 35.35003], [-119.11663, 35.34999], [-119.11651, 35.34994], [-119.11637, 35.34987], [-119.11623, 35.3498], [-119.11611, 35.34971], [-119.116, 35.34961], [-119.1159, 35.3495], [-119.11583, 35.3494], [-119.11576, 35.34928], [-119.1157, 35.34913], [-119.11566, 35.34899], [-119.11564, 35.34884], [-119.11564, 35.34861], [-119.11566, 35.34857], [-119.11569, 35.34855], [-119.11572, 35.34855]]]}, "properties": {"name": "Windsor Park", "place": "", "kind": "park"}}, {"type": "Feature", "geometry": {"type": "Polygon", "coordinates": [[[-119.09649, 35.32532], [-119.09656, 35.32532], [-119.09685, 35.32532], [-119.09682, 35.32669], [-119.09596, 35.32584], [-119.09588, 35.32573], [-119.09584, 35.32562], [-119.09583, 35.32554], [-119.09583, 35.32533], [-119.09649, 35.32532]]]}, "properties": {"name": "Garden Park", "place": "", "kind": "park"}}, {"type": "Feature", "geometry": {"type": "Polygon", "coordinates": [[[-119.08562, 35.35569], [-119.08563, 35.35568], [-119.08616, 35.35568], [-119.08619, 35.35568], [-119.08621, 35.3557], [-119.08621, 35.35571], [-119.08621, 35.35645], [-119.08621, 35.35653], [-119.08624, 35.35665], [-119.0863, 35.35678], [-119.08639, 35.35693], [-119.0865, 35.35704], [-119.08667, 35.35719], [-119.08674, 35.35724], [-119.08683, 35.35735], [-119.08689, 35.35747], [-119.08693, 35.35759], [-119.08695, 35.35772], [-119.08694, 35.35782], [-119.08688, 35.35816], [-119.0863, 35.35809], [-119.08466, 35.35809], [-119.08468, 35.35656], [-119.08466, 35.35623], [-119.08466, 35.35618], [-119.08517, 35.35583], [-119.08526, 35.35578], [-119.08533, 35.35574], [-119.0854, 35.35572], [-119.08549, 35.3557], [-119.08559, 35.35568], [-119.08562, 35.35569]]]}, "properties": {"name": "Quailwood Park", "place": "", "kind": "park"}}, {"type": "Feature", "geometry": {"type": "Polygon", "coordinates": [[[-118.85088, 35.42874], [-118.84892, 35.42725], [-118.85137, 35.42727], [-118.85154, 35.42839], [-118.85139, 35.42838], [-118.8512, 35.42843], [-118.85088, 35.42874]]]}, "properties": {"name": "Rivers Edge Park", "place": "", "kind": "park"}}, {"type": "Feature", "geometry": {"type": "Polygon", "coordinates": [[[-119.10206, 35.33142], [-119.10255, 35.33142], [-119.1026, 35.33142], [-119.10265, 35.3314], [-119.10281, 35.3314], [-119.10309, 35.33143], [-119.10353, 35.33151], [-119.10394, 35.33164], [-119.10415, 35.33174], [-119.10443, 35.33188], [-119.10458, 35.33198], [-119.10459, 35.33208], [-119.10423, 35.33253], [-119.10401, 35.33288], [-119.10384, 35.33322], [-119.10376, 35.33325], [-119.1035, 35.33319], [-119.10329, 35.33316], [-119.10204, 35.33314], [-119.10206, 35.33173], [-119.10206, 35.33142]]]}, "properties": {"name": "Haggin Oaks Park", "place": "", "kind": "park"}}, {"type": "Feature", "geometry": {"type": "Polygon", "coordinates": [[[-119.01067, 35.38291], [-119.01116, 35.38304], [-119.01156, 35.38314], [-119.01156, 35.38403], [-119.01152, 35.384], [-119.01116, 35.38382], [-119.01067, 35.38357], [-119.01067, 35.38344], [-119.01067, 35.38291]]]}, "properties": {"name": "Weill Park", "place": "", "kind": "park"}}, {"type": "Feature", "geometry": {"type": "Polygon", "coordinates": [[[-119.0319, 35.42141], [-119.03328, 35.4214], [-119.03334, 35.42144], [-119.03333, 35.4215], [-119.03277, 35.42195], [-119.03271, 35.422], [-119.03264, 35.42204], [-119.03257, 35.42207], [-119.0325, 35.4221], [-119.03243, 35.42213], [-119.03235, 35.42215], [-119.03228, 35.42217], [-119.03222, 35.42214], [-119.03219, 35.4221], [-119.03216, 35.42206], [-119.03214, 35.42202], [-119.03211, 35.42198], [-119.03209, 35.42194], [-119.03206, 35.4219], [-119.03204, 35.42186], [-119.03202, 35.42181], [-119.032, 35.42177], [-119.03198, 35.42173], [-119.03196, 35.42169], [-119.03194, 35.42164], [-119.03192, 35.4216], [-119.03191, 35.42156], [-119.03189, 35.42151], [-119.03188, 35.42147], [-119.0319, 35.42141]]]}, "properties": {"name": "MC Cray Park", "place": "", "kind": "park"}}, {"type": "Feature", "geometry": {"type": "Polygon", "coordinates": [[[-119.11907, 35.40889], [-119.12116, 35.40886], [-119.12129, 35.40886], [-119.1213, 35.40935], [-119.12131, 35.4095], [-119.12133, 35.41093], [-119.12008, 35.41094], [-119.11909, 35.41084], [-119.11907, 35.40889]]]}, "properties": {"name": "Almondale Park", "place": "", "kind": "park"}}, {"type": "Feature", "geometry": {"type": "Polygon", "coordinates": [[[-119.10133, 35.31335], [-119.10222, 35.31482], [-119.10178, 35.315], [-119.10158, 35.31507], [-119.10132, 35.31515], [-119.10095, 35.31526], [-119.10047, 35.31537], [-119.09998, 35.31545], [-119.09973, 35.31548], [-119.09953, 35.3155], [-119.09936, 35.31551], [-119.09901, 35.31553], [-119.09894, 35.31547], [-119.09894, 35.31394], [-119.09901, 35.31388], [-119.09928, 35.31387], [-119.09963, 35.31383], [-119.0999, 35.31379], [-119.10025, 35.31371], [-119.10051, 35.31365], [-119.10076, 35.31357], [-119.101, 35.31348], [-119.10133, 35.31335]]]}, "properties": {"name": "Campus Park S.", "place": "", "kind": "park"}}, {"type": "Feature", "geometry": {"type": "Polygon", "coordinates": [[[-119.00528, 35.27139], [-119.00748, 35.27139], [-119.00749, 35.27228], [-119.0067, 35.27229], [-119.00527, 35.27229], [-119.00528, 35.27139]]]}, "properties": {"name": "Greenfield Park", "place": "", "kind": "park"}}, {"type": "Feature", "geometry": {"type": "Polygon", "coordinates": [[[-119.10591, 35.3198], [-119.10594, 35.31986], [-119.10604, 35.32003], [-119.10611, 35.3202], [-119.10618, 35.32038], [-119.10624, 35.3206], [-119.10628, 35.32075], [-119.10629, 35.32085], [-119.1063, 35.32094], [-119.10628, 35.32116], [-119.10626, 35.32134], [-119.10622, 35.32156], [-119.10616, 35.32174], [-119.1061, 35.32192], [-119.10602, 35.32209], [-119.10592, 35.32225], [-119.10581, 35.32241], [-119.10569, 35.32256], [-119.10552, 35.32274], [-119.10542, 35.32275], [-119.10519, 35.32256], [-119.10491, 35.32232], [-119.10476, 35.32216], [-119.10459, 35.32196], [-119.10446, 35.32179], [-119.1043, 35.32155], [-119.10378, 35.32068], [-119.10591, 35.3198]]]}, "properties": {"name": "Campus Park N.", "place": "", "kind": "park"}}, {"type": "Feature", "geometry": {"type": "Polygon", "coordinates": [[[-118.95422, 35.3633], [-118.95518, 35.36328], [-118.95526, 35.36335], [-118.95521, 35.36491], [-118.9542, 35.36492], [-118.95422, 35.3633]]]}, "properties": {"name": "Potomac County Park", "place": "", "kind": "park"}}, {"type": "Feature", "geometry": {"type": "Polygon", "coordinates": [[[-119.06587, 35.32714], [-119.06639, 35.32714], [-119.06639, 35.32755], [-119.06768, 35.32756], [-119.06767, 35.32839], [-119.06764, 35.3284], [-119.06586, 35.3284], [-119.06587, 35.3275], [-119.06587, 35.32714]]]}, "properties": {"name": "Castle Park", "place": "", "kind": "park"}}, {"type": "Feature", "geometry": {"type": "Polygon", "coordinates": [[[-119.01346, 35.37279], [-119.01401, 35.37279], [-119.01401, 35.37312], [-119.01396, 35.37316], [-119.01329, 35.37316], [-119.01346, 35.37292], [-119.01346, 35.37279]]]}, "properties": {"name": "Centennial Plaza", "place": "", "kind": "park"}}, {"type": "Feature", "geometry": {"type": "Polygon", "coordinates": [[[-119.0198, 35.39195], [-119.02098, 35.39198], [-119.02117, 35.39198], [-119.02117, 35.39217], [-119.02214, 35.39216], [-119.0266, 35.39545], [-119.02641, 35.3965], [-119.02597, 35.3973], [-119.02524, 35.39768], [-119.02391, 35.39814], [-119.02169, 35.39865], [-119.02126, 35.39871], [-119.01895, 35.39872], [-119.01891, 35.39266], [-119.0198, 35.39267], [-119.0198, 35.39195]]]}, "properties": {"name": "Metropolitan Recreation Center", "place": "", "kind": "park"}}, {"type": "Feature", "geometry": {"type": "Polygon", "coordinates": [[[-119.15362, 35.40245], [-119.15225, 35.40133], [-119.15321, 35.40155], [-119.1544, 35.40155], [-119.15455, 35.40185], [-119.15458, 35.40192], [-119.15472, 35.40212], [-119.15483, 35.40225], [-119.15497, 35.40238], [-119.15505, 35.40233], [-119.1562, 35.40328], [-119.15628, 35.40338], [-119.15635, 35.40349], [-119.15638, 35.40358], [-119.15641, 35.40372], [-119.1563, 35.40374], [-119.15614, 35.40378], [-119.15594, 35.40385], [-119.15575, 35.40394], [-119.15557, 35.40405], [-119.15535, 35.40387], [-119.15362, 35.40245]]]}, "properties": {"name": "Austin Creek Park", "place": "", "kind": "park"}}, {"type": "Feature", "geometry": {"type": "Polygon", "coordinates": [[[-119.12184, 35.34295], [-119.12186, 35.34296], [-119.12189, 35.34297], [-119.12199, 35.34305], [-119.12211, 35.34316], [-119.12222, 35.34327], [-119.12236, 35.34346], [-119.1225, 35.34369], [-119.12259, 35.34389], [-119.12266, 35.34412], [-119.12269, 35.34437], [-119.12269, 35.34461], [-119.12266, 35.34465], [-119.12263, 35.34466], [-119.12121, 35.34484], [-119.12118, 35.34482], [-119.12115, 35.34479], [-119.12099, 35.34327], [-119.121, 35.34324], [-119.12103, 35.34322], [-119.12123, 35.34318], [-119.12142, 35.34312], [-119.1216, 35.34305], [-119.1218, 35.34296], [-119.12184, 35.34295]]]}, "properties": {"name": "Deer Peak Park", "place": "", "kind": "park"}}, {"type": "Feature", "geometry": {"type": "Polygon", "coordinates": [[[-119.00718, 35.37631], [-119.00921, 35.37632], [-119.00933, 35.3764], [-119.00935, 35.37799], [-119.00932, 35.37802], [-119.00909, 35.37802], [-119.00899, 35.378], [-119.00885, 35.37802], [-119.00877, 35.378], [-119.00868, 35.378], [-119.00863, 35.37801], [-119.00849, 35.37801], [-119.0084, 35.378], [-119.00831, 35.37801], [-119.00803, 35.37801], [-119.00794, 35.378], [-119.00784, 35.37801], [-119.00769, 35.37801], [-119.00761, 35.37799], [-119.00758, 35.37799], [-119.00644, 35.37799], [-119.00645, 35.37797], [-119.00673, 35.37726], [-119.00718, 35.37631]]]}, "properties": {"name": "Central Park", "place": "", "kind": "park"}}, {"type": "Feature", "geometry": {"type": "Polygon", "coordinates": [[[-119.08343, 35.39839], [-119.08459, 35.39838], [-119.08465, 35.39842], [-119.08463, 35.3989], [-119.08461, 35.39894], [-119.0846, 35.39898], [-119.0846, 35.39903], [-119.08461, 35.39908], [-119.08463, 35.39912], [-119.08466, 35.39916], [-119.0847, 35.3992], [-119.08474, 35.39923], [-119.08479, 35.39925], [-119.08488, 35.39927], [-119.08491, 35.40135], [-119.0846, 35.40134], [-119.0842, 35.40131], [-119.08353, 35.40131], [-119.08346, 35.40125], [-119.08346, 35.40091], [-119.08344, 35.39974], [-119.08343, 35.39915], [-119.08343, 35.39839]]]}, "properties": {"name": "Emerald Cove Park", "place": "", "kind": "park"}}, {"type": "Feature", "geometry": {"type": "Polygon", "coordinates": [[[-119.11572, 35.41841], [-119.11751, 35.42072], [-119.11634, 35.42116], [-119.11618, 35.42095], [-119.11602, 35.42077], [-119.11597, 35.42072], [-119.11587, 35.42062], [-119.11565, 35.42045], [-119.11538, 35.42026], [-119.11508, 35.42009], [-119.11479, 35.41997], [-119.11468, 35.41993], [-119.11449, 35.41986], [-119.11416, 35.41978], [-119.11375, 35.41971], [-119.1135, 35.41969], [-119.11572, 35.41841]]]}, "properties": {"name": "Madison Grove Park", "place": "", "kind": "park"}}, {"type": "Feature", "geometry": {"type": "Polygon", "coordinates": [[[-119.13097, 35.35045], [-119.13103, 35.35044], [-119.13114, 35.35049], [-119.13121, 35.3505], [-119.1313, 35.35048], [-119.13135, 35.35043], [-119.13135, 35.35035], [-119.13132, 35.35029], [-119.13134, 35.35026], [-119.132, 35.34978], [-119.13227, 35.34961], [-119.13251, 35.34949], [-119.13272, 35.3494], [-119.1336, 35.34909], [-119.13373, 35.34904], [-119.1351, 35.34832], [-119.13515, 35.34832], [-119.13522, 35.34834], [-119.13528, 35.34834], [-119.13532, 35.34834], [-119.13536, 35.34832], [-119.13541, 35.34827], [-119.13544, 35.34821], [-119.13542, 35.34815], [-119.13538, 35.3481], [-119.13544, 35.34806], [-119.13549, 35.3481], [-119.13555, 35.34812], [-119.13562, 35.34812], [-119.13567, 35.3481], [-119.1357, 35.34808], [-119.13573, 35.34804], [-119.13574, 35.34801], [-119.13574, 35.34795], [-119.13577, 35.34791], [-119.13615, 35.34769], [-119.13626, 35.34762], [-119.13638, 35.34753], [-119.13665, 35.3473], [-119.13675, 35.34722], [-119.1378, 35.34662], [-119.13793, 35.34655], [-119.14052, 35.34542], [-119.14059, 35.34539], [-119.14214, 35.34498], [-119.14225, 35.34497], [-119.14235, 35.34493], [-119.14242, 35.34487], [-119.14246, 35.34482], [-119.14247, 35.34475], [-119.14247, 35.34468], [-119.14244, 35.34462], [-119.14241, 35.34458], [-119.14236, 35.34446], [-119.14231, 35.34436], [-119.14205, 35.34397], [-119.14206, 35.34393], [-119.14209, 35.34391], [-119.14219, 35.34387], [-119.14266, 35.3437], [-119.14272, 35.34371], [-119.14275, 35.34373], [-119.14281, 35.34387], [-119.14288, 35.344], [-119.14296, 35.34411], [-119.14306, 35.34423], [-119.14309, 35.34429], [-119.14311, 35.34433], [-119.14315, 35.34436], [-119.14321, 35.3444], [-119.14328, 35.34442], [-119.14334, 35.34443], [-119.14343, 35.34443], [-119.14354, 35.3444], [-119.14449, 35.34429], [-119.14456, 35.34428], [-119.14461, 35.34429], [-119.14467, 35.34434], [-119.14471, 35.34436], [-119.14476, 35.34437], [-119.14482, 35.34437], [-119.14488, 35.34435], [-119.14491, 35.34431], [-119.14493, 35.34428], [-119.14494, 35.34422], [-119.14533, 35.34419], [-119.14529, 35.34465], [-119.14451, 35.34475], [-119.1444, 35.34482], [-119.14343, 35.34499], [-119.14149, 35.34564], [-119.13839, 35.34684], [-119.13729, 35.34738], [-119.13573, 35.34855], [-119.13235, 35.35024], [-119.13212, 35.3504], [-119.13185, 35.35063], [-119.13182, 35.35087], [-119.13166, 35.35078], [-119.13155, 35.35071], [-119.13144, 35.35071], [-119.13138, 35.35074], [-119.13097, 35.35045]]]}, "properties": {"name": "River Oaks Park", "place": "", "kind": "park"}}, {"type": "Feature", "geometry": {"type": "Polygon", "coordinates": [[[-119.0814, 35.30189], [-119.08327, 35.30222], [-119.08344, 35.30228], [-119.08359, 35.30236], [-119.08371, 35.30248], [-119.0838, 35.30261], [-119.08386, 35.30272], [-119.0823, 35.30339], [-119.08217, 35.30485], [-119.08209, 35.30484], [-119.08178, 35.30477], [-119.08174, 35.30476], [-119.0815, 35.30469], [-119.08128, 35.30462], [-119.08106, 35.30454], [-119.08081, 35.30443], [-119.07997, 35.30403], [-119.07995, 35.30395], [-119.08028, 35.30349], [-119.08079, 35.30276], [-119.08079, 35.30276], [-119.0814, 35.30189]]]}, "properties": {"name": "Silver Creek Park", "place": "", "kind": "park"}}, {"type": "Feature", "geometry": {"type": "Polygon", "coordinates": [[[-119.05342, 35.35899], [-119.05351, 35.35899], [-119.05379, 35.359], [-119.0544, 35.359], [-119.05443, 35.35901], [-119.05444, 35.35902], [-119.05446, 35.35904], [-119.05446, 35.35906], [-119.05445, 35.36032], [-119.05445, 35.36045], [-119.05444, 35.36059], [-119.05442, 35.36072], [-119.0544, 35.36086], [-119.05436, 35.36106], [-119.05432, 35.36119], [-119.05426, 35.36139], [-119.05421, 35.36151], [-119.0542, 35.36153], [-119.05418, 35.36154], [-119.05415, 35.36155], [-119.05413, 35.36154], [-119.05256, 35.36111], [-119.05254, 35.3611], [-119.05253, 35.36109], [-119.05252, 35.36107], [-119.05253, 35.36105], [-119.05336, 35.35901], [-119.05337, 35.359], [-119.05339, 35.35899], [-119.05342, 35.35899]]]}, "properties": {"name": "Centennial Park", "place": "", "kind": "park"}}, {"type": "Feature", "geometry": {"type": "Polygon", "coordinates": [[[-119.10221, 35.30583], [-119.10141, 35.3053], [-119.1014, 35.30396], [-119.10144, 35.30396], [-119.10145, 35.30398], [-119.10146, 35.30401], [-119.10148, 35.30403], [-119.1015, 35.30405], [-119.10155, 35.30406], [-119.10159, 35.30407], [-119.10163, 35.30407], [-119.10167, 35.30405], [-119.10171, 35.30402], [-119.10176, 35.30401], [-119.10331, 35.30401], [-119.1033, 35.30583], [-119.10221, 35.30583]]]}, "properties": {"name": "Tradewinds Park", "place": "", "kind": "park"}}, {"type": "Feature", "geometry": {"type": "Polygon", "coordinates": [[[-119.13224, 35.40511], [-119.13226, 35.40158], [-119.13373, 35.40158], [-119.13658, 35.40159], [-119.13654, 35.40511], [-119.13528, 35.40512], [-119.13224, 35.40511]]]}, "properties": {"name": "Polo Community Park", "place": "", "kind": "park"}}, {"type": "Feature", "geometry": {"type": "Polygon", "coordinates": [[[-119.10567, 35.36218], [-119.10684, 35.36218], [-119.10646, 35.36251], [-119.1064, 35.36248], [-119.10632, 35.36248], [-119.10627, 35.36249], [-119.10622, 35.36252], [-119.1062, 35.36256], [-119.10619, 35.36262], [-119.1062, 35.36266], [-119.10625, 35.36272], [-119.10626, 35.36275], [-119.10626, 35.36361], [-119.10407, 35.3636], [-119.10375, 35.36355], [-119.10344, 35.36355], [-119.10344, 35.36371], [-119.10312, 35.3637], [-119.10313, 35.3628], [-119.10316, 35.36269], [-119.10315, 35.36259], [-119.10309, 35.36248], [-119.10382, 35.36247], [-119.10394, 35.36252], [-119.10567, 35.36252], [-119.10567, 35.36218]]]}, "properties": {"name": "Mondavi Park", "place": "", "kind": "park"}}, {"type": "Feature", "geometry": {"type": "Polygon", "coordinates": [[[-119.16869, 35.33937], [-119.16493, 35.33938], [-119.16472, 35.33927], [-119.16407, 35.33868], [-119.16335, 35.33864], [-119.16301, 35.33927], [-119.16278, 35.33947], [-119.1518, 35.33952], [-119.15161, 35.33935], [-119.15123, 35.33935], [-119.151, 35.33955], [-119.14841, 35.33956], [-119.14806, 35.33958], [-119.14683, 35.33966], [-119.14604, 35.33968], [-119.14582, 35.3395], [-119.14583, 35.33782], [-119.14686, 35.33743], [-119.14704, 35.33775], [-119.14701, 35.33792], [-119.14777, 35.33925], [-119.14815, 35.33917], [-119.14885, 35.33889], [-119.14904, 35.33884], [-119.14941, 35.33877], [-119.14956, 35.33876], [-119.15008, 35.33875], [-119.15036, 35.33866], [-119.15082, 35.33848], [-119.15102, 35.33852], [-119.15135, 35.33836], [-119.15123, 35.33796], [-119.15092, 35.33792], [-119.14995, 35.33713], [-119.14969, 35.33681], [-119.14956, 35.33661], [-119.14961, 35.33638], [-119.16819, 35.32915], [-119.1722, 35.33597], [-119.17204, 35.33607], [-119.17179, 35.33845], [-119.17173, 35.33854], [-119.17126, 35.33876], [-119.17063, 35.33901], [-119.17, 35.33917], [-119.16962, 35.33925], [-119.16951, 35.33927], [-119.16941, 35.33928], [-119.16869, 35.33937]]]}, "properties": {"name": "Highgate - West Ming Village A", "place": "", "kind": "subdivision"}}, {"type": "Feature", "geometry": {"type": "Polygon", "coordinates": [[[-119.10565, 35.32773], [-119.10573, 35.32776], [-119.10578, 35.32778], [-119.1061, 35.3285], [-119.10604, 35.32854], [-119.10599, 35.32859], [-119.10597, 35.32868], [-119.10601, 35.3288], [-119.10601, 35.32888], [-119.10372, 35.32889], [-119.10373, 35.32853], [-119.10377, 35.3285], [-119.10381, 35.32847], [-119.10382, 35.32845], [-119.10386, 35.32838], [-119.10387, 35.32829], [-119.10384, 35.32822], [-119.10384, 35.32807], [-119.10382, 35.32792], [-119.10378, 35.32781], [-119.10373, 35.32758], [-119.10367, 35.32742], [-119.1036, 35.32727], [-119.1035, 35.32709], [-119.1035, 35.32705], [-119.10333, 35.32681], [-119.10328, 35.32674], [-119.10323, 35.32667], [-119.10319, 35.3266], [-119.103, 35.32642], [-119.10265, 35.3262], [-119.10263, 35.32617], [-119.10264, 35.32614], [-119.1029, 35.32591], [-119.10301, 35.32577], [-119.10304, 35.3257], [-119.10343, 35.32528], [-119.10349, 35.32527], [-119.10362, 35.32513], [-119.10371, 35.32512], [-119.10394, 35.32528], [-119.10432, 35.32559], [-119.10465, 35.32593], [-119.10489, 35.32623], [-119.1051, 35.32657], [-119.10554, 35.32752], [-119.10555, 35.32761], [-119.10559, 35.32767], [-119.10565, 35.32773]]]}, "properties": {"name": "Pin Oak Park", "place": "", "kind": "park"}}, {"type": "Feature", "geometry": {"type": "Polygon", "coordinates": [[[-119.08987, 35.33028], [-119.09075, 35.33027], [-119.09074, 35.33081], [-119.09118, 35.33082], [-119.09117, 35.3318], [-119.09101, 35.33191], [-119.09101, 35.33273], [-119.09012, 35.33273], [-119.08967, 35.3327], [-119.08987, 35.33143], [-119.08987, 35.33028]]]}, "properties": {"name": "Westwood Park", "place": "", "kind": "park"}}, {"type": "Feature", "geometry": {"type": "Polygon", "coordinates": [[[-118.98884, 35.34664], [-118.98695, 35.34664], [-118.98698, 35.34433], [-118.98869, 35.34432], [-118.98886, 35.34432], [-118.98886, 35.34506], [-118.98884, 35.34664]]]}, "properties": {"name": "Belle Terrace Park", "place": "", "kind": "park"}}, {"type": "Feature", "geometry": {"type": "Polygon", "coordinates": [[[-119.20072, 35.44283], [-119.20104, 35.44256], [-119.20081, 35.44237], [-119.2008, 35.4417], [-119.20107, 35.4417], [-119.20366, 35.44169], [-119.20371, 35.4417], [-119.20374, 35.44171], [-119.20376, 35.44174], [-119.20377, 35.44178], [-119.20376, 35.44356], [-119.20169, 35.44358], [-119.20161, 35.44356], [-119.20072, 35.44283]]]}, "properties": {"name": "Bishop Acres", "place": "", "kind": "subdivision"}}, {"type": "Feature", "geometry": {"type": "Polygon", "coordinates": [[[-118.83296, 35.20538], [-118.83246, 35.20538], [-118.8311, 35.20539], [-118.83108, 35.20538], [-118.83106, 35.20538], [-118.83105, 35.20537], [-118.83104, 35.20536], [-118.83102, 35.20534], [-118.83102, 35.20533], [-118.83102, 35.20531], [-118.83101, 35.2053], [-118.83101, 35.20473], [-118.83101, 35.20469], [-118.83101, 35.20459], [-118.831, 35.204], [-118.831, 35.20349], [-118.83099, 35.20263], [-118.83099, 35.20247], [-118.83099, 35.20233], [-118.83098, 35.20197], [-118.83099, 35.20195], [-118.831, 35.20193], [-118.83101, 35.20192], [-118.83103, 35.20191], [-118.83105, 35.20191], [-118.83107, 35.2019], [-118.83174, 35.2019], [-118.83281, 35.2019], [-118.8329, 35.2019], [-118.83296, 35.2019], [-118.83298, 35.2019], [-118.83299, 35.20191], [-118.833, 35.20192], [-118.83301, 35.20192], [-118.83302, 35.20194], [-118.83302, 35.20195], [-118.83303, 35.20277], [-118.83304, 35.20327], [-118.83304, 35.20332], [-118.83304, 35.20367], [-118.83305, 35.20417], [-118.83306, 35.2053], [-118.83306, 35.20531], [-118.83305, 35.20533], [-118.83305, 35.20534], [-118.83303, 35.20536], [-118.83302, 35.20537], [-118.833, 35.20537], [-118.83298, 35.20538], [-118.83297, 35.20538], [-118.83296, 35.20538]]]}, "properties": {"name": "Di Giorgio County Park", "place": "", "kind": "park"}}, {"type": "Feature", "geometry": {"type": "Polygon", "coordinates": [[[-118.90451, 35.45092], [-118.90391, 35.45091], [-118.90349, 35.4508], [-118.90309, 35.45057], [-118.9029, 35.45048], [-118.90236, 35.44993], [-118.90161, 35.44919], [-118.90102, 35.44842], [-118.9005, 35.44753], [-118.90018, 35.44725], [-118.89974, 35.44704], [-118.89938, 35.44676], [-118.89906, 35.4464], [-118.89866, 35.4461], [-118.89648, 35.44473], [-118.89603, 35.4444], [-118.89589, 35.44414], [-118.89586, 35.44399], [-118.89585, 35.44395], [-118.89586, 35.44388], [-118.8959, 35.44375], [-118.89679, 35.44159], [-118.89684, 35.44108], [-118.89676, 35.44083], [-118.89654, 35.44058], [-118.89601, 35.44034], [-118.89538, 35.4399], [-118.89417, 35.43884], [-118.89281, 35.4382], [-118.8926, 35.43789], [-118.89281, 35.43756], [-118.89268, 35.43723], [-118.89214, 35.43549], [-118.89637, 35.43658], [-118.89869, 35.4382], [-118.90018, 35.43897], [-118.9003, 35.43943], [-118.90194, 35.44056], [-118.90275, 35.44023], [-118.90297, 35.44177], [-118.90093, 35.44184], [-118.90116, 35.44245], [-118.90133, 35.44416], [-118.90133, 35.44487], [-118.90153, 35.44537], [-118.90188, 35.44622], [-118.90225, 35.44714], [-118.90264, 35.4476], [-118.90339, 35.44816], [-118.90418, 35.44859], [-118.9045, 35.44875], [-118.90451, 35.45092]]]}, "properties": {"name": "Kern River State Recreation Area", "place": "", "kind": "park"}}, {"type": "Feature", "geometry": {"type": "Polygon", "coordinates": [[[-119.01711, 35.2667], [-119.01516, 35.2667], [-119.01504, 35.26669], [-119.01505, 35.26366], [-119.01505, 35.26319], [-119.0208, 35.26318], [-119.0208, 35.26515], [-119.0193, 35.26515], [-119.01929, 35.26517], [-119.01908, 35.26517], [-119.01814, 35.26516], [-119.01814, 35.26538], [-119.01711, 35.26538], [-119.01711, 35.2667]]]}, "properties": {"name": "Southland R.V. Park", "place": "", "kind": "subdivision"}}, {"type": "Feature", "geometry": {"type": "Polygon", "coordinates": [[[-119.1675, 35.35419], [-119.16339, 35.3542], [-119.16336, 35.35252], [-119.16333, 35.35037], [-119.16305, 35.35038], [-119.16306, 35.3487], [-119.16308, 35.34706], [-119.16768, 35.34703], [-119.16764, 35.34838], [-119.16762, 35.35108], [-119.16763, 35.35323], [-119.1675, 35.35419]]]}, "properties": {"name": "Village Greens Gated Neighborhood", "place": "", "kind": "subdivision"}}, {"type": "Feature", "geometry": {"type": "Polygon", "coordinates": [[[-118.89329, 35.40343], [-118.89372, 35.40333], [-118.89381, 35.40329], [-118.89375, 35.40299], [-118.89363, 35.40248], [-118.89349, 35.40197], [-118.8934, 35.40191], [-118.89267, 35.40211], [-118.89211, 35.40225], [-118.89146, 35.40248], [-118.89095, 35.40265], [-118.89047, 35.40286], [-118.89067, 35.4032], [-118.8909, 35.40357], [-118.89109, 35.40392], [-118.89121, 35.40411], [-118.89126, 35.40412], [-118.89195, 35.40388], [-118.89267, 35.40362], [-118.89329, 35.40343]]]}, "properties": {"name": "City in the Hills Park", "place": "", "kind": "park"}}, {"type": "Feature", "geometry": {"type": "Polygon", "coordinates": [[[-119.06639, 35.32467], [-119.06639, 35.32463], [-119.06639, 35.32459], [-119.06639, 35.3245], [-119.0664, 35.32446], [-119.06679, 35.32445], [-119.06717, 35.32445], [-119.06724, 35.32427], [-119.06733, 35.32404], [-119.06735, 35.32405], [-119.06732, 35.32414], [-119.06729, 35.32421], [-119.06729, 35.32424], [-119.06726, 35.32429], [-119.06725, 35.32433], [-119.06735, 35.32435], [-119.06733, 35.3244], [-119.06731, 35.32448], [-119.0673, 35.3245], [-119.06728, 35.32457], [-119.06725, 35.32467], [-119.06714, 35.32472], [-119.0671, 35.32468], [-119.06686, 35.32468], [-119.0665, 35.32468], [-119.0664, 35.32468], [-119.06639, 35.32467]]]}, "properties": {"name": "Sagepointe Park", "place": "", "kind": "park"}}, {"type": "Feature", "geometry": {"type": "Polygon", "coordinates": [[[-119.10578, 35.36827], [-119.10576, 35.36764], [-119.10543, 35.36764], [-119.10544, 35.36771], [-119.10541, 35.36771], [-119.10543, 35.36773], [-119.10543, 35.36775], [-119.10541, 35.36776], [-119.10512, 35.36776], [-119.10498, 35.36764], [-119.1046, 35.36764], [-119.10455, 35.36768], [-119.10455, 35.36818], [-119.10455, 35.36821], [-119.10457, 35.36823], [-119.10459, 35.36825], [-119.10461, 35.36826], [-119.10465, 35.36826], [-119.10578, 35.36827]]]}, "properties": {"name": "Hughes Park", "place": "", "kind": "park"}}, {"type": "Feature", "geometry": {"type": "Polygon", "coordinates": [[[-119.11428, 35.44565], [-119.1143, 35.44564], [-119.1143, 35.44563], [-119.11431, 35.44561], [-119.11432, 35.44556], [-119.11432, 35.44539], [-119.11432, 35.44538], [-119.11434, 35.44536], [-119.11434, 35.4453], [-119.11434, 35.44508], [-119.11434, 35.44507], [-119.11434, 35.44507], [-119.11433, 35.44506], [-119.11433, 35.44493], [-119.11432, 35.44471], [-119.11433, 35.4446], [-119.11432, 35.44458], [-119.1143, 35.44456], [-119.11429, 35.44454], [-119.11427, 35.44453], [-119.11424, 35.44452], [-119.11393, 35.44452], [-119.11391, 35.44451], [-119.11355, 35.4445], [-119.11353, 35.44451], [-119.11352, 35.44452], [-119.11321, 35.44452], [-119.11317, 35.44453], [-119.11316, 35.44454], [-119.11314, 35.44455], [-119.11312, 35.44458], [-119.11311, 35.44505], [-119.11309, 35.44506], [-119.11309, 35.44536], [-119.11311, 35.44538], [-119.11311, 35.4456], [-119.11312, 35.44563], [-119.11314, 35.44565], [-119.11316, 35.44566], [-119.11319, 35.44567], [-119.1135, 35.44567], [-119.11352, 35.44568], [-119.11355, 35.44569], [-119.11389, 35.44569], [-119.11392, 35.44567], [-119.11423, 35.44567], [-119.11425, 35.44567], [-119.11427, 35.44566], [-119.11428, 35.44565]]]}, "properties": {"name": "Flight Park", "place": "", "kind": "park"}}, {"type": "Feature", "geometry": {"type": "Polygon", "coordinates": [[[-119.12847, 35.32331], [-119.12904, 35.32316], [-119.12948, 35.32286], [-119.12992, 35.3225], [-119.13084, 35.32157], [-119.12952, 35.32087], [-119.12818, 35.32017], [-119.12824, 35.32315], [-119.12829, 35.32327], [-119.12847, 35.32331]]]}, "properties": {"name": "Park Square Apartments", "place": "", "kind": "subdivision"}}, {"type": "Feature", "geometry": {"type": "Polygon", "coordinates": [[[-119.13731, 35.31861], [-119.13778, 35.31887], [-119.13777, 35.31895], [-119.13668, 35.32028], [-119.13718, 35.321], [-119.13628, 35.32141], [-119.13583, 35.32072], [-119.13528, 35.32004], [-119.13523, 35.31994], [-119.13524, 35.31986], [-119.13686, 35.31868], [-119.13731, 35.31861]]]}, "properties": {"name": "Belcourt Park", "place": "", "kind": "park"}}, {"type": "Feature", "geometry": {"type": "Polygon", "coordinates": [[[-118.88882, 35.40716], [-118.88884, 35.40699], [-118.8889, 35.40678], [-118.88897, 35.40657], [-118.88903, 35.40639], [-118.88909, 35.40642], [-118.88917, 35.40646], [-118.88928, 35.40653], [-118.88938, 35.40663], [-118.88947, 35.40675], [-118.88956, 35.40692], [-118.88913, 35.40708], [-118.88891, 35.40714], [-118.88882, 35.40716]]]}, "properties": {"name": "Private HOA park", "place": "", "kind": "park"}}, {"type": "Feature", "geometry": {"type": "Polygon", "coordinates": [[[-119.15734, 35.35146], [-119.15729, 35.3515], [-119.15729, 35.35211], [-119.15735, 35.35216], [-119.15764, 35.35216], [-119.15868, 35.35216], [-119.15878, 35.35211], [-119.15875, 35.35146], [-119.15734, 35.35146]]]}, "properties": {"name": "Bill Park Greens", "place": "", "kind": "park"}}, {"type": "Feature", "geometry": {"type": "Polygon", "coordinates": [[[-119.10677, 35.28938], [-119.10682, 35.28943], [-119.10642, 35.29109], [-119.10628, 35.29137], [-119.10617, 35.29153], [-119.10585, 35.2918], [-119.10532, 35.29134], [-119.1047, 35.29075], [-119.10466, 35.29071], [-119.10473, 35.29063], [-119.1048, 35.29054], [-119.10488, 35.2904], [-119.105, 35.29012], [-119.10507, 35.28983], [-119.10507, 35.28974], [-119.10503, 35.2892], [-119.10511, 35.28918], [-119.10549, 35.2892], [-119.10677, 35.28938]]]}, "properties": {"name": "Bridle Creek Park", "place": "", "kind": "park"}}, {"type": "Feature", "geometry": {"type": "Polygon", "coordinates": [[[-119.02141, 35.2964], [-119.02141, 35.29748], [-119.02285, 35.29748], [-119.02286, 35.29602], [-119.02188, 35.29602], [-119.02188, 35.2964], [-119.02141, 35.2964]]]}, "properties": {"name": "Village at Lakeside", "place": "", "kind": "subdivision"}}, {"type": "Feature", "geometry": {"type": "Polygon", "coordinates": [[[-119.11845, 35.44373], [-119.11845, 35.44375], [-119.11844, 35.44377], [-119.11843, 35.44379], [-119.11841, 35.44381], [-119.11847, 35.44386], [-119.11843, 35.44392], [-119.1183, 35.4441], [-119.11801, 35.4444], [-119.11784, 35.44459], [-119.11777, 35.44457], [-119.11771, 35.44464], [-119.11794, 35.44472], [-119.11797, 35.44469], [-119.11803, 35.44465], [-119.11808, 35.44461], [-119.11814, 35.44458], [-119.1183, 35.44451], [-119.11847, 35.44445], [-119.11856, 35.44443], [-119.11867, 35.44441], [-119.11875, 35.44439], [-119.11877, 35.44438], [-119.1188, 35.44436], [-119.11882, 35.44434], [-119.11882, 35.44432], [-119.11878, 35.44413], [-119.11872, 35.44385], [-119.11871, 35.44378], [-119.11871, 35.44375], [-119.11852, 35.44374], [-119.11846, 35.44374], [-119.11845, 35.44373]]]}, "properties": {"name": "Triangle Park", "place": "", "kind": "park"}}, {"type": "Feature", "geometry": {"type": "Polygon", "coordinates": [[[-119.10987, 35.45601], [-119.10924, 35.45553], [-119.10617, 35.45197], [-119.10491, 35.45051], [-119.10371, 35.44871], [-119.10352, 35.44775], [-119.10314, 35.44693], [-119.10209, 35.44598], [-119.10505, 35.44597], [-119.1094, 35.44598], [-119.10949, 35.44591], [-119.10954, 35.44161], [-119.10956, 35.44161], [-119.10965, 35.44169], [-119.11017, 35.44186], [-119.11043, 35.44166], [-119.11106, 35.44166], [-119.11171, 35.44168], [-119.113, 35.44177], [-119.11365, 35.44179], [-119.1143, 35.4418], [-119.11494, 35.44181], [-119.11689, 35.44181], [-119.11754, 35.44181], [-119.11794, 35.44182], [-119.11836, 35.44182], [-119.11846, 35.44191], [-119.11918, 35.44192], [-119.11923, 35.44188], [-119.1193, 35.44185], [-119.11938, 35.44185], [-119.12099, 35.4419], [-119.12209, 35.4419], [-119.12209, 35.44384], [-119.1222, 35.44439], [-119.12216, 35.4453], [-119.12202, 35.44775], [-119.12195, 35.44948], [-119.12262, 35.45134], [-119.12366, 35.45278], [-119.126, 35.45606], [-119.12121, 35.45604], [-119.12034, 35.45604], [-119.10987, 35.45601]]]}, "properties": {"name": "Gossamer Grove", "place": "", "kind": "subdivision"}}, {"type": "Feature", "geometry": {"type": "Polygon", "coordinates": [[[-119.1176, 35.44802], [-119.1176, 35.44795], [-119.11759, 35.44794], [-119.11758, 35.44792], [-119.11755, 35.4479], [-119.11753, 35.44789], [-119.11751, 35.44789], [-119.11747, 35.44789], [-119.11611, 35.44789], [-119.11616, 35.45017], [-119.11616, 35.4502], [-119.11616, 35.45022], [-119.11618, 35.45024], [-119.11619, 35.45026], [-119.11621, 35.45027], [-119.11624, 35.45027], [-119.11626, 35.45028], [-119.11629, 35.45028], [-119.11681, 35.45028], [-119.11684, 35.45028], [-119.11688, 35.45028], [-119.11702, 35.4503], [-119.11706, 35.45031], [-119.11748, 35.45031], [-119.11751, 35.45031], [-119.11753, 35.4503], [-119.11756, 35.45029], [-119.11758, 35.45027], [-119.11759, 35.45025], [-119.11759, 35.4502], [-119.11759, 35.45018], [-119.11759, 35.45017], [-119.11757, 35.45016], [-119.11757, 35.44895], [-119.11758, 35.44804], [-119.1176, 35.44802]]]}, "properties": {"name": "Community Park", "place": "", "kind": "park"}}, {"type": "Feature", "geometry": {"type": "Polygon", "coordinates": [[[-119.18033, 35.35117], [-119.17835, 35.3528], [-119.17698, 35.35424], [-119.17768, 35.35443], [-119.17852, 35.35434], [-119.18087, 35.35427], [-119.18093, 35.35295], [-119.18128, 35.35137], [-119.18033, 35.35117]]]}, "properties": {"name": "Park West at Stockdale River Ranch", "place": "", "kind": "subdivision"}}, {"type": "Feature", "geometry": {"type": "Polygon", "coordinates": [[[-119.18756, 35.35123], [-119.18223, 35.35129], [-119.18065, 35.35098], [-119.18063, 35.35098], [-119.18109, 35.35071], [-119.1821, 35.35014], [-119.18293, 35.34969], [-119.18373, 35.34927], [-119.18403, 35.3492], [-119.18462, 35.34894], [-119.18756, 35.35123]]]}, "properties": {"name": "Stockdale River Ranch Community Park", "place": "", "kind": "park"}}, {"type": "Feature", "geometry": {"type": "Polygon", "coordinates": [[[-119.11862, 35.40513], [-119.11874, 35.39838], [-119.11216, 35.39829], [-119.11221, 35.40236], [-119.11024, 35.40309], [-119.11023, 35.4039], [-119.11219, 35.40388], [-119.1122, 35.4052], [-119.11862, 35.40513]]]}, "properties": {"name": "The Polo Greens", "place": "neighbourhood", "kind": "subdivision"}}, {"type": "Feature", "geometry": {"type": "Polygon", "coordinates": [[[-119.12271, 35.34467], [-119.12115, 35.34487], [-119.12094, 35.34319], [-119.12186, 35.34289], [-119.12238, 35.34339], [-119.12264, 35.34387], [-119.12271, 35.34467]]]}, "properties": {"name": "Deer Peak Park", "place": "", "kind": "park"}}, {"type": "Feature", "geometry": {"type": "Polygon", "coordinates": [[[-119.11762, 35.34858], [-119.11762, 35.35013], [-119.11704, 35.35012], [-119.11665, 35.35004], [-119.11628, 35.34989], [-119.11594, 35.34962], [-119.11574, 35.34935], [-119.1156, 35.34892], [-119.11561, 35.34853], [-119.11762, 35.34858]]]}, "properties": {"name": "Windsor Park", "place": "", "kind": "park"}}, {"type": "Feature", "geometry": {"type": "Polygon", "coordinates": [[[-118.91885, 35.26007], [-118.91873, 35.26003], [-118.91571, 35.26002], [-118.91541, 35.26002], [-118.9154, 35.26084], [-118.9155, 35.26084], [-118.91558, 35.26084], [-118.91873, 35.26084], [-118.91885, 35.26007]]]}, "properties": {"name": "Historic Vineyard Apartments", "place": "", "kind": "subdivision"}}, {"type": "Feature", "geometry": {"type": "Polygon", "coordinates": [[[-118.90745, 35.38341], [-118.90748, 35.37917], [-118.90714, 35.37917], [-118.90714, 35.37827], [-118.90568, 35.37917], [-118.90567, 35.37927], [-118.90553, 35.37938], [-118.90542, 35.37937], [-118.90525, 35.37946], [-118.90526, 35.3831], [-118.90526, 35.38341], [-118.90717, 35.38341], [-118.90745, 35.38341]]]}, "properties": {"name": "Crestview Meadows", "place": "", "kind": "subdivision"}}, {"type": "Feature", "geometry": {"type": "Polygon", "coordinates": [[[-119.16219, 35.3708], [-119.16219, 35.36913], [-119.1603, 35.36913], [-119.16026, 35.36917], [-119.16026, 35.36939], [-119.16025, 35.3708], [-119.16133, 35.3708], [-119.1616, 35.3708], [-119.16219, 35.3708]]]}, "properties": {"name": "Westdale Park", "place": "", "kind": "park"}}, {"type": "Feature", "geometry": {"type": "Polygon", "coordinates": [[[-119.15429, 35.37389], [-119.15277, 35.37388], [-119.15278, 35.37266], [-119.1543, 35.37268], [-119.15429, 35.37389]]]}, "properties": {"name": "Masterpiece Parke", "place": "", "kind": "subdivision"}}, {"type": "Feature", "geometry": {"type": "Polygon", "coordinates": [[[-119.14982, 35.3855], [-119.14777, 35.3855], [-119.14777, 35.38372], [-119.14974, 35.38373], [-119.14983, 35.38379], [-119.14982, 35.3855]]]}, "properties": {"name": "Sablewood Gardens Apartments", "place": "", "kind": "subdivision"}}, {"type": "Feature", "geometry": {"type": "Polygon", "coordinates": [[[-119.09395, 35.39628], [-119.09606, 35.39628], [-119.09616, 35.39626], [-119.09603, 35.39589], [-119.09586, 35.39557], [-119.09554, 35.39519], [-119.09512, 35.39486], [-119.09453, 35.39455], [-119.09395, 35.39438], [-119.09395, 35.39628]]]}, "properties": {"name": "Breakwater Apartments", "place": "", "kind": "subdivision"}}, {"type": "Feature", "geometry": {"type": "Polygon", "coordinates": [[[-119.03668, 35.40627], [-119.03677, 35.40601], [-119.0362, 35.40599], [-119.03621, 35.40628], [-119.03668, 35.40627]]]}, "properties": {"name": "Riverdale Park", "place": "", "kind": "park"}}, {"type": "Feature", "geometry": {"type": "Polygon", "coordinates": [[[-119.03487, 35.40644], [-119.03488, 35.40625], [-119.03468, 35.40624], [-119.03468, 35.40644], [-119.03487, 35.40644]]]}, "properties": {"name": "riverdale subside park", "place": "", "kind": "park"}}, {"type": "Feature", "geometry": {"type": "Polygon", "coordinates": [[[-119.03627, 35.40551], [-119.03643, 35.40551], [-119.03644, 35.40531], [-119.03627, 35.40531], [-119.03627, 35.40551]]]}, "properties": {"name": "riverdale dog park", "place": "", "kind": "park"}}, {"type": "Feature", "geometry": {"type": "Polygon", "coordinates": [[[-119.03687, 35.40664], [-119.03609, 35.40665], [-119.03617, 35.40647], [-119.03678, 35.40649], [-119.03687, 35.40664]]]}, "properties": {"name": "riverdale front park", "place": "", "kind": "park"}}, {"type": "Feature", "geometry": {"type": "Polygon", "coordinates": [[[-119.03848, 35.4055], [-119.0383, 35.40551], [-119.0383, 35.40532], [-119.03848, 35.40532], [-119.03848, 35.4055]]]}, "properties": {"name": "small dog park", "place": "", "kind": "park"}}, {"type": "Feature", "geometry": {"type": "Polygon", "coordinates": [[[-119.03801, 35.40819], [-119.03801, 35.40838], [-119.0382, 35.40837], [-119.03817, 35.40818], [-119.03801, 35.40819]]]}, "properties": {"name": "little dog park", "place": "", "kind": "park"}}]}